State,District,Subdistrict,City,City_Regiotype,Pincode,Locality,Sublocality,Sublocality_ID,Search Terms
Gujarat,Ahmadabad,Ahmadabad City,Ahmadabad,Suburbs,380054,Vikram Nagar,Vikram Nagar,430,"Blackberrys, Allen Solly, Titan"
Gujarat,Ahmadabad,Ahmadabad City,Ahmadabad,Second City,380054,Thaltej,Hebatpur Village,79,"Pierre Cardin, Being Human "
Gujarat,Ahmadabad,Ahmadabad City,Ahmadabad,Suburbs,380054,Ashok Vatika,Ashok Vatika,287,"Mexx, Van Heusen, Titan"
Gujarat,Ahmadabad,Ahmadabad City,Ahmadabad,Second City,380054,Ashok Vatika,Ashok Vatika,287,"Being Human, Pierre Cardin, Mexx"
Gujarat,Ahmadabad,Ahmadabad City,Ahmadabad,Second City,380054,Bodakdev,Bodakdev,293,"Allen Solly, Titan, Pierre Cardin"
Gujarat,Ahmadabad,Ahmadabad City,Ahmadabad,Second City,380054,Thaltej,Shangrila,233,"Mexx, Van Heusen, Titan"
Gujarat,Ahmadabad,Ahmadabad City,Ahmadabad,Second City,380054,Thaltej,Panchamrut Bunglows II,155,"Being Human, Pierre Cardin, Mexx"
Gujarat,Ahmadabad,Ahmadabad City,Ahmadabad,Suburbs,380054,Bodakdev,Bodakdev,293,"Blackberrys, Allen Solly, Titan"
Gujarat,Ahmadabad,Ahmadabad City,Ahmadabad,Second City,380054,Thaltej,Shangrila,233,"Being Human, Pierre Cardin, Mexx"
Gujarat,Ahmadabad,Ahmadabad City,Ahmadabad,Suburbs,380054,Gurukul,Sunrise Park,254,"Being Human, Pierre Cardin, Mexx"
Gujarat,Ahmadabad,Ahmadabad City,Ahmadabad,Second City,380054,Thaltej,PRL Colony,185,"Pierre Cardin, Being Human "
Gujarat,Ahmadabad,Ahmadabad City,Ahmadabad,Second City,380054,Thaltej,Jai Ambe Nagar,93,"Mexx, Van Heusen, Titan"
Gujarat,Ahmadabad,Ahmadabad City,Ahmadabad,Suburbs,380054,Bodakdev,Bodakdev,293,"Allen Solly, Titan, Pierre Cardin"
Gujarat,Ahmadabad,Ahmadabad City,Ahmadabad,Second City,380054,Thaltej,PRL Colony,185,"Mexx, Van Heusen, Titan"
Gujarat,Ahmadabad,Ahmadabad City,Ahmadabad,Suburbs,380054,Vikram Nagar,Vikram Nagar,430,"Allen Solly, Titan, Pierre Cardin"
Gujarat,Ahmadabad,Ahmadabad City,Ahmadabad,Second City,380054,Bodakdev,Bodakdev,293,"Mexx, Van Heusen, Titan"
Gujarat,Ahmadabad,Ahmadabad City,Ahmadabad,Second City,380054,Thaltej,Shangrila,233,"Being Human, Pierre Cardin, Mexx"
Gujarat,Ahmadabad,Ahmadabad City,Ahmadabad,Second City,380059,Thaltej,Shangrila,233,"Blackberrys, Allen Solly, Titan"
Gujarat,Ahmadabad,Ahmadabad City,Ahmadabad,Second City,380054,Thaltej,PRL Colony,185,"Mexx, Van Heusen, Titan"
Gujarat,Ahmadabad,Ahmadabad City,Ahmadabad,Second City,380054,Thaltej,PRL Colony,185,"Allen Solly, Titan, Pierre Cardin"
Gujarat,Ahmadabad,Ahmadabad City,Ahmadabad,Second City,380054,Thaltej,PRL Colony,185,"Mexx, Van Heusen, Titan"
Gujarat,Ahmadabad,Ahmadabad City,Ahmadabad,Second City,380054,Thaltej,Panchamrut Bunglows II,155,"Allen Solly, Titan, Pierre Cardin"
Gujarat,Ahmadabad,Ahmadabad City,Ahmadabad,Suburbs,380054,Bodakdev,Bodakdev,293,"Blackberrys, Allen Solly, Titan"
Gujarat,Ahmadabad,Ahmadabad City,Ahmadabad,Second City,380054,Thaltej,PRL Colony,185,"Mexx, Van Heusen, Titan"
Gujarat,Ahmadabad,Ahmadabad City,Ahmadabad,Second City,380054,Bodakdev,Bodakdev,293,"Allen Solly, Titan, Pierre Cardin"
Gujarat,Ahmadabad,Ahmadabad City,Ahmadabad,Second City,380054,Thaltej,Shangrila,233,"Pierre Cardin, Being Human "
Gujarat,Ahmadabad,Ahmadabad City,Ahmadabad,Second City,380054,Mem Nagar,Nilmani Society,147,"Being Human, Pierre Cardin, Mexx"
Gujarat,Ahmadabad,Ahmadabad City,Ahmadabad,Second City,380054,Thaltej,Shangrila,233,"Mexx, Van Heusen, Titan"
Gujarat,Ahmadabad,Ahmadabad City,Ahmadabad,Second City,380054,Thaltej,Shangrila,233,"Being Human, Pierre Cardin, Mexx"
Gujarat,Ahmadabad,Ahmadabad City,Ahmadabad,Second City,380054,Thaltej,PRL Colony,185,"Blackberrys, Allen Solly, Titan"
Gujarat,Ahmadabad,Ahmadabad City,Ahmadabad,Second City,380054,Thaltej,Bhaikakanagar,19,"Pierre Cardin, Being Human "
Gujarat,Ahmadabad,Ahmadabad City,Ahmadabad,Second City,380054,Mem Nagar,Sarathi Co-operative Housing Society,213,"Mexx, Van Heusen, Titan"
Gujarat,Ahmadabad,Ahmadabad City,Ahmadabad,Second City,380054,Thaltej,Someshwar Park III,245,"Being Human, Pierre Cardin, Mexx"
Gujarat,Ahmadabad,Ahmadabad City,Ahmadabad,Suburbs,380054,Satellite,Premchand Nagar,182,"Allen Solly, Titan, Pierre Cardin"
Gujarat,Ahmadabad,Ahmadabad City,Ahmadabad,Second City,380054,Thaltej,Shangrila,233,"Mexx, Van Heusen, Titan"
Gujarat,Ahmadabad,Ahmadabad City,Ahmadabad,Second City,380054,Thaltej,Shangrila,233,"Being Human, Pierre Cardin, Mexx"
Gujarat,Ahmadabad,Ahmadabad City,Ahmadabad,Second City,380054,Thaltej,Shangrila,233,"Blackberrys, Allen Solly, Titan"
Gujarat,Ahmadabad,Ahmadabad City,Ahmadabad,Suburbs,380054,Vikram Nagar,Vikram Nagar,430,"Being Human, Pierre Cardin, Mexx"
Gujarat,Ahmadabad,Ahmadabad City,Ahmadabad,Suburbs,380054,Bodakdev,Bodakdev,293,"Being Human, Pierre Cardin, Mexx"
Gujarat,Ahmadabad,Ahmadabad City,Ahmadabad,Suburbs,380054,Mem Nagar,Mem Nagar,348,"Pierre Cardin, Being Human "
Gujarat,Ahmadabad,Ahmadabad City,Ahmadabad,Second City,380054,Bodakdev,Bodakdev,293,"Mexx, Van Heusen, Titan"
Gujarat,Ahmadabad,Ahmadabad City,Ahmadabad,Second City,380054,Thaltej,PRL Colony,185,"Allen Solly, Titan, Pierre Cardin"
Gujarat,Ahmadabad,Ahmadabad City,Ahmadabad,Second City,380054,Bodakdev,Sumeru,251,"Mexx, Van Heusen, Titan"
Gujarat,Ahmadabad,Ahmadabad City,Ahmadabad,Second City,380058,Thaltej,PRL Colony,185,"Allen Solly, Titan, Pierre Cardin"
Gujarat,Ahmadabad,Ahmadabad City,Ahmadabad,Second City,380054,Thaltej,PRL Colony,185,"Mexx, Van Heusen, Titan"
Gujarat,Ahmadabad,Ahmadabad City,Ahmadabad,Second City,380054,Thaltej,Shangrila,233,"Being Human, Pierre Cardin, Mexx"
Gujarat,Ahmadabad,Ahmadabad City,Ahmadabad,Second City,380054,Bodakdev,Sumeru,251,"Blackberrys, Allen Solly, Titan"
Gujarat,Ahmadabad,Ahmadabad City,Ahmadabad,Second City,380054,Thaltej,Hebatpur Village,79,"Mexx, Van Heusen, Titan"
Gujarat,Ahmadabad,Ahmadabad City,Ahmadabad,Second City,380054,Gurukul,Sunrise Park,254,"Allen Solly, Titan, Pierre Cardin"
Gujarat,Ahmadabad,Ahmadabad City,Ahmadabad,Second City,380054,Bodakdev,Bodakdev,293,"Mexx, Van Heusen, Titan"
Gujarat,Ahmadabad,Ahmadabad City,Ahmadabad,Second City,380054,Bodakdev,Bodakdev,293,"Allen Solly, Titan, Pierre Cardin"
Gujarat,Ahmadabad,Ahmadabad City,Ahmadabad,Second City,380054,Thaltej,PRL Colony,185,"Blackberrys, Allen Solly, Titan"
Gujarat,Ahmadabad,Ahmadabad City,Ahmadabad,Suburbs,380054,Thaltej,Someshwar Park III,245,"Mexx, Van Heusen, Titan"
Gujarat,Ahmadabad,Ahmadabad City,Ahmadabad,Suburbs,380054,Thaltej,Nirant Park Society Part 1,148,"Allen Solly, Titan, Pierre Cardin"
Gujarat,Ahmadabad,Ahmadabad City,Ahmadabad,Second City,380054,Gurukul,Sunrise Park,254,"Pierre Cardin, Being Human "
Gujarat,Ahmadabad,Ahmadabad City,Ahmadabad,Suburbs,380054,Mem Nagar,Mem Nagar,348,"Being Human, Pierre Cardin, Mexx"
Gujarat,Ahmadabad,Ahmadabad City,Ahmadabad,Suburbs,380051,Bodakdev,Bodakdev,293,"Mexx, Van Heusen, Titan"
Gujarat,Ahmadabad,Ahmadabad City,Ahmadabad,Second City,380054,Thaltej,Jai Ambe Nagar,93,"Being Human, Pierre Cardin, Mexx"
Gujarat,Ahmadabad,Ahmadabad City,Ahmadabad,Second City,380054,Thaltej,Shangrila,233,"Blackberrys, Allen Solly, Titan"
Gujarat,Ahmadabad,Ahmadabad City,Ahmadabad,Second City,380054,Thaltej,Someshwar Park III,245,"Pierre Cardin, Being Human "
Gujarat,Ahmadabad,Ahmadabad City,Ahmadabad,Second City,380054,Bodakdev,Bodakdev,293,"Mexx, Van Heusen, Titan"
Gujarat,Ahmadabad,Ahmadabad City,Ahmadabad,Suburbs,380054,Thaltej,Nirant Park Society Part 2,149,"Being Human, Pierre Cardin, Mexx"
Gujarat,Ahmadabad,Ahmadabad City,Ahmadabad,Second City,380054,Bodakdev,Sumeru,251,"Allen Solly, Titan, Pierre Cardin"
Gujarat,Ahmadabad,Ahmadabad City,Ahmadabad,Second City,380054,Thaltej,PRL Colony,185,"Mexx, Van Heusen, Titan"
Gujarat,Ahmadabad,Ahmadabad City,Ahmadabad,Suburbs,380054,Ghatlodia,Shenbhai Nagar,239,"Being Human, Pierre Cardin, Mexx"
Gujarat,Ahmadabad,Ahmadabad City,Ahmadabad,Second City,380054,Thaltej,Shangrila,233,"Blackberrys, Allen Solly, Titan"
Gujarat,Ahmadabad,Ahmadabad City,Ahmadabad,Suburbs,380054,Bodakdev,Bodakdev,293,"Being Human, Pierre Cardin, Mexx"
Gujarat,Ahmadabad,Ahmadabad City,Ahmadabad,Suburbs,380054,Gurukul,Sunrise Park,254,"Being Human, Pierre Cardin, Mexx"
Gujarat,Ahmadabad,Ahmadabad City,Ahmadabad,Suburbs,380054,Mem Nagar,Nilmani Society,147,"Pierre Cardin, Being Human "
Gujarat,Ahmadabad,Ahmadabad City,Ahmadabad,Suburbs,380054,Bodakdev,Bodakdev,293,"Mexx, Van Heusen, Titan"
Gujarat,Ahmadabad,Ahmadabad City,Ahmadabad,Second City,380054,Thaltej,Panchamrut Bunglows II,155,"Allen Solly, Titan, Pierre Cardin"
Gujarat,Ahmadabad,Ahmadabad City,Ahmadabad,Second City,380054,Thaltej,PRL Colony,185,"Mexx, Van Heusen, Titan"
Gujarat,Ahmadabad,Ahmadabad City,Ahmadabad,Second City,380054,Thaltej,Shangrila,233,"Allen Solly, Titan, Pierre Cardin"
Gujarat,Ahmadabad,Ahmadabad City,Ahmadabad,Suburbs,380054,Vikram Nagar,Vikram Nagar,430,"Mexx, Van Heusen, Titan"
Gujarat,Ahmadabad,Ahmadabad City,Ahmadabad,Second City,380054,Thaltej,Bhaikakanagar,19,"Being Human, Pierre Cardin, Mexx"
Gujarat,Ahmadabad,Ahmadabad City,Ahmadabad,Second City,380054,Bodakdev,Sumeru,251,"Blackberrys, Allen Solly, Titan"
Gujarat,Ahmadabad,Ahmadabad City,Ahmadabad,Second City,380054,Thaltej,Jai Ambe Nagar,93,"Mexx, Van Heusen, Titan"
Gujarat,Ahmadabad,Ahmadabad City,Ahmadabad,Second City,380054,Thaltej,Shangrila,233,"Allen Solly, Titan, Pierre Cardin"
Gujarat,Ahmadabad,Ahmadabad City,Ahmadabad,Second City,380054,Thaltej,Shangrila,233,"Mexx, Van Heusen, Titan"
Gujarat,Ahmadabad,Ahmadabad City,Ahmadabad,Second City,380054,Thaltej,Hebatpur Village,79,"Allen Solly, Titan, Pierre Cardin"
Gujarat,Ahmadabad,Ahmadabad City,Ahmadabad,Suburbs,380054,Ashok Vatika,Ashok Vatika,287,"Blackberrys, Allen Solly, Titan"
Gujarat,Ahmadabad,Ahmadabad City,Ahmadabad,Second City,380054,Thaltej,PRL Colony,185,"Mexx, Van Heusen, Titan"
Gujarat,Ahmadabad,Ahmadabad City,Ahmadabad,Second City,380054,Thaltej,Someshwar Park III,245,"Allen Solly, Titan, Pierre Cardin"
Gujarat,Ahmadabad,Ahmadabad City,Ahmadabad,Second City,380054,Thaltej,Panchamrut Bunglows II,155,"Pierre Cardin, Being Human "
Gujarat,Ahmadabad,Ahmadabad City,Ahmadabad,Suburbs,380054,Bodakdev,Bodakdev,293,"Being Human, Pierre Cardin, Mexx"
Gujarat,Ahmadabad,Ahmadabad City,Ahmadabad,Second City,380054,Thaltej,PRL Colony,185,"Mexx, Van Heusen, Titan"
Gujarat,Ahmadabad,Ahmadabad City,Ahmadabad,Suburbs,380054,Vikram Nagar,Vikram Nagar,430,"Being Human, Pierre Cardin, Mexx"
Gujarat,Ahmadabad,Ahmadabad City,Ahmadabad,Second City,380054,Thaltej,Shangrila,233,"Blackberrys, Allen Solly, Titan"
Gujarat,Ahmadabad,Ahmadabad City,Ahmadabad,Second City,380054,Thaltej,Shangrila,233,"Pierre Cardin, Being Human "
Gujarat,Ahmadabad,Ahmadabad City,Ahmadabad,Second City,380054,Thaltej,Shangrila,233,"Mexx, Van Heusen, Titan"
Gujarat,Ahmadabad,Ahmadabad City,Ahmadabad,Second City,380054,Thaltej,Bhaikakanagar,19,"Being Human, Pierre Cardin, Mexx"
Gujarat,Ahmadabad,Ahmadabad City,Ahmadabad,Second City,380054,Bodakdev,Bodakdev,293,"Allen Solly, Titan, Pierre Cardin"
Gujarat,Ahmadabad,Ahmadabad City,Ahmadabad,Second City,380054,Gurukul,Sunrise Park,254,"Mexx, Van Heusen, Titan"
Gujarat,Ahmadabad,Ahmadabad City,Ahmadabad,Second City,380054,Thaltej,PRL Colony,185,"Being Human, Pierre Cardin, Mexx"
Gujarat,Ahmadabad,Ahmadabad City,Ahmadabad,Second City,380054,Thaltej,Shangrila,233,"Blackberrys, Allen Solly, Titan"
Gujarat,Ahmadabad,Ahmadabad City,Ahmadabad,Second City,380054,Thaltej,PRL Colony,185,"Being Human, Pierre Cardin, Mexx"
Gujarat,Ahmadabad,Ahmadabad City,Ahmadabad,Suburbs,380061,Ghatlodia,Shenbhai Nagar,239,"Being Human, Pierre Cardin, Mexx"
Gujarat,Ahmadabad,Ahmadabad City,Ahmadabad,Second City,380054,Thaltej,PRL Colony,185,"Pierre Cardin, Being Human "
Gujarat,Ahmadabad,Ahmadabad City,Ahmadabad,Suburbs,380054,Ashok Vatika,Ashok Vatika,287,"Mexx, Van Heusen, Titan"
Gujarat,Ahmadabad,Ahmadabad City,Ahmadabad,Second City,380054,Bodakdev,Bodakdev,293,"Allen Solly, Titan, Pierre Cardin"
Gujarat,Ahmadabad,Ahmadabad City,Ahmadabad,Second City,380058,Thaltej,PRL Colony,185,"Mexx, Van Heusen, Titan"
Gujarat,Ahmadabad,Ahmadabad City,Ahmadabad,Second City,380054,Thaltej,PRL Colony,185,"Allen Solly, Titan, Pierre Cardin"
Gujarat,Ahmadabad,Ahmadabad City,Ahmadabad,Second City,380054,Thaltej,Bhaikakanagar,19,"Mexx, Van Heusen, Titan"
Gujarat,Ahmadabad,Ahmadabad City,Ahmadabad,Second City,380054,Thaltej,Shangrila,233,"Being Human, Pierre Cardin, Mexx"
Gujarat,Ahmadabad,Ahmadabad City,Ahmadabad,Suburbs,380054,Mem Nagar,Nilmani Society,147,"Blackberrys, Allen Solly, Titan"
Gujarat,Ahmadabad,Ahmadabad City,Ahmadabad,Second City,380054,Bodakdev,Sumeru,251,"Mexx, Van Heusen, Titan"
Gujarat,Ahmadabad,Ahmadabad City,Ahmadabad,Second City,380054,Thaltej,Bhaikakanagar,19,"Allen Solly, Titan, Pierre Cardin"
Gujarat,Ahmadabad,Ahmadabad City,Ahmadabad,Second City,380054,Thaltej,Shangrila,233,"Mexx, Van Heusen, Titan"
Gujarat,Ahmadabad,Ahmadabad City,Ahmadabad,Suburbs,380015,Vastrapur,Vastrapur,426,"Allen Solly, Titan, Pierre Cardin"
Gujarat,Ahmadabad,Ahmadabad City,Ahmadabad,Second City,380054,Bodakdev,Bodakdev,293,"Blackberrys, Allen Solly, Titan"
Gujarat,Ahmadabad,Ahmadabad City,Ahmadabad,Second City,380054,Thaltej,Shangrila,233,"Mexx, Van Heusen, Titan"
Gujarat,Ahmadabad,Ahmadabad City,Ahmadabad,Second City,380054,Vastrapur,Vastrapur,426,"Allen Solly, Titan, Pierre Cardin"
Gujarat,Ahmadabad,Ahmadabad City,Ahmadabad,Second City,380054,Thaltej,Shangrila,233,"Pierre Cardin, Being Human "
Gujarat,Ahmadabad,Ahmadabad City,Ahmadabad,Second City,380054,Thaltej,Shangrila,233,"Being Human, Pierre Cardin, Mexx"
Gujarat,Ahmadabad,Ahmadabad City,Ahmadabad,Second City,380054,Thaltej,Shangrila,233,"Mexx, Van Heusen, Titan"
Gujarat,Ahmadabad,Ahmadabad City,Ahmadabad,Second City,380054,Thaltej,Shangrila,233,"Being Human, Pierre Cardin, Mexx"
Gujarat,Ahmadabad,Ahmadabad City,Ahmadabad,Second City,380054,Thaltej,Shangrila,233,"Blackberrys, Allen Solly, Titan"
Gujarat,Ahmadabad,Ahmadabad City,Ahmadabad,Second City,380054,Thaltej,Shangrila,233,"Pierre Cardin, Being Human "
Gujarat,Ahmadabad,Ahmadabad City,Ahmadabad,Suburbs,380058,Ashok Vatika,Ashok Vatika,287,"Mexx, Van Heusen, Titan"
Gujarat,Ahmadabad,Ahmadabad City,Ahmadabad,Second City,380054,Ashok Vatika,Ashok Vatika,287,"Being Human, Pierre Cardin, Mexx"
Gujarat,Ahmadabad,Ahmadabad City,Ahmadabad,Suburbs,380054,Bodakdev,Bodakdev,293,"Allen Solly, Titan, Pierre Cardin"
Gujarat,Ahmadabad,Ahmadabad City,Ahmadabad,Second City,380054,Thaltej,Shangrila,233,"Mexx, Van Heusen, Titan"
Gujarat,Ahmadabad,Ahmadabad City,Ahmadabad,Second City,380054,Thaltej,Jai Ambe Nagar,93,"Being Human, Pierre Cardin, Mexx"
Gujarat,Ahmadabad,Ahmadabad City,Ahmadabad,Second City,380054,Bodakdev,Bodakdev,293,"Blackberrys, Allen Solly, Titan"
Gujarat,Ahmadabad,Ahmadabad City,Ahmadabad,Second City,380054,Thaltej,Jai Ambe Nagar,93,"Being Human, Pierre Cardin, Mexx"
Gujarat,Ahmadabad,Ahmadabad City,Ahmadabad,Second City,380054,Thaltej,Shangrila,233,"Being Human, Pierre Cardin, Mexx"
Gujarat,Ahmadabad,Ahmadabad City,Ahmadabad,Second City,380058,Thaltej,PRL Colony,185,"Pierre Cardin, Being Human "
Gujarat,Ahmadabad,Ahmadabad City,Ahmadabad,Second City,380054,Thaltej,Shangrila,233,"Mexx, Van Heusen, Titan"
Gujarat,Ahmadabad,Ahmadabad City,Ahmadabad,Second City,380054,Bodakdev,Sumeru,251,"Allen Solly, Titan, Pierre Cardin"
Gujarat,Ahmadabad,Ahmadabad City,Ahmadabad,Second City,380054,Thaltej,Shangrila,233,"Mexx, Van Heusen, Titan"
Gujarat,Ahmadabad,Ahmadabad City,Ahmadabad,Suburbs,380054,Satellite,Premchand Nagar,182,"Allen Solly, Titan, Pierre Cardin"
Gujarat,Ahmadabad,Ahmadabad City,Ahmadabad,Suburbs,380054,Bodakdev,Bodakdev,293,"Mexx, Van Heusen, Titan"
Gujarat,Ahmadabad,Ahmadabad City,Ahmadabad,Second City,380054,Thaltej,Shangrila,233,"Being Human, Pierre Cardin, Mexx"
Gujarat,Ahmadabad,Ahmadabad City,Ahmadabad,Second City,380054,Thaltej,Shangrila,233,"Blackberrys, Allen Solly, Titan"
Gujarat,Ahmadabad,Ahmadabad City,Ahmadabad,Second City,380054,Thaltej,PRL Colony,185,"Mexx, Van Heusen, Titan"
Gujarat,Ahmadabad,Ahmadabad City,Ahmadabad,Second City,380054,Thaltej,Shangrila,233,"Allen Solly, Titan, Pierre Cardin"
Gujarat,Ahmadabad,Ahmadabad City,Ahmadabad,Second City,380054,Thaltej,Shangrila,233,"Mexx, Van Heusen, Titan"
Gujarat,Ahmadabad,Ahmadabad City,Ahmadabad,Second City,380054,Thaltej,Shangrila,233,"Allen Solly, Titan, Pierre Cardin"
Gujarat,Ahmadabad,Ahmadabad City,Ahmadabad,Second City,380054,Ashok Vatika,Ashok Vatika,287,"Blackberrys, Allen Solly, Titan"
Gujarat,Ahmadabad,Ahmadabad City,Ahmadabad,Second City,380054,Thaltej,Shangrila,233,"Mexx, Van Heusen, Titan"
Gujarat,Ahmadabad,Ahmadabad City,Ahmadabad,Second City,380054,Thaltej,Bhaikakanagar,19,"Allen Solly, Titan, Pierre Cardin"
Gujarat,Ahmadabad,Ahmadabad City,Ahmadabad,Second City,380054,Thaltej,Shangrila,233,"Pierre Cardin, Being Human "
Gujarat,Ahmadabad,Ahmadabad City,Ahmadabad,Second City,380054,Bodakdev,Bodakdev,293,"Being Human, Pierre Cardin, Mexx"
Gujarat,Ahmadabad,Ahmadabad City,Ahmadabad,Second City,380054,Thaltej,Shangrila,233,"Mexx, Van Heusen, Titan"
Gujarat,Ahmadabad,Ahmadabad City,Ahmadabad,Second City,380054,Thaltej,Jai Ambe Nagar,93,"Being Human, Pierre Cardin, Mexx"
Gujarat,Ahmadabad,Ahmadabad City,Ahmadabad,Second City,380054,Thaltej,Panchamrut Bunglows II,155,"Blackberrys, Allen Solly, Titan"
Gujarat,Ahmadabad,Ahmadabad City,Ahmadabad,Second City,380054,Thaltej,Shangrila,233,"Pierre Cardin, Being Human "
Gujarat,Ahmadabad,Ahmadabad City,Ahmadabad,Second City,380054,Thaltej,Jai Ambe Nagar,93,"Mexx, Van Heusen, Titan"
Gujarat,Ahmadabad,Ahmadabad City,Ahmadabad,Second City,380054,Thaltej,Shangrila,233,"Being Human, Pierre Cardin, Mexx"
Gujarat,Ahmadabad,Ahmadabad City,Ahmadabad,Second City,380054,Thaltej,Shangrila,233,"Allen Solly, Titan, Pierre Cardin"
Gujarat,Ahmadabad,Ahmadabad City,Ahmadabad,Second City,380054,Thaltej,Shangrila,233,"Mexx, Van Heusen, Titan"
Gujarat,Ahmadabad,Ahmadabad City,Ahmadabad,Second City,380054,Bodakdev,Bodakdev,293,"Being Human, Pierre Cardin, Mexx"
Gujarat,Ahmadabad,Ahmadabad City,Ahmadabad,Second City,380054,Thaltej,Shangrila,233,"Blackberrys, Allen Solly, Titan"
Gujarat,Ahmadabad,Ahmadabad City,Ahmadabad,Second City,380054,Bodakdev,Bodakdev,293,"Being Human, Pierre Cardin, Mexx"
Gujarat,Ahmadabad,Ahmadabad City,Ahmadabad,Second City,380054,Thaltej,Shangrila,233,"Being Human, Pierre Cardin, Mexx"
Gujarat,Ahmadabad,Ahmadabad City,Ahmadabad,Second City,380054,Thaltej,Shangrila,233,"Pierre Cardin, Being Human "
Gujarat,Ahmadabad,Ahmadabad City,Ahmadabad,Second City,380054,Thaltej,Shangrila,233,"Mexx, Van Heusen, Titan"
Gujarat,Ahmadabad,Ahmadabad City,Ahmadabad,Second City,380054,Thaltej,Shangrila,233,"Allen Solly, Titan, Pierre Cardin"
Gujarat,Ahmadabad,Ahmadabad City,Ahmadabad,Second City,380054,Thaltej,Shangrila,233,"Mexx, Van Heusen, Titan"
Gujarat,Ahmadabad,Ahmadabad City,Ahmadabad,Second City,380054,Thaltej,Shangrila,233,"Allen Solly, Titan, Pierre Cardin"
Gujarat,Ahmadabad,Ahmadabad City,Ahmadabad,Second City,380054,Thaltej,Shangrila,233,"Mexx, Van Heusen, Titan"
Gujarat,Ahmadabad,Ahmadabad City,Ahmadabad,Second City,380054,Thaltej,Jai Ambe Nagar,93,"Being Human, Pierre Cardin, Mexx"
Gujarat,Ahmadabad,Ahmadabad City,Ahmadabad,Second City,380054,Thaltej,PRL Colony,185,"Blackberrys, Allen Solly, Titan"
Gujarat,Ahmadabad,Ahmadabad City,Ahmadabad,Second City,380054,Thaltej,Bhaikakanagar,19,"Mexx, Van Heusen, Titan"
Gujarat,Ahmadabad,Ahmadabad City,Ahmadabad,Suburbs,380054,Ashok Vatika,Ashok Vatika,287,"Allen Solly, Titan, Pierre Cardin"
Gujarat,Ahmadabad,Ahmadabad City,Ahmadabad,Suburbs,380054,Satellite,Premchand Nagar,182,"Mexx, Van Heusen, Titan"
Gujarat,Ahmadabad,Ahmadabad City,Ahmadabad,Suburbs,380054,Vastrapur,Vastrapur,426,"Allen Solly, Titan, Pierre Cardin"
Gujarat,Ahmadabad,Ahmadabad City,Ahmadabad,Second City,380054,Thaltej,Shangrila,233,"Blackberrys, Allen Solly, Titan"
Gujarat,Ahmadabad,Ahmadabad City,Ahmadabad,Second City,380054,Thaltej,Shangrila,233,"Mexx, Van Heusen, Titan"
Gujarat,Ahmadabad,Ahmadabad City,Ahmadabad,Second City,380054,Thaltej,Shangrila,233,"Allen Solly, Titan, Pierre Cardin"
Gujarat,Ahmadabad,Ahmadabad City,Ahmadabad,Suburbs,380054,Mem Nagar,Mem Nagar,348,"Pierre Cardin, Being Human "
Gujarat,Ahmadabad,Ahmadabad City,Ahmadabad,Second City,380054,Thaltej,Shangrila,233,"Being Human, Pierre Cardin, Mexx"
Gujarat,Ahmadabad,Ahmadabad City,Ahmadabad,Second City,380054,Thaltej,Shangrila,233,"Mexx, Van Heusen, Titan"
Gujarat,Ahmadabad,Ahmadabad City,Ahmadabad,Second City,380054,Thaltej,Shangrila,233,"Being Human, Pierre Cardin, Mexx"
Gujarat,Ahmadabad,Ahmadabad City,Ahmadabad,Second City,380054,Thaltej,Shangrila,233,"Blackberrys, Allen Solly, Titan"
Gujarat,Ahmadabad,Ahmadabad City,Ahmadabad,Second City,380054,Thaltej,Shangrila,233,"Pierre Cardin, Being Human "
Gujarat,Ahmadabad,Ahmadabad City,Ahmadabad,Second City,380054,Thaltej,Shangrila,233,"Mexx, Van Heusen, Titan"
Gujarat,Ahmadabad,Ahmadabad City,Ahmadabad,Second City,380054,Bodakdev,Bodakdev,293,"Being Human, Pierre Cardin, Mexx"
Gujarat,Ahmadabad,Ahmadabad City,Ahmadabad,Suburbs,380054,Ashok Vatika,Ashok Vatika,287,"Allen Solly, Titan, Pierre Cardin"
Gujarat,Ahmadabad,Ahmadabad City,Ahmadabad,Suburbs,380015,Satellite,Premchand Nagar,182,"Mexx, Van Heusen, Titan"
Gujarat,Ahmadabad,Ahmadabad City,Ahmadabad,Second City,380054,Thaltej,Shangrila,233,"Being Human, Pierre Cardin, Mexx"
Gujarat,Ahmadabad,Ahmadabad City,Ahmadabad,Suburbs,380054,Vastrapur,Vastrapur,426,"Blackberrys, Allen Solly, Titan"
Gujarat,Ahmadabad,Ahmadabad City,Ahmadabad,Second City,380054,Thaltej,PRL Colony,185,"Being Human, Pierre Cardin, Mexx"
Gujarat,Ahmadabad,Ahmadabad City,Ahmadabad,Suburbs,380054,Ashok Vatika,Ashok Vatika,287,"Being Human, Pierre Cardin, Mexx"
Gujarat,Ahmadabad,Ahmadabad City,Ahmadabad,Second City,380054,Thaltej,PRL Colony,185,"Pierre Cardin, Being Human "
Gujarat,Ahmadabad,Ahmadabad City,Ahmadabad,Second City,380054,Mem Nagar,Nilmani Society,147,"Mexx, Van Heusen, Titan"
Gujarat,Ahmadabad,Ahmadabad City,Ahmadabad,Second City,380054,Thaltej,Shangrila,233,"Allen Solly, Titan, Pierre Cardin"
Gujarat,Ahmadabad,Ahmadabad City,Ahmadabad,Second City,380054,Bodakdev,Bodakdev,293,"Mexx, Van Heusen, Titan"
Gujarat,Ahmadabad,Ahmadabad City,Ahmadabad,Second City,380054,Bodakdev,Sumeru,251,"Allen Solly, Titan, Pierre Cardin"
Gujarat,Ahmadabad,Ahmadabad City,Ahmadabad,Second City,380054,Thaltej,Shangrila,233,"Mexx, Van Heusen, Titan"
Gujarat,Ahmadabad,Ahmadabad City,Ahmadabad,Second City,380054,Bodakdev,Bodakdev,293,"Being Human, Pierre Cardin, Mexx"
Gujarat,Ahmadabad,Ahmadabad City,Ahmadabad,Second City,380054,Thaltej,Jai Ambe Nagar,93,"Blackberrys, Allen Solly, Titan"
Gujarat,Ahmadabad,Ahmadabad City,Ahmadabad,Second City,380054,Thaltej,Shangrila,233,"Mexx, Van Heusen, Titan"
Gujarat,Ahmadabad,Ahmadabad City,Ahmadabad,Second City,380054,Thaltej,Someshwar Park III,245,"Allen Solly, Titan, Pierre Cardin"
Gujarat,Ahmadabad,Ahmadabad City,Ahmadabad,Second City,380054,Bodakdev,Bodakdev,293,"Mexx, Van Heusen, Titan"
Gujarat,Ahmadabad,Ahmadabad City,Ahmadabad,Suburbs,380054,Thaltej,Nirant Park Society Part 2,149,"Allen Solly, Titan, Pierre Cardin"
Gujarat,Ahmadabad,Ahmadabad City,Ahmadabad,Suburbs,380054,Gurukul,Sunrise Park,254,"Blackberrys, Allen Solly, Titan"
Gujarat,Ahmadabad,Ahmadabad City,Ahmadabad,Suburbs,380054,Ashok Vatika,Ashok Vatika,287,"Mexx, Van Heusen, Titan"
Gujarat,Ahmadabad,Ahmadabad City,Ahmadabad,Suburbs,380063,Thaltej,Someshwar Park III,245,"Allen Solly, Titan, Pierre Cardin"
Gujarat,Ahmadabad,Ahmadabad City,Ahmadabad,Suburbs,380054,Bodakdev,Bodakdev,293,"Pierre Cardin, Being Human "
Gujarat,Ahmadabad,Ahmadabad City,Ahmadabad,Suburbs,380051,Vikram Nagar,Vikram Nagar,430,"Being Human, Pierre Cardin, Mexx"
Gujarat,Ahmadabad,Ahmadabad City,Ahmadabad,Suburbs,380052,Mem Nagar,Mem Nagar,348,"Mexx, Van Heusen, Titan"
Gujarat,Ahmadabad,Ahmadabad City,Ahmadabad,Suburbs,380054,Satellite,Premchand Nagar,182,"Being Human, Pierre Cardin, Mexx"
Gujarat,Ahmadabad,Ahmadabad City,Ahmadabad,Suburbs,380054,Gurukul,Sunrise Park,254,"Blackberrys, Allen Solly, Titan"
Gujarat,Ahmadabad,Ahmadabad City,Ahmadabad,Second City,380059,Thaltej,Panchamrut Bunglows II,155,"Pierre Cardin, Being Human "
Gujarat,Ahmadabad,Ahmadabad City,Ahmadabad,Suburbs,380054,Gurukul,Sunrise Park,254,"Mexx, Van Heusen, Titan"
Gujarat,Ahmadabad,Ahmadabad City,Ahmadabad,Second City,380054,Thaltej,Shangrila,233,"Being Human, Pierre Cardin, Mexx"
Gujarat,Ahmadabad,Ahmadabad City,Ahmadabad,Suburbs,380051,Satellite,Premchand Nagar,182,"Allen Solly, Titan, Pierre Cardin"
Gujarat,Ahmadabad,Ahmadabad City,Ahmadabad,Suburbs,380054,Gurukul,Sunrise Park,254,"Mexx, Van Heusen, Titan"
Gujarat,Ahmadabad,Ahmadabad City,Ahmadabad,Suburbs,380054,Bodakdev,Bodakdev,293,"Being Human, Pierre Cardin, Mexx"
Gujarat,Ahmadabad,Ahmadabad City,Ahmadabad,Suburbs,380054,Bodakdev,Bodakdev,293,"Blackberrys, Allen Solly, Titan"
Gujarat,Ahmadabad,Ahmadabad City,Ahmadabad,Suburbs,380054,Thaltej,Nirant Park Society Part 1,148,"Being Human, Pierre Cardin, Mexx"
Gujarat,Ahmadabad,Ahmadabad City,Ahmadabad,Suburbs,380054,Vikram Nagar,Vikram Nagar,430,"Being Human, Pierre Cardin, Mexx"
Gujarat,Ahmadabad,Ahmadabad City,Ahmadabad,Suburbs,380054,Thaltej,Someshwar Park III,245,"Pierre Cardin, Being Human "
Gujarat,Ahmadabad,Ahmadabad City,Ahmadabad,Second City,380054,Vastrapur,Vastrapur,426,"Mexx, Van Heusen, Titan"
Gujarat,Ahmadabad,Ahmadabad City,Ahmadabad,Suburbs,380063,Mem Nagar,Mem Nagar,348,"Allen Solly, Titan, Pierre Cardin"
Gujarat,Ahmadabad,Ahmadabad City,Ahmadabad,Suburbs,380054,Thaltej,Someshwar Park III,245,"Mexx, Van Heusen, Titan"
Gujarat,Ahmadabad,Ahmadabad City,Ahmadabad,Suburbs,380054,Satellite,Premchand Nagar,182,"Allen Solly, Titan, Pierre Cardin"
Gujarat,Ahmadabad,Ahmadabad City,Ahmadabad,Suburbs,380015,Bodakdev,Bodakdev,293,"Mexx, Van Heusen, Titan"
Gujarat,Ahmadabad,Ahmadabad City,Ahmadabad,Suburbs,380054,Thaltej,Nirant Park Society Part 2,149,"Being Human, Pierre Cardin, Mexx"
Gujarat,Ahmadabad,Ahmadabad City,Ahmadabad,Suburbs,380054,Mem Nagar,Nilmani Society,147,"Blackberrys, Allen Solly, Titan"
Gujarat,Ahmadabad,Ahmadabad City,Ahmadabad,Suburbs,380054,Satellite,Premchand Nagar,182,"Mexx, Van Heusen, Titan"
Gujarat,Ahmadabad,Ahmadabad City,Ahmadabad,Suburbs,380054,Thaltej,Someshwar Park III,245,"Allen Solly, Titan, Pierre Cardin"
Gujarat,Ahmadabad,Ahmadabad City,Ahmadabad,Suburbs,380051,Satellite,Premchand Nagar,182,"Mexx, Van Heusen, Titan"
Gujarat,Ahmadabad,Ahmadabad City,Ahmadabad,Suburbs,380054,Mem Nagar,Mem Nagar,348,"Allen Solly, Titan, Pierre Cardin"
Gujarat,Ahmadabad,Ahmadabad City,Ahmadabad,Suburbs,380054,Gurukul,Sunrise Park,254,"Blackberrys, Allen Solly, Titan"
Gujarat,Ahmadabad,Ahmadabad City,Ahmadabad,Suburbs,380054,Satellite,Premchand Nagar,182,"Mexx, Van Heusen, Titan"
Gujarat,Ahmadabad,Ahmadabad City,Ahmadabad,Suburbs,380052,Mem Nagar,Sarathi Co-operative Housing Society,213,"Allen Solly, Titan, Pierre Cardin"
Gujarat,Ahmadabad,Ahmadabad City,Ahmadabad,Suburbs,380054,Mem Nagar,Sarathi Co-operative Housing Society,213,"Pierre Cardin, Being Human "
Gujarat,Ahmadabad,Ahmadabad City,Ahmadabad,Suburbs,380052,Mem Nagar,Nilmani Society,147,"Being Human, Pierre Cardin, Mexx"
Gujarat,Ahmadabad,Ahmadabad City,Ahmadabad,Suburbs,380054,Thaltej,Someshwar Park III,245,"Mexx, Van Heusen, Titan"
Gujarat,Ahmadabad,Ahmadabad City,Ahmadabad,Suburbs,380054,Gurukul,Sunrise Park,254,"Being Human, Pierre Cardin, Mexx"
Gujarat,Ahmadabad,Ahmadabad City,Ahmadabad,Suburbs,380052,Mem Nagar,Mem Nagar,348,"Blackberrys, Allen Solly, Titan"
Gujarat,Ahmadabad,Ahmadabad City,Ahmadabad,Suburbs,380054,Gurukul,Gurukul,315,"Pierre Cardin, Being Human "
Gujarat,Ahmadabad,Ahmadabad City,Ahmadabad,Suburbs,380054,Mem Nagar,Nilmani Society,147,"Mexx, Van Heusen, Titan"
Gujarat,Ahmadabad,Ahmadabad City,Ahmadabad,Suburbs,380063,Mem Nagar,Vishram Nagar,277,"Being Human, Pierre Cardin, Mexx"
Gujarat,Ahmadabad,Ahmadabad City,Ahmadabad,Suburbs,380054,Thaltej,Someshwar Park III,245,"Allen Solly, Titan, Pierre Cardin"
Gujarat,Ahmadabad,Ahmadabad City,Ahmadabad,Suburbs,380052,Mem Nagar,Mem Nagar,348,"Mexx, Van Heusen, Titan"
Gujarat,Ahmadabad,Ahmadabad City,Ahmadabad,Suburbs,380054,Thaltej,Someshwar Park III,245,"Being Human, Pierre Cardin, Mexx"
Gujarat,Ahmadabad,Ahmadabad City,Ahmadabad,Suburbs,380054,Thaltej,Nirant Park Society Part 1,148,"Blackberrys, Allen Solly, Titan"
Gujarat,Ahmadabad,Ahmadabad City,Ahmadabad,Suburbs,380052,Mem Nagar,Mem Nagar,348,"Being Human, Pierre Cardin, Mexx"
Gujarat,Ahmadabad,Ahmadabad City,Ahmadabad,Suburbs,380054,Thaltej,Someshwar Park III,245,"Being Human, Pierre Cardin, Mexx"
Gujarat,Ahmadabad,Ahmadabad City,Ahmadabad,Suburbs,380054,Thaltej,Someshwar Park III,245,"Pierre Cardin, Being Human "
Gujarat,Ahmadabad,Ahmadabad City,Ahmadabad,Suburbs,380054,Thaltej,Someshwar Park III,245,"Mexx, Van Heusen, Titan"
Gujarat,Ahmadabad,Ahmadabad City,Ahmadabad,Suburbs,380054,Thaltej,Someshwar Park III,245,"Allen Solly, Titan, Pierre Cardin"
Gujarat,Ahmadabad,Ahmadabad City,Ahmadabad,Suburbs,380059,Ghatlodia,Shenbhai Nagar,239,"Mexx, Van Heusen, Titan"
Gujarat,Ahmadabad,Ahmadabad City,Ahmadabad,Suburbs,380054,Thaltej,Someshwar Park III,245,"Allen Solly, Titan, Pierre Cardin"
Gujarat,Ahmadabad,Ahmadabad City,Ahmadabad,Suburbs,380061,Ghatlodia,Shenbhai Nagar,239,"Mexx, Van Heusen, Titan"
Gujarat,Ahmadabad,Ahmadabad City,Ahmadabad,Suburbs,380054,Thaltej,Someshwar Park III,245,"Being Human, Pierre Cardin, Mexx"
Gujarat,Ahmadabad,Ahmadabad City,Ahmadabad,Suburbs,380063,Mem Nagar,Mem Nagar,348,"Blackberrys, Allen Solly, Titan"
Gujarat,Ahmadabad,Ahmadabad City,Ahmadabad,Suburbs,380054,Thaltej,Someshwar Park III,245,"Mexx, Van Heusen, Titan"
Gujarat,Ahmadabad,Ahmadabad City,Ahmadabad,Suburbs,380054,Thaltej,Someshwar Park III,245,"Allen Solly, Titan, Pierre Cardin"
TAMILNADU,Chennai,Area not under any Sub-district,Chennai,Suburbs,600018,Teynampet,Kasturi Estate,372,"Mexx, Van Heusen, Titan"
TAMILNADU,Chennai,Area not under any Sub-district,Chennai,Suburbs,600018,Teynampet,Thiru Vi Ka Kudiyiruppu,366,"Allen Solly, Titan, Pierre Cardin"
TAMILNADU,Chennai,Area not under any Sub-district,Chennai,Suburbs,600018,Teynampet,Thiru Vi Ka Kudiyiruppu,366,"Blackberrys, Allen Solly, Titan"
TAMILNADU,Chennai,Area not under any Sub-district,Chennai,Suburbs,600017,Thyagaraya Nagar,Thyagaraya Nagar,982,"Mexx, Van Heusen, Titan"
TAMILNADU,Chennai,Area not under any Sub-district,Chennai,Suburbs,600017,Thyagaraya Nagar,Thyagaraya Nagar,982,"Allen Solly, Titan, Pierre Cardin"
TAMILNADU,Chennai,Area not under any Sub-district,Chennai,Suburbs,600018,Teynampet,Teynampet,360,"Pierre Cardin, Being Human "
TAMILNADU,Chennai,Area not under any Sub-district,Chennai,Suburbs,600018,Teynampet,Subbarayan Nagar,367,"Being Human, Pierre Cardin, Mexx"
TAMILNADU,Chennai,Area not under any Sub-district,Chennai,Suburbs,600017,Thyagaraya Nagar,Drivers Colony,983,"Mexx, Van Heusen, Titan"
TAMILNADU,Chennai,Area not under any Sub-district,Chennai,Suburbs,600018,Teynampet,Teynampet,360,"Being Human, Pierre Cardin, Mexx"
TAMILNADU,Chennai,Area not under any Sub-district,Chennai,Suburbs,600018,Teynampet,Subbarayan Nagar,367,"Blackberrys, Allen Solly, Titan"
TAMILNADU,Chennai,Area not under any Sub-district,Chennai,Suburbs,600018,Teynampet,Teynampet,360,"Pierre Cardin, Being Human "
TAMILNADU,Chennai,Area not under any Sub-district,Chennai,Suburbs,600018,Teynampet,Seethammal Extension,364,"Mexx, Van Heusen, Titan"
TAMILNADU,Chennai,Area not under any Sub-district,Chennai,Suburbs,600018,Alwarpet,Sri Ram Nagar,78,"Being Human, Pierre Cardin, Mexx"
TAMILNADU,Chennai,Area not under any Sub-district,Chennai,Suburbs,600018,Alwarpet,Austin Nagar,79,"Allen Solly, Titan, Pierre Cardin"
TAMILNADU,Chennai,Area not under any Sub-district,Chennai,Suburbs,600028,Nandanam,Nandanam,1083,"Mexx, Van Heusen, Titan"
TAMILNADU,Chennai,Area not under any Sub-district,Chennai,Suburbs,600018,Alwarpet,Austin Nagar,79,"Being Human, Pierre Cardin, Mexx"
TAMILNADU,Chennai,Area not under any Sub-district,Chennai,Suburbs,600028,Nandanam,Nandanam,1083,"Blackberrys, Allen Solly, Titan"
TAMILNADU,Chennai,Area not under any Sub-district,Chennai,Suburbs,600028,Nandanam,Nandanam,1083,"Being Human, Pierre Cardin, Mexx"
TAMILNADU,Chennai,Area not under any Sub-district,Chennai,Suburbs,600028,Nandanam,Nandanam,1083,"Being Human, Pierre Cardin, Mexx"
TAMILNADU,Chennai,Area not under any Sub-district,Chennai,Suburbs,600017,Teynampet,Satya Murthy Nagar,361,"Pierre Cardin, Being Human "
TAMILNADU,Chennai,Area not under any Sub-district,Chennai,Suburbs,600035,Alwarpet,Rathna Nagar,80,"Mexx, Van Heusen, Titan"
TAMILNADU,Chennai,Area not under any Sub-district,Chennai,Suburbs,600035,Alwarpet,Rathna Nagar,80,"Allen Solly, Titan, Pierre Cardin"
TAMILNADU,Chennai,Area not under any Sub-district,Chennai,Suburbs,600028,Nandanam,Nandanam,1083,"Mexx, Van Heusen, Titan"
TAMILNADU,Chennai,Area not under any Sub-district,Chennai,Suburbs,600035,Nandanam,Nandanam Extension,1088,"Allen Solly, Titan, Pierre Cardin"
TAMILNADU,Chennai,Area not under any Sub-district,Chennai,Suburbs,600035,Alwarpet,Rathna Nagar,80,"Mexx, Van Heusen, Titan"
TAMILNADU,Chennai,Area not under any Sub-district,Chennai,Suburbs,600028,Nandanam,Nandanam,1083,"Being Human, Pierre Cardin, Mexx"
TAMILNADU,Chennai,Area not under any Sub-district,Chennai,Suburbs,600028,Raja Annamalai Puram,Thideer Nagar,415,"Blackberrys, Allen Solly, Titan"
TAMILNADU,Chennai,Area not under any Sub-district,Chennai,Suburbs,600028,Raja Annamalai Puram,South Kesavaperumalpuram,417,"Mexx, Van Heusen, Titan"
TAMILNADU,Chennai,Area not under any Sub-district,Chennai,Suburbs,600028,Raja Annamalai Puram,South Kesavaperumalpuram,417,"Allen Solly, Titan, Pierre Cardin"
TAMILNADU,Chennai,Area not under any Sub-district,Chennai,Suburbs,600017,Thyagaraya Nagar,Drivers Colony,983,"Mexx, Van Heusen, Titan"
TAMILNADU,Chennai,Area not under any Sub-district,Chennai,Suburbs,600017,Thyagaraya Nagar,JJ Nagar,984,"Allen Solly, Titan, Pierre Cardin"
TAMILNADU,Chennai,Area not under any Sub-district,Chennai,Suburbs,600018,Teynampet,Teynampet,360,"Blackberrys, Allen Solly, Titan"
TAMILNADU,Chennai,Area not under any Sub-district,Chennai,Suburbs,600017,Thyagaraya Nagar,JJ Nagar,984,"Mexx, Van Heusen, Titan"
TAMILNADU,Chennai,Area not under any Sub-district,Chennai,Suburbs,600018,Teynampet,Teynampet,360,"Allen Solly, Titan, Pierre Cardin"
TAMILNADU,Chennai,Area not under any Sub-district,Chennai,Suburbs,600018,Teynampet,Poes Garden,362,"Pierre Cardin, Being Human "
TAMILNADU,Chennai,Area not under any Sub-district,Chennai,Suburbs,600018,Teynampet,Kasturi Estate,372,"Being Human, Pierre Cardin, Mexx"
TAMILNADU,Chennai,Area not under any Sub-district,Chennai,Suburbs,600018,Teynampet,Poes Garden,362,"Mexx, Van Heusen, Titan"
TAMILNADU,Chennai,Area not under any Sub-district,Chennai,Suburbs,600018,Teynampet,Kasturi Estate,372,"Being Human, Pierre Cardin, Mexx"
TAMILNADU,Chennai,Area not under any Sub-district,Chennai,Suburbs,600018,Teynampet,Venus Colony,363,"Blackberrys, Allen Solly, Titan"
TAMILNADU,Chennai,Area not under any Sub-district,Chennai,Suburbs,600018,Teynampet,Venus Colony,363,"Pierre Cardin, Being Human "
TAMILNADU,Chennai,Area not under any Sub-district,Chennai,Suburbs,600018,Teynampet,Lubdhi Colony,371,"Mexx, Van Heusen, Titan"
TAMILNADU,Chennai,Area not under any Sub-district,Chennai,Suburbs,600018,Teynampet,Lubdhi Colony,371,"Being Human, Pierre Cardin, Mexx"
TAMILNADU,Chennai,Area not under any Sub-district,Chennai,Suburbs,600004,Abhiramapuram,Sriram Colony,667,"Allen Solly, Titan, Pierre Cardin"
TAMILNADU,Chennai,Area not under any Sub-district,Chennai,Suburbs,600018,Alwarpet,MIG Colony,77,"Mexx, Van Heusen, Titan"
TAMILNADU,Chennai,Area not under any Sub-district,Chennai,Suburbs,600018,Abhiramapuram,Sriram Colony,667,"Being Human, Pierre Cardin, Mexx"
TAMILNADU,Chennai,Area not under any Sub-district,Chennai,Suburbs,600018,Alwarpet,Alwarpet,76,"Blackberrys, Allen Solly, Titan"
TAMILNADU,Chennai,Area not under any Sub-district,Chennai,Suburbs,600018,Abhiramapuram,Vidya Thirtha Nagar,666,"Being Human, Pierre Cardin, Mexx"
TAMILNADU,Chennai,Area not under any Sub-district,Chennai,Suburbs,600018,Abhiramapuram,Demonte Colony,672,"Being Human, Pierre Cardin, Mexx"
TAMILNADU,Chennai,Area not under any Sub-district,Chennai,Suburbs,600018,Alwarpet,Alwarpet,76,"Pierre Cardin, Being Human "
TAMILNADU,Chennai,Area not under any Sub-district,Chennai,Suburbs,600028,Abhiramapuram,SBI Colony,665,"Mexx, Van Heusen, Titan"
TAMILNADU,Chennai,Area not under any Sub-district,Chennai,Suburbs,600028,Abhiramapuram,SBI Colony,665,"Allen Solly, Titan, Pierre Cardin"
TAMILNADU,Chennai,Area not under any Sub-district,Chennai,Suburbs,600018,Abhiramapuram,Vidya Thirtha Nagar,666,"Mexx, Van Heusen, Titan"
TAMILNADU,Chennai,Area not under any Sub-district,Chennai,Suburbs,600018,Abhiramapuram,Vidya Thirtha Nagar,666,"Allen Solly, Titan, Pierre Cardin"
TAMILNADU,Chennai,Area not under any Sub-district,Chennai,Suburbs,600018,Abhiramapuram,Demonte Colony,672,"Mexx, Van Heusen, Titan"
TAMILNADU,Chennai,Area not under any Sub-district,Chennai,Suburbs,600018,Abhiramapuram,Demonte Colony,672,"Being Human, Pierre Cardin, Mexx"
TAMILNADU,Chennai,Area not under any Sub-district,Chennai,Suburbs,600028,Raja Annamalai Puram,Govindaswamy Nagar,419,"Blackberrys, Allen Solly, Titan"
TAMILNADU,Chennai,Area not under any Sub-district,Chennai,Suburbs,600028,Abhiramapuram,SBI Colony,665,"Mexx, Van Heusen, Titan"
TAMILNADU,Chennai,Area not under any Sub-district,Chennai,Suburbs,600028,Abhiramapuram,SBI Colony,665,"Allen Solly, Titan, Pierre Cardin"
TAMILNADU,Chennai,Area not under any Sub-district,Chennai,Suburbs,600028,Raja Annamalai Puram,Govindaswamy Nagar,419,"Mexx, Van Heusen, Titan"
TAMILNADU,Chennai,Area not under any Sub-district,Chennai,Suburbs,600028,Raja Annamalai Puram,Kesavaperumalpuram,409,"Allen Solly, Titan, Pierre Cardin"
TAMILNADU,Chennai,Area not under any Sub-district,Chennai,Suburbs,600028,Raja Annamalai Puram,Krisknapuri,411,"Blackberrys, Allen Solly, Titan"
TAMILNADU,Chennai,Area not under any Sub-district,Chennai,Suburbs,600028,Raja Annamalai Puram,Govindaswamy Nagar,419,"Mexx, Van Heusen, Titan"
TAMILNADU,Chennai,Area not under any Sub-district,Chennai,Suburbs,600028,Raja Annamalai Puram,Kesavaperumalpuram,409,"Allen Solly, Titan, Pierre Cardin"
TAMILNADU,Chennai,Area not under any Sub-district,Chennai,Suburbs,600028,Raja Annamalai Puram,South Kesavaperumalpuram,417,"Pierre Cardin, Being Human "
TAMILNADU,Chennai,Area not under any Sub-district,Chennai,Suburbs,600028,Raja Annamalai Puram,Annai Sathya Nagar,420,"Being Human, Pierre Cardin, Mexx"
TAMILNADU,Chennai,Area not under any Sub-district,Chennai,Suburbs,600028,Raja Annamalai Puram,South Kesavaperumalpuram,417,"Mexx, Van Heusen, Titan"
TAMILNADU,Chennai,Area not under any Sub-district,Chennai,Suburbs,600028,Raja Annamalai Puram,Annai Sathya Nagar,420,"Being Human, Pierre Cardin, Mexx"
TAMILNADU,Chennai,Area not under any Sub-district,Chennai,Suburbs,600028,Raja Annamalai Puram,Annai Sathya Nagar,420,"Blackberrys, Allen Solly, Titan"
TAMILNADU,Chennai,Area not under any Sub-district,Chennai,Suburbs,600028,Mandavelli,Mandavelli,109,"Pierre Cardin, Being Human "
TAMILNADU,Chennai,Area not under any Sub-district,Chennai,Suburbs,600028,Mandavelli,Mandavelli,109,"Mexx, Van Heusen, Titan"
TAMILNADU,Chennai,Area not under any Sub-district,Chennai,Suburbs,600028,Raja Annamalai Puram,Ramakrishna Nagar,408,"Being Human, Pierre Cardin, Mexx"
TAMILNADU,Chennai,Area not under any Sub-district,Chennai,Suburbs,600028,Raja Annamalai Puram,Ramakrishna Nagar,408,"Allen Solly, Titan, Pierre Cardin"
TAMILNADU,Chennai,Area not under any Sub-district,Chennai,Suburbs,600028,Raja Annamalai Puram,Raja Annamalai Puram,405,"Mexx, Van Heusen, Titan"
TAMILNADU,Chennai,Area not under any Sub-district,Chennai,Suburbs,600028,Raja Annamalai Puram,Ramakrishna Nagar,408,"Being Human, Pierre Cardin, Mexx"
TAMILNADU,Chennai,Area not under any Sub-district,Chennai,Suburbs,600028,Raja Annamalai Puram,Karpagam Avenue,413,"Blackberrys, Allen Solly, Titan"
TAMILNADU,Chennai,Area not under any Sub-district,Chennai,Suburbs,600028,Raja Annamalai Puram,May Flower Garden,407,"Being Human, Pierre Cardin, Mexx"
TAMILNADU,Chennai,Area not under any Sub-district,Chennai,Suburbs,600028,Raja Annamalai Puram,State Bank of India Colony,416,"Being Human, Pierre Cardin, Mexx"
TAMILNADU,Chennai,Area not under any Sub-district,Chennai,Suburbs,600028,Raja Annamalai Puram,State Bank of India Colony,416,"Pierre Cardin, Being Human "
TAMILNADU,Chennai,Area not under any Sub-district,Chennai,Suburbs,600028,Mandavelli,Trustpakkam,110,"Mexx, Van Heusen, Titan"
TAMILNADU,Chennai,Area not under any Sub-district,Chennai,Suburbs,600028,Raja Annamalai Puram,Govindaswamy Nagar,419,"Allen Solly, Titan, Pierre Cardin"
TAMILNADU,Chennai,Area not under any Sub-district,Chennai,Suburbs,600028,Raja Annamalai Puram,Krisknapuri,411,"Mexx, Van Heusen, Titan"
TAMILNADU,Chennai,Area not under any Sub-district,Chennai,Suburbs,600028,Raja Annamalai Puram,Govindaswamy Nagar,419,"Allen Solly, Titan, Pierre Cardin"
TAMILNADU,Chennai,Area not under any Sub-district,Chennai,Suburbs,600028,Raja Annamalai Puram,Bishop Garden,406,"Mexx, Van Heusen, Titan"
TAMILNADU,Chennai,Area not under any Sub-district,Chennai,Suburbs,600028,Raja Annamalai Puram,Kesavaperumalpuram,409,"Being Human, Pierre Cardin, Mexx"
TAMILNADU,Chennai,Area not under any Sub-district,Chennai,Suburbs,600028,Raja Annamalai Puram,Krisknapuri,411,"Blackberrys, Allen Solly, Titan"
TAMILNADU,Chennai,Area not under any Sub-district,Chennai,Suburbs,600028,Raja Annamalai Puram,Bishop Garden,406,"Mexx, Van Heusen, Titan"
TAMILNADU,Chennai,Area not under any Sub-district,Chennai,Suburbs,600028,Raja Annamalai Puram,Kesavaperumalpuram,409,"Allen Solly, Titan, Pierre Cardin"
TAMILNADU,Chennai,Area not under any Sub-district,Chennai,Suburbs,600028,Raja Annamalai Puram,Annai Sathya Nagar,420,"Mexx, Van Heusen, Titan"
TAMILNADU,Chennai,Area not under any Sub-district,Chennai,Suburbs,600028,Raja Annamalai Puram,Annai Sathya Nagar,420,"Allen Solly, Titan, Pierre Cardin"
TAMILNADU,Chennai,Area not under any Sub-district,Chennai,Suburbs,600028,Raja Annamalai Puram,Annai Sathya Nagar,420,"Blackberrys, Allen Solly, Titan"
TAMILNADU,Chennai,Area not under any Sub-district,Chennai,Suburbs,600028,Mandavelli,Mandavelli,109,"Mexx, Van Heusen, Titan"
TAMILNADU,Chennai,Area not under any Sub-district,Chennai,Suburbs,600028,Raja Annamalai Puram,Mandavelipakkam,418,"Allen Solly, Titan, Pierre Cardin"
TAMILNADU,Chennai,Area not under any Sub-district,Chennai,Suburbs,600004,Mylapore,Saradapuram,832,"Pierre Cardin, Being Human "
TAMILNADU,Chennai,Area not under any Sub-district,Chennai,Suburbs,600028,Mandavelli,Mandavelli,109,"Being Human, Pierre Cardin, Mexx"
TAMILNADU,Chennai,Area not under any Sub-district,Chennai,Suburbs,600028,Raja Annamalai Puram,Ramakrishna Nagar,408,"Mexx, Van Heusen, Titan"
TAMILNADU,Chennai,Area not under any Sub-district,Chennai,Suburbs,600028,Raja Annamalai Puram,Raja Annamalai Puram,405,"Being Human, Pierre Cardin, Mexx"
TAMILNADU,Chennai,Area not under any Sub-district,Chennai,Suburbs,600028,Raja Annamalai Puram,Raja Annamalai Puram,405,"Blackberrys, Allen Solly, Titan"
TAMILNADU,Chennai,Area not under any Sub-district,Chennai,Suburbs,600028,Raja Annamalai Puram,Karpagam Avenue,413,"Pierre Cardin, Being Human "
TAMILNADU,Chennai,Area not under any Sub-district,Chennai,Suburbs,600028,Raja Annamalai Puram,Karpagam Avenue,413,"Mexx, Van Heusen, Titan"
TAMILNADU,Chennai,Area not under any Sub-district,Chennai,Suburbs,600028,Raja Annamalai Puram,State Bank of India Colony,416,"Being Human, Pierre Cardin, Mexx"
TAMILNADU,Chennai,Area not under any Sub-district,Chennai,Suburbs,600018,Teynampet,Poes Garden,362,"Allen Solly, Titan, Pierre Cardin"
TAMILNADU,Chennai,Area not under any Sub-district,Chennai,Suburbs,600018,Teynampet,Rostrevor Garden,368,"Mexx, Van Heusen, Titan"
TAMILNADU,Chennai,Area not under any Sub-district,Chennai,Suburbs,600018,Teynampet,Poes Garden,362,"Being Human, Pierre Cardin, Mexx"
TAMILNADU,Chennai,Area not under any Sub-district,Chennai,Suburbs,600018,Teynampet,Rostrevor Garden,368,"Blackberrys, Allen Solly, Titan"
TAMILNADU,Chennai,Area not under any Sub-district,Chennai,Suburbs,600018,Teynampet,Venus Colony,363,"Being Human, Pierre Cardin, Mexx"
TAMILNADU,Chennai,Area not under any Sub-district,Chennai,Suburbs,600018,Teynampet,Subbarayan Nagar,367,"Being Human, Pierre Cardin, Mexx"
TAMILNADU,Chennai,Area not under any Sub-district,Chennai,Suburbs,600018,Teynampet,Teynampet,360,"Pierre Cardin, Being Human "
TAMILNADU,Chennai,Area not under any Sub-district,Chennai,Suburbs,600018,Teynampet,Lubdhi Colony,371,"Mexx, Van Heusen, Titan"
TAMILNADU,Chennai,Area not under any Sub-district,Chennai,Suburbs,600018,Teynampet,Lubdhi Colony,371,"Allen Solly, Titan, Pierre Cardin"
TAMILNADU,Chennai,Area not under any Sub-district,Chennai,Suburbs,600018,Alwarpet,MIG Colony,77,"Mexx, Van Heusen, Titan"
TAMILNADU,Chennai,Area not under any Sub-district,Chennai,Suburbs,600018,Alwarpet,MIG Colony,77,"Allen Solly, Titan, Pierre Cardin"
TAMILNADU,Chennai,Area not under any Sub-district,Chennai,Suburbs,600018,Alwarpet,Sri Ram Nagar,78,"Mexx, Van Heusen, Titan"
TAMILNADU,Chennai,Area not under any Sub-district,Chennai,Suburbs,600018,Abhiramapuram,Demonte Colony,672,"Being Human, Pierre Cardin, Mexx"
TAMILNADU,Chennai,Area not under any Sub-district,Chennai,Suburbs,600018,Alwarpet,Sri Ram Nagar,78,"Blackberrys, Allen Solly, Titan"
TAMILNADU,Chennai,Area not under any Sub-district,Chennai,Suburbs,600028,Nandanam,Nandanam,1083,"Mexx, Van Heusen, Titan"
TAMILNADU,Chennai,Area not under any Sub-district,Chennai,Suburbs,600018,Abhiramapuram,Demonte Colony,672,"Allen Solly, Titan, Pierre Cardin"
TAMILNADU,Chennai,Area not under any Sub-district,Chennai,Suburbs,600018,Alwarpet,Austin Nagar,79,"Mexx, Van Heusen, Titan"
TAMILNADU,Chennai,Area not under any Sub-district,Chennai,Suburbs,600028,Nandanam,Nandanam,1083,"Allen Solly, Titan, Pierre Cardin"
TAMILNADU,Chennai,Area not under any Sub-district,Chennai,Suburbs,600028,Nandanam,Nandanam,1083,"Blackberrys, Allen Solly, Titan"
TAMILNADU,Chennai,Area not under any Sub-district,Chennai,Suburbs,600028,Raja Annamalai Puram,Thideer Nagar,415,"Mexx, Van Heusen, Titan"
TAMILNADU,Chennai,Area not under any Sub-district,Chennai,Suburbs,600028,Nandanam,Nandanam,1083,"Allen Solly, Titan, Pierre Cardin"
TAMILNADU,Chennai,Area not under any Sub-district,Chennai,Suburbs,600028,Raja Annamalai Puram,Thideer Nagar,415,"Pierre Cardin, Being Human "
TAMILNADU,Chennai,Area not under any Sub-district,Chennai,Suburbs,600028,Raja Annamalai Puram,Govindaswamy Nagar,419,"Being Human, Pierre Cardin, Mexx"
TAMILNADU,Chennai,Area not under any Sub-district,Chennai,Suburbs,600028,Raja Annamalai Puram,Mandavelipakkam,418,"Mexx, Van Heusen, Titan"
TAMILNADU,Chennai,Area not under any Sub-district,Chennai,Suburbs,600004,Mylapore,Sankarapuram,838,"Being Human, Pierre Cardin, Mexx"
TAMILNADU,Chennai,Area not under any Sub-district,Chennai,Suburbs,600028,Raja Annamalai Puram,Mandavelipakkam,418,"Blackberrys, Allen Solly, Titan"
TAMILNADU,Chennai,Area not under any Sub-district,Chennai,Suburbs,600028,Raja Annamalai Puram,Karpagam Avenue,413,"Pierre Cardin, Being Human "
TAMILNADU,Chennai,Area not under any Sub-district,Chennai,Suburbs,600028,Raja Annamalai Puram,Mandavelipakkam,418,"Mexx, Van Heusen, Titan"
TAMILNADU,Chennai,Area not under any Sub-district,Chennai,Suburbs,600028,Raja Annamalai Puram,Karpagam Avenue,413,"Being Human, Pierre Cardin, Mexx"
TAMILNADU,Chennai,Area not under any Sub-district,Chennai,Suburbs,600028,Raja Annamalai Puram,Karpagam Avenue,413,"Allen Solly, Titan, Pierre Cardin"
TAMILNADU,Chennai,Area not under any Sub-district,Chennai,Suburbs,600028,Raja Annamalai Puram,MRC Nagar,414,"Mexx, Van Heusen, Titan"
TAMILNADU,Chennai,Area not under any Sub-district,Chennai,Suburbs,600028,Raja Annamalai Puram,MRC Nagar,414,"Being Human, Pierre Cardin, Mexx"
TAMILNADU,Chennai,Area not under any Sub-district,Chennai,Suburbs,600028,Raja Annamalai Puram,MRC Nagar,414,"Blackberrys, Allen Solly, Titan"
TAMILNADU,Chennai,Area not under any Sub-district,Chennai,Suburbs,600018,Teynampet,Kasturi Estate,372,"Being Human, Pierre Cardin, Mexx"
TAMILNADU,Chennai,Area not under any Sub-district,Chennai,Suburbs,600018,Teynampet,Parthasarathypuram,365,"Being Human, Pierre Cardin, Mexx"
TAMILNADU,Chennai,Area not under any Sub-district,Chennai,Suburbs,600018,Teynampet,Kasturi Estate,372,"Pierre Cardin, Being Human "
TAMILNADU,Chennai,Area not under any Sub-district,Chennai,Suburbs,600018,Teynampet,Parthasarathypuram,365,"Mexx, Van Heusen, Titan"
TAMILNADU,Chennai,Area not under any Sub-district,Chennai,Suburbs,600018,Teynampet,Kasturi Estate,372,"Allen Solly, Titan, Pierre Cardin"
TAMILNADU,Chennai,Area not under any Sub-district,Chennai,Suburbs,600018,Teynampet,Venus Colony,363,"Mexx, Van Heusen, Titan"
TAMILNADU,Chennai,Area not under any Sub-district,Chennai,Suburbs,600018,Teynampet,Parthasarathypuram,365,"Allen Solly, Titan, Pierre Cardin"
TAMILNADU,Chennai,Area not under any Sub-district,Chennai,Suburbs,600018,Teynampet,Lubdhi Colony,371,"Mexx, Van Heusen, Titan"
TAMILNADU,Chennai,Area not under any Sub-district,Chennai,Suburbs,600004,Abhiramapuram,Sriram Colony,667,"Being Human, Pierre Cardin, Mexx"
TAMILNADU,Chennai,Area not under any Sub-district,Chennai,Suburbs,600004,Mylapore,CIT Colony,852,"Blackberrys, Allen Solly, Titan"
TAMILNADU,Chennai,Area not under any Sub-district,Chennai,Suburbs,600004,Abhiramapuram,Sriram Colony,667,"Mexx, Van Heusen, Titan"
TAMILNADU,Chennai,Area not under any Sub-district,Chennai,Suburbs,600018,Abhiramapuram,Abhiramapuram,664,"Allen Solly, Titan, Pierre Cardin"
TAMILNADU,Chennai,Area not under any Sub-district,Chennai,Suburbs,600018,Abhiramapuram,Sriram Colony,667,"Mexx, Van Heusen, Titan"
TAMILNADU,Chennai,Area not under any Sub-district,Chennai,Suburbs,600018,Abhiramapuram,Abhiramapuram,664,"Allen Solly, Titan, Pierre Cardin"
TAMILNADU,Chennai,Area not under any Sub-district,Chennai,Suburbs,600018,Abhiramapuram,Vidya Thirtha Nagar,666,"Blackberrys, Allen Solly, Titan"
TAMILNADU,Chennai,Area not under any Sub-district,Chennai,Suburbs,600018,Abhiramapuram,Sriram Colony,667,"Mexx, Van Heusen, Titan"
TAMILNADU,Chennai,Area not under any Sub-district,Chennai,Suburbs,600028,Mandavelli,Trustpakkam,110,"Allen Solly, Titan, Pierre Cardin"
TAMILNADU,Chennai,Area not under any Sub-district,Chennai,Suburbs,600028,Mandavelli,Trustpakkam,110,"Pierre Cardin, Being Human "
TAMILNADU,Chennai,Area not under any Sub-district,Chennai,Suburbs,600018,Abhiramapuram,Abhiramapuram,664,"Being Human, Pierre Cardin, Mexx"
TAMILNADU,Chennai,Area not under any Sub-district,Chennai,Suburbs,600018,Abhiramapuram,Abhiramapuram,664,"Mexx, Van Heusen, Titan"
TAMILNADU,Chennai,Area not under any Sub-district,Chennai,Suburbs,600028,Abhiramapuram,SBI Colony,665,"Being Human, Pierre Cardin, Mexx"
TAMILNADU,Chennai,Area not under any Sub-district,Chennai,Suburbs,600028,Abhiramapuram,SBI Colony,665,"Blackberrys, Allen Solly, Titan"
TAMILNADU,Chennai,Area not under any Sub-district,Chennai,Suburbs,600018,Abhiramapuram,Vidya Thirtha Nagar,666,"Pierre Cardin, Being Human "
TAMILNADU,Chennai,Area not under any Sub-district,Chennai,Suburbs,600018,Abhiramapuram,Vidya Thirtha Nagar,666,"Mexx, Van Heusen, Titan"
TAMILNADU,Chennai,Area not under any Sub-district,Chennai,Suburbs,600028,Raja Annamalai Puram,Mandavelipakkam,418,"Being Human, Pierre Cardin, Mexx"
TAMILNADU,Chennai,Area not under any Sub-district,Chennai,Suburbs,600028,Raja Annamalai Puram,Mandavelipakkam,418,"Allen Solly, Titan, Pierre Cardin"
TAMILNADU,Chennai,Area not under any Sub-district,Chennai,Suburbs,600004,Mylapore,Quil Thoppu,848,"Mexx, Van Heusen, Titan"
TAMILNADU,Chennai,Area not under any Sub-district,Chennai,Suburbs,600028,Raja Annamalai Puram,Mandavelipakkam,418,"Being Human, Pierre Cardin, Mexx"
TAMILNADU,Chennai,Area not under any Sub-district,Chennai,Suburbs,600028,Foreshore Estate,Santhome,725,"Blackberrys, Allen Solly, Titan"
TAMILNADU,Chennai,Area not under any Sub-district,Chennai,Suburbs,600028,Foreshore Estate,Block C,728,"Being Human, Pierre Cardin, Mexx"
TAMILNADU,Chennai,Area not under any Sub-district,Chennai,Suburbs,600028,Raja Annamalai Puram,Mandavelipakkam,418,"Being Human, Pierre Cardin, Mexx"
TAMILNADU,Chennai,Area not under any Sub-district,Chennai,Suburbs,600028,Foreshore Estate,Block L,727,"Pierre Cardin, Being Human "
TAMILNADU,Chennai,Area not under any Sub-district,Chennai,Suburbs,600028,Srinivasa Puram,Srinivasa Puram,113,"Mexx, Van Heusen, Titan"
TAMILNADU,Chennai,Area not under any Sub-district,Chennai,Suburbs,600028,Srinivasa Puram,Srinivasa Puram,113,"Allen Solly, Titan, Pierre Cardin"
TAMILNADU,Chennai,Area not under any Sub-district,Chennai,Suburbs,600018,Teynampet,Thiru Vi Ka Kudiyiruppu,366,"Mexx, Van Heusen, Titan"
TAMILNADU,Chennai,Area not under any Sub-district,Chennai,Suburbs,600018,Teynampet,Thiru Vi Ka Kudiyiruppu,366,"Allen Solly, Titan, Pierre Cardin"
TAMILNADU,Chennai,Area not under any Sub-district,Chennai,Suburbs,600018,Teynampet,Rostrevor Garden,368,"Mexx, Van Heusen, Titan"
TAMILNADU,Chennai,Area not under any Sub-district,Chennai,Suburbs,600018,Teynampet,Subbarayan Nagar,367,"Being Human, Pierre Cardin, Mexx"
TAMILNADU,Chennai,Area not under any Sub-district,Chennai,Suburbs,600018,Teynampet,Rostrevor Garden,368,"Blackberrys, Allen Solly, Titan"
TAMILNADU,Chennai,Area not under any Sub-district,Chennai,Suburbs,600018,Teynampet,Subbarayan Nagar,367,"Mexx, Van Heusen, Titan"
TAMILNADU,Chennai,Area not under any Sub-district,Chennai,Suburbs,600018,Teynampet,Teynampet,360,"Allen Solly, Titan, Pierre Cardin"
TAMILNADU,Chennai,Area not under any Sub-district,Chennai,Suburbs,600018,Teynampet,Teynampet,360,"Mexx, Van Heusen, Titan"
TAMILNADU,Chennai,Area not under any Sub-district,Chennai,Suburbs,600018,Teynampet,Seethammal Extension,364,"Allen Solly, Titan, Pierre Cardin"
TAMILNADU,Chennai,Area not under any Sub-district,Chennai,Suburbs,600018,Teynampet,Seethammal Extension,364,"Blackberrys, Allen Solly, Titan"
TAMILNADU,Chennai,Area not under any Sub-district,Chennai,Suburbs,600018,Alwarpet,Sri Ram Nagar,78,"Mexx, Van Heusen, Titan"
TAMILNADU,Chennai,Area not under any Sub-district,Chennai,Suburbs,600018,Alwarpet,Sri Ram Nagar,78,"Allen Solly, Titan, Pierre Cardin"
TAMILNADU,Chennai,Area not under any Sub-district,Chennai,Suburbs,600018,Alwarpet,Austin Nagar,79,"Pierre Cardin, Being Human "
TAMILNADU,Chennai,Area not under any Sub-district,Chennai,Suburbs,600028,Nandanam,Nandanam,1083,"Being Human, Pierre Cardin, Mexx"
TAMILNADU,Chennai,Area not under any Sub-district,Chennai,Suburbs,600018,Alwarpet,Austin Nagar,79,"Mexx, Van Heusen, Titan"
TAMILNADU,Chennai,Area not under any Sub-district,Chennai,Suburbs,600028,Nandanam,Nandanam,1083,"Being Human, Pierre Cardin, Mexx"
TAMILNADU,Chennai,Area not under any Sub-district,Chennai,Suburbs,600028,Nandanam,Nandanam,1083,"Blackberrys, Allen Solly, Titan"
TAMILNADU,Chennai,Area not under any Sub-district,Chennai,Suburbs,600028,Nandanam,Nandanam,1083,"Pierre Cardin, Being Human "
TAMILNADU,Chennai,Area not under any Sub-district,Chennai,Suburbs,600028,Raja Annamalai Puram,Thideer Nagar,415,"Mexx, Van Heusen, Titan"
TAMILNADU,Chennai,Area not under any Sub-district,Chennai,Suburbs,600028,Raja Annamalai Puram,South Kesavaperumalpuram,417,"Being Human, Pierre Cardin, Mexx"
TAMILNADU,Chennai,Area not under any Sub-district,Chennai,Suburbs,600028,Raja Annamalai Puram,South Kesavaperumalpuram,417,"Allen Solly, Titan, Pierre Cardin"
TAMILNADU,Chennai,Area not under any Sub-district,Chennai,Suburbs,600018,Teynampet,Parthasarathypuram,365,"Mexx, Van Heusen, Titan"
TAMILNADU,Chennai,Area not under any Sub-district,Chennai,Suburbs,600018,Teynampet,Parthasarathypuram,365,"Being Human, Pierre Cardin, Mexx"
TAMILNADU,Chennai,Area not under any Sub-district,Chennai,Suburbs,600004,Mylapore,CIT Colony,852,"Blackberrys, Allen Solly, Titan"
TAMILNADU,Chennai,Area not under any Sub-district,Chennai,Suburbs,600004,Mylapore,CIT Colony,852,"Being Human, Pierre Cardin, Mexx"
TAMILNADU,Chennai,Area not under any Sub-district,Chennai,Suburbs,600018,Abhiramapuram,Abhiramapuram,664,"Being Human, Pierre Cardin, Mexx"
TAMILNADU,Chennai,Area not under any Sub-district,Chennai,Suburbs,600004,Abhiramapuram,Anandapuram Puram,668,"Pierre Cardin, Being Human "
TAMILNADU,Chennai,Area not under any Sub-district,Chennai,Suburbs,600018,Abhiramapuram,Abhiramapuram,664,"Mexx, Van Heusen, Titan"
TAMILNADU,Chennai,Area not under any Sub-district,Chennai,Suburbs,600028,Mandavelli,Trustpakkam,110,"Allen Solly, Titan, Pierre Cardin"
TAMILNADU,Chennai,Area not under any Sub-district,Chennai,Suburbs,600028,Mandavelli,Trustpakkam,110,"Mexx, Van Heusen, Titan"
TAMILNADU,Chennai,Area not under any Sub-district,Chennai,Suburbs,600018,Abhiramapuram,Abhiramapuram,664,"Allen Solly, Titan, Pierre Cardin"
TAMILNADU,Chennai,Area not under any Sub-district,Chennai,Suburbs,600018,Abhiramapuram,Abhiramapuram,664,"Mexx, Van Heusen, Titan"
TAMILNADU,Chennai,Area not under any Sub-district,Chennai,Suburbs,600028,Mandavelli,Trustpakkam,110,"Being Human, Pierre Cardin, Mexx"
TAMILNADU,Chennai,Area not under any Sub-district,Chennai,Suburbs,600028,Raja Annamalai Puram,Ramakrishna Nagar,408,"Blackberrys, Allen Solly, Titan"
TAMILNADU,Chennai,Area not under any Sub-district,Chennai,Suburbs,600028,Raja Annamalai Puram,Govindaswamy Nagar,419,"Mexx, Van Heusen, Titan"
TAMILNADU,Chennai,Area not under any Sub-district,Chennai,Suburbs,600028,Raja Annamalai Puram,Ramakrishna Nagar,408,"Allen Solly, Titan, Pierre Cardin"
TAMILNADU,Chennai,Area not under any Sub-district,Chennai,Suburbs,600028,Raja Annamalai Puram,Krisknapuri,411,"Mexx, Van Heusen, Titan"
TAMILNADU,Chennai,Area not under any Sub-district,Chennai,Suburbs,600028,Raja Annamalai Puram,Govindaswamy Nagar,419,"Allen Solly, Titan, Pierre Cardin"
TAMILNADU,Chennai,Area not under any Sub-district,Chennai,Suburbs,600028,Raja Annamalai Puram,Bishop Garden,406,"Blackberrys, Allen Solly, Titan"
TAMILNADU,Chennai,Area not under any Sub-district,Chennai,Suburbs,600028,Raja Annamalai Puram,May Flower Garden,407,"Mexx, Van Heusen, Titan"
TAMILNADU,Chennai,Area not under any Sub-district,Chennai,Suburbs,600028,Raja Annamalai Puram,Krisknapuri,411,"Allen Solly, Titan, Pierre Cardin"
TAMILNADU,Chennai,Area not under any Sub-district,Chennai,Suburbs,600028,Raja Annamalai Puram,Bishop Garden,406,"Pierre Cardin, Being Human "
TAMILNADU,Chennai,Area not under any Sub-district,Chennai,Suburbs,600028,Raja Annamalai Puram,Annai Sathya Nagar,420,"Being Human, Pierre Cardin, Mexx"
TAMILNADU,Chennai,Area not under any Sub-district,Chennai,Suburbs,600028,Raja Annamalai Puram,Annai Sathya Nagar,420,"Mexx, Van Heusen, Titan"
TAMILNADU,Chennai,Area not under any Sub-district,Chennai,Suburbs,600004,Abhiramapuram,East Abhiramapuram,670,"Being Human, Pierre Cardin, Mexx"
TAMILNADU,Chennai,Area not under any Sub-district,Chennai,Suburbs,600004,Abhiramapuram,Narasimhapuram,671,"Blackberrys, Allen Solly, Titan"
TAMILNADU,Chennai,Area not under any Sub-district,Chennai,Suburbs,600004,Abhiramapuram,Narasimhapuram,671,"Pierre Cardin, Being Human "
TAMILNADU,Chennai,Area not under any Sub-district,Chennai,Suburbs,600028,Mandavelli,Mandavelli,109,"Mexx, Van Heusen, Titan"
TAMILNADU,Chennai,Area not under any Sub-district,Chennai,Suburbs,600028,Mandavelli,Trustpakkam,110,"Being Human, Pierre Cardin, Mexx"
TAMILNADU,Chennai,Area not under any Sub-district,Chennai,Suburbs,600028,Mandavelli,Trustpakkam,110,"Allen Solly, Titan, Pierre Cardin"
TAMILNADU,Chennai,Area not under any Sub-district,Chennai,Suburbs,600028,Mandavelli,Mandavelli,109,"Mexx, Van Heusen, Titan"
TAMILNADU,Chennai,Area not under any Sub-district,Chennai,Suburbs,600028,Raja Annamalai Puram,Ramakrishna Nagar,408,"Being Human, Pierre Cardin, Mexx"
TAMILNADU,Chennai,Area not under any Sub-district,Chennai,Suburbs,600028,Raja Annamalai Puram,Ramakrishna Nagar,408,"Blackberrys, Allen Solly, Titan"
TAMILNADU,Chennai,Area not under any Sub-district,Chennai,Suburbs,600028,Raja Annamalai Puram,May Flower Garden,407,"Being Human, Pierre Cardin, Mexx"
TAMILNADU,Chennai,Area not under any Sub-district,Chennai,Suburbs,600028,Raja Annamalai Puram,Ramakrishna Nagar,408,"Being Human, Pierre Cardin, Mexx"
TAMILNADU,Chennai,Area not under any Sub-district,Chennai,Suburbs,600028,Raja Annamalai Puram,Kamaraj Nagar,410,"Pierre Cardin, Being Human "
TAMILNADU,Chennai,Area not under any Sub-district,Chennai,Suburbs,600028,Raja Annamalai Puram,KVB Garden,412,"Mexx, Van Heusen, Titan"
TAMILNADU,Chennai,Area not under any Sub-district,Chennai,Suburbs,600028,Raja Annamalai Puram,State Bank of India Colony,416,"Allen Solly, Titan, Pierre Cardin"
TAMILNADU,Chennai,Area not under any Sub-district,Chennai,Suburbs,600028,Raja Annamalai Puram,State Bank of India Colony,416,"Mexx, Van Heusen, Titan"
TAMILNADU,Chennai,Area not under any Sub-district,Chennai,Suburbs,600028,Raja Annamalai Puram,Annai Sathya Nagar,420,"Allen Solly, Titan, Pierre Cardin"
TAMILNADU,Chennai,Area not under any Sub-district,Chennai,Suburbs,600004,Santhome,Dummingkuppam,111,"Mexx, Van Heusen, Titan"
TAMILNADU,Chennai,Area not under any Sub-district,Chennai,Suburbs,600028,Foreshore Estate,Santhome,725,"Being Human, Pierre Cardin, Mexx"
TAMILNADU,Chennai,Area not under any Sub-district,Chennai,Suburbs,600004,Mylapore,Quil Thoppu,848,"Blackberrys, Allen Solly, Titan"
TAMILNADU,Chennai,Area not under any Sub-district,Chennai,Suburbs,600028,Foreshore Estate,Santhome,725,"Mexx, Van Heusen, Titan"
TAMILNADU,Chennai,Area not under any Sub-district,Chennai,Suburbs,600028,Foreshore Estate,Block AT,714,"Allen Solly, Titan, Pierre Cardin"
TAMILNADU,Chennai,Area not under any Sub-district,Chennai,Suburbs,600028,Srinivasa Puram,Srinivasa Puram,113,"Mexx, Van Heusen, Titan"
TAMILNADU,Chennai,Area not under any Sub-district,Chennai,Suburbs,600028,Foreshore Estate,Block AT,714,"Allen Solly, Titan, Pierre Cardin"
TAMILNADU,Chennai,Area not under any Sub-district,Chennai,Suburbs,600028,Srinivasa Puram,Srinivasa Puram,113,"Blackberrys, Allen Solly, Titan"
TAMILNADU,Chennai,Area not under any Sub-district,Chennai,Suburbs,600028,Srinivasa Puram,Srinivasa Puram,113,"Mexx, Van Heusen, Titan"
TAMILNADU,Chennai,Area not under any Sub-district,Chennai,Suburbs,600028,Srinivasa Puram,Srinivasa Puram,113,"Allen Solly, Titan, Pierre Cardin"
TAMILNADU,Chennai,Area not under any Sub-district,Chennai,Suburbs,600004,Mylapore,Sankarapuram,838,"Pierre Cardin, Being Human "
TAMILNADU,Chennai,Area not under any Sub-district,Chennai,Suburbs,600028,Raja Annamalai Puram,Mandavelipakkam,418,"Being Human, Pierre Cardin, Mexx"
TAMILNADU,Chennai,Area not under any Sub-district,Chennai,Suburbs,600028,Raja Annamalai Puram,Raja Annamalai Puram,405,"Mexx, Van Heusen, Titan"
TAMILNADU,Chennai,Area not under any Sub-district,Chennai,Suburbs,600028,Raja Annamalai Puram,Karpagam Avenue,413,"Being Human, Pierre Cardin, Mexx"
TAMILNADU,Chennai,Area not under any Sub-district,Chennai,Suburbs,600028,Raja Annamalai Puram,Mandavelipakkam,418,"Blackberrys, Allen Solly, Titan"
TAMILNADU,Chennai,Area not under any Sub-district,Chennai,Suburbs,600028,Raja Annamalai Puram,Karpagam Avenue,413,"Pierre Cardin, Being Human "
TAMILNADU,Chennai,Area not under any Sub-district,Chennai,Suburbs,600028,Raja Annamalai Puram,Karpagam Avenue,413,"Mexx, Van Heusen, Titan"
TAMILNADU,Chennai,Area not under any Sub-district,Chennai,Suburbs,600028,Raja Annamalai Puram,MRC Nagar,414,"Being Human, Pierre Cardin, Mexx"
TAMILNADU,Chennai,Area not under any Sub-district,Chennai,Suburbs,600028,Raja Annamalai Puram,State Bank of India Colony,416,"Allen Solly, Titan, Pierre Cardin"
TAMILNADU,Chennai,Area not under any Sub-district,Chennai,Suburbs,600004,Santhome,Dummingkuppam,111,"Mexx, Van Heusen, Titan"
TAMILNADU,Chennai,Area not under any Sub-district,Chennai,Suburbs,600028,Foreshore Estate,Foreshore Estate,708,"Being Human, Pierre Cardin, Mexx"
TAMILNADU,Chennai,Area not under any Sub-district,Chennai,Suburbs,600028,Foreshore Estate,Foreshore Estate,708,"Blackberrys, Allen Solly, Titan"
TAMILNADU,Chennai,Area not under any Sub-district,Chennai,Suburbs,600028,Raja Annamalai Puram,Mandavelipakkam,418,"Being Human, Pierre Cardin, Mexx"
TAMILNADU,Chennai,Area not under any Sub-district,Chennai,Suburbs,600004,Mylapore,Sankarapuram,838,"Being Human, Pierre Cardin, Mexx"
TAMILNADU,Chennai,Area not under any Sub-district,Chennai,Suburbs,600028,Raja Annamalai Puram,Mandavelipakkam,418,"Pierre Cardin, Being Human "
TAMILNADU,Chennai,Area not under any Sub-district,Chennai,Suburbs,600028,Raja Annamalai Puram,Karpagam Avenue,413,"Mexx, Van Heusen, Titan"
TAMILNADU,Chennai,Area not under any Sub-district,Chennai,Suburbs,600028,Raja Annamalai Puram,MRC Nagar,414,"Allen Solly, Titan, Pierre Cardin"
TAMILNADU,Chennai,Area not under any Sub-district,Chennai,Suburbs,600028,Raja Annamalai Puram,MRC Nagar,414,"Mexx, Van Heusen, Titan"
TAMILNADU,Chennai,Area not under any Sub-district,Chennai,Suburbs,600028,Raja Annamalai Puram,MRC Nagar,414,"Allen Solly, Titan, Pierre Cardin"
ANDHRA PRADESH,Hyderabad,Tirumalagiri,Secunderabad Cantt. Board,Outskirts,500011,Bowenpally,Parkview Enclave,3024,"Mexx, Van Heusen, Titan"
ANDHRA PRADESH,Hyderabad,Tirumalagiri,Secunderabad Cantt. Board,Outskirts,500011,Bowenpally,Parkview Enclave,3024,"Being Human, Pierre Cardin, Mexx"
ANDHRA PRADESH,Hyderabad,Tirumalagiri,Secunderabad Cantt. Board,Outskirts,500011,Bowenpally,Anand Nagar,3133,"Blackberrys, Allen Solly, Titan"
ANDHRA PRADESH,Hyderabad,Tirumalagiri,Secunderabad Cantt. Board,Outskirts,500011,Bowenpally,Anand Nagar,3133,"Mexx, Van Heusen, Titan"
ANDHRA PRADESH,Hyderabad,Tirumalagiri,Secunderabad Cantt. Board,Outskirts,500011,Bowenpally,New Bowenpally,3136,"Allen Solly, Titan, Pierre Cardin"
ANDHRA PRADESH,Hyderabad,Tirumalagiri,Secunderabad Cantt. Board,Outskirts,500009,Bowenpally,Napier Lines,3132,"Mexx, Van Heusen, Titan"
ANDHRA PRADESH,Hyderabad,Tirumalagiri,Secunderabad Cantt. Board,Outskirts,500009,Bowenpally,Napier Lines,3132,"Allen Solly, Titan, Pierre Cardin"
ANDHRA PRADESH,Hyderabad,Tirumalagiri,Secunderabad Cantt. Board,Outskirts,500009,Bowenpally,Napier Lines,3132,"Blackberrys, Allen Solly, Titan"
ANDHRA PRADESH,Hyderabad,Tirumalagiri,Secunderabad Cantt. Board,Outskirts,500009,Bowenpally,Tar Bund,3020,"Mexx, Van Heusen, Titan"
ANDHRA PRADESH,Hyderabad,Tirumalagiri,Secunderabad Cantt. Board,Outskirts,500009,Bowenpally,Napier Lines,3132,"Allen Solly, Titan, Pierre Cardin"
ANDHRA PRADESH,Hyderabad,Tirumalagiri,Secunderabad Cantt. Board,Outskirts,500009,Bowenpally,Tar Bund,3020,"Pierre Cardin, Being Human "
ANDHRA PRADESH,Hyderabad,Tirumalagiri,Secunderabad Cantt. Board,Outskirts,500011,Bowenpally,Parkview Enclave,3024,"Being Human, Pierre Cardin, Mexx"
ANDHRA PRADESH,Hyderabad,Tirumalagiri,Secunderabad Cantt. Board,Outskirts,500011,Bowenpally,"SAIL Employees Colony, SAIL Colony",3053,"Mexx, Van Heusen, Titan"
ANDHRA PRADESH,Hyderabad,Tirumalagiri,Secunderabad Cantt. Board,Outskirts,500009,Bowenpally,Manovikas Nagar,3140,"Being Human, Pierre Cardin, Mexx"
ANDHRA PRADESH,Hyderabad,Tirumalagiri,Secunderabad Cantt. Board,Outskirts,500011,Bowenpally,Icrisat Colony,3139,"Blackberrys, Allen Solly, Titan"
ANDHRA PRADESH,Hyderabad,Tirumalagiri,Secunderabad Cantt. Board,Outskirts,500009,Bowenpally,Kummu Gutta,3146,"Pierre Cardin, Being Human "
ANDHRA PRADESH,Hyderabad,Tirumalagiri,Secunderabad Cantt. Board,Outskirts,500009,Bowenpally,Tar Bund,3020,"Mexx, Van Heusen, Titan"
ANDHRA PRADESH,Hyderabad,Tirumalagiri,Secunderabad Cantt. Board,Outskirts,500009,Bowenpally,Kummu Gutta,3146,"Being Human, Pierre Cardin, Mexx"
ANDHRA PRADESH,Hyderabad,Tirumalagiri,Secunderabad Cantt. Board,Outskirts,500009,Bowenpally,Kummu Gutta,3146,"Allen Solly, Titan, Pierre Cardin"
ANDHRA PRADESH,Hyderabad,Tirumalagiri,Secunderabad Cantt. Board,Outskirts,500009,Bowenpally,Manovikas Nagar,3140,"Mexx, Van Heusen, Titan"
ANDHRA PRADESH,Hyderabad,Tirumalagiri,Secunderabad Cantt. Board,Outskirts,500009,Bowenpally,"Madhupala Enclave, Manovikas Nagar",3055,"Being Human, Pierre Cardin, Mexx"
ANDHRA PRADESH,Hyderabad,Tirumalagiri,Secunderabad Cantt. Board,Outskirts,500009,Bowenpally,Sikh Village,3191,"Blackberrys, Allen Solly, Titan"
ANDHRA PRADESH,Hyderabad,Tirumalagiri,Secunderabad Cantt. Board,Outskirts,500009,Bowenpally,Kummu Gutta,3146,"Being Human, Pierre Cardin, Mexx"
ANDHRA PRADESH,Hyderabad,Tirumalagiri,Secunderabad Cantt. Board,Outskirts,500009,Bowenpally,Sikh Village,3191,"Being Human, Pierre Cardin, Mexx"
ANDHRA PRADESH,Hyderabad,Tirumalagiri,Secunderabad Cantt. Board,Outskirts,500009,Bowenpally,Kummu Gutta,3146,"Pierre Cardin, Being Human "
ANDHRA PRADESH,Hyderabad,Tirumalagiri,Secunderabad Cantt. Board,Outskirts,500009,Bowenpally,Kummu Gutta,3146,"Mexx, Van Heusen, Titan"
ANDHRA PRADESH,Hyderabad,Tirumalagiri,Secunderabad Cantt. Board,Outskirts,500009,Gun Rock Enclave,Mudfort,3148,"Allen Solly, Titan, Pierre Cardin"
ANDHRA PRADESH,Hyderabad,Tirumalagiri,Secunderabad Cantt. Board,Outskirts,500009,Gun Rock Enclave,Mudfort,3148,"Mexx, Van Heusen, Titan"
ANDHRA PRADESH,Hyderabad,Tirumalagiri,Secunderabad Cantt. Board,Outskirts,500011,Bowenpally,"Sri Sai Apartment, SBI Colony",3051,"Allen Solly, Titan, Pierre Cardin"
ANDHRA PRADESH,Hyderabad,Tirumalagiri,Secunderabad Cantt. Board,Outskirts,500009,Bowenpally,"Jupiter Colony, Radha Swamy Colony",3048,"Mexx, Van Heusen, Titan"
ANDHRA PRADESH,Hyderabad,Tirumalagiri,Secunderabad Cantt. Board,Outskirts,500009,Bowenpally,Manovikas Nagar,3140,"Being Human, Pierre Cardin, Mexx"
ANDHRA PRADESH,Hyderabad,Tirumalagiri,Secunderabad Cantt. Board,Outskirts,500009,Bowenpally,Kiran Enclave,3138,"Blackberrys, Allen Solly, Titan"
ANDHRA PRADESH,Hyderabad,Tirumalagiri,Secunderabad Cantt. Board,Outskirts,500009,Bowenpally,Kiran Enclave,3138,"Mexx, Van Heusen, Titan"
ANDHRA PRADESH,Hyderabad,Tirumalagiri,Secunderabad Cantt. Board,Outskirts,500009,Bowenpally,Sikh Village,3191,"Allen Solly, Titan, Pierre Cardin"
ANDHRA PRADESH,Hyderabad,Tirumalagiri,Secunderabad Cantt. Board,Outskirts,500009,Gun Rock Enclave,Wahab Nagar,3212,"Mexx, Van Heusen, Titan"
ANDHRA PRADESH,Hyderabad,Tirumalagiri,Secunderabad Cantt. Board,Outskirts,500009,Bowenpally,Sikh Village,3191,"Allen Solly, Titan, Pierre Cardin"
ANDHRA PRADESH,Hyderabad,Tirumalagiri,Secunderabad Cantt. Board,Outskirts,500009,Gun Rock Enclave,Wahab Nagar,3212,"Blackberrys, Allen Solly, Titan"
ANDHRA PRADESH,Hyderabad,Tirumalagiri,Secunderabad Cantt. Board,Outskirts,500009,Bowenpally,Kummu Gutta,3146,"Mexx, Van Heusen, Titan"
ANDHRA PRADESH,Hyderabad,Tirumalagiri,Secunderabad Cantt. Board,Outskirts,500009,Gun Rock Enclave,Mudfort,3148,"Allen Solly, Titan, Pierre Cardin"
ANDHRA PRADESH,Hyderabad,Tirumalagiri,Secunderabad Cantt. Board,Outskirts,500009,Gun Rock Enclave,Mudfort,3148,"Pierre Cardin, Being Human "
ANDHRA PRADESH,Hyderabad,Tirumalagiri,Secunderabad Cantt. Board,Outskirts,500009,Gun Rock Enclave,Mudfort,3148,"Being Human, Pierre Cardin, Mexx"
ANDHRA PRADESH,Hyderabad,Tirumalagiri,Secunderabad Cantt. Board,Outskirts,500009,Gun Rock Enclave,Mudfort,3148,"Mexx, Van Heusen, Titan"
ANDHRA PRADESH,Hyderabad,Tirumalagiri,Secunderabad Cantt. Board,Outskirts,500009,Bowenpally,Radha Swamy Colony,3049,"Being Human, Pierre Cardin, Mexx"
ANDHRA PRADESH,Hyderabad,Tirumalagiri,Secunderabad Cantt. Board,Outskirts,500009,Bowenpally,"Jupiter Colony, Radha Swamy Colony",3048,"Blackberrys, Allen Solly, Titan"
ANDHRA PRADESH,Hyderabad,Tirumalagiri,Secunderabad Cantt. Board,Outskirts,500009,Bowenpally,Radha Swamy Colony,3049,"Pierre Cardin, Being Human "
ANDHRA PRADESH,Hyderabad,Tirumalagiri,Secunderabad Cantt. Board,Outskirts,500009,Karkhana,Vahini nagar,3046,"Mexx, Van Heusen, Titan"
ANDHRA PRADESH,Hyderabad,Tirumalagiri,Secunderabad Cantt. Board,Outskirts,500009,Karkhana,"AWHO Colony, Vahini nagar",3047,"Being Human, Pierre Cardin, Mexx"
ANDHRA PRADESH,Hyderabad,Tirumalagiri,Secunderabad Cantt. Board,Outskirts,500009,Bowenpally,"Jupiter Colony, Radha Swamy Colony",3048,"Allen Solly, Titan, Pierre Cardin"
ANDHRA PRADESH,Hyderabad,Tirumalagiri,Secunderabad Cantt. Board,Outskirts,500009,Karkhana,"AWHO Colony, Vahini nagar",3047,"Mexx, Van Heusen, Titan"
ANDHRA PRADESH,Hyderabad,Tirumalagiri,Secunderabad Cantt. Board,Outskirts,500009,Gun Rock Enclave,Sitaram Nagar,3080,"Being Human, Pierre Cardin, Mexx"
ANDHRA PRADESH,Hyderabad,Tirumalagiri,Secunderabad Cantt. Board,Outskirts,500009,Gun Rock Enclave,Sitaram Nagar,3080,"Blackberrys, Allen Solly, Titan"
ANDHRA PRADESH,Hyderabad,Tirumalagiri,Secunderabad Cantt. Board,Outskirts,500009,Gun Rock Enclave,Wahab Nagar,3212,"Being Human, Pierre Cardin, Mexx"
ANDHRA PRADESH,Hyderabad,Tirumalagiri,Secunderabad Cantt. Board,Outskirts,500009,Gun Rock Enclave,Mudfort,3148,"Being Human, Pierre Cardin, Mexx"
ANDHRA PRADESH,Hyderabad,Tirumalagiri,Secunderabad Cantt. Board,Outskirts,500009,Gun Rock Enclave,Wahab Nagar,3212,"Pierre Cardin, Being Human "
ANDHRA PRADESH,Hyderabad,Tirumalagiri,Secunderabad Cantt. Board,Outskirts,500009,Gun Rock Enclave,Mudfort,3148,"Mexx, Van Heusen, Titan"
ANDHRA PRADESH,Hyderabad,Tirumalagiri,Secunderabad Cantt. Board,Outskirts,500009,Gun Rock Enclave,Mudfort,3148,"Allen Solly, Titan, Pierre Cardin"
ANDHRA PRADESH,Hyderabad,Tirumalagiri,Secunderabad Cantt. Board,Outskirts,500009,Gun Rock Enclave,Mudfort,3148,"Mexx, Van Heusen, Titan"
ANDHRA PRADESH,Hyderabad,Tirumalagiri,Secunderabad Cantt. Board,Outskirts,500009,Gun Rock Enclave,Mudfort,3148,"Allen Solly, Titan, Pierre Cardin"
ANDHRA PRADESH,Hyderabad,Tirumalagiri,Secunderabad Cantt. Board,Outskirts,500009,Karkhana,Surya nagar,3045,"Mexx, Van Heusen, Titan"
ANDHRA PRADESH,Hyderabad,Tirumalagiri,Secunderabad Cantt. Board,Outskirts,500009,Bowenpally,"Rail Enclave, Radha Swamy Colony",3050,"Being Human, Pierre Cardin, Mexx"
ANDHRA PRADESH,Hyderabad,Tirumalagiri,Secunderabad Cantt. Board,Outskirts,500009,Karkhana,Surya nagar,3045,"Blackberrys, Allen Solly, Titan"
ANDHRA PRADESH,Hyderabad,Tirumalagiri,Secunderabad Cantt. Board,Outskirts,500009,Karkhana,Vahini nagar,3046,"Mexx, Van Heusen, Titan"
ANDHRA PRADESH,Hyderabad,Tirumalagiri,Secunderabad Cantt. Board,Outskirts,500009,Karkhana,Vahini nagar,3046,"Allen Solly, Titan, Pierre Cardin"
ANDHRA PRADESH,Hyderabad,Tirumalagiri,Secunderabad Cantt. Board,Outskirts,500009,Karkhana,Vahini nagar,3046,"Mexx, Van Heusen, Titan"
ANDHRA PRADESH,Hyderabad,Tirumalagiri,Secunderabad Cantt. Board,Outskirts,500009,Karkhana,"AWHO Colony, Vahini nagar",3047,"Allen Solly, Titan, Pierre Cardin"
ANDHRA PRADESH,Hyderabad,Tirumalagiri,Secunderabad Cantt. Board,Outskirts,500009,Gun Rock Enclave,Sitaram Nagar,3080,"Blackberrys, Allen Solly, Titan"
ANDHRA PRADESH,Hyderabad,Tirumalagiri,Secunderabad Cantt. Board,Outskirts,500009,Gun Rock Enclave,Sitaram Nagar,3080,"Mexx, Van Heusen, Titan"
ANDHRA PRADESH,Hyderabad,Tirumalagiri,Secunderabad Cantt. Board,Outskirts,500009,Gun Rock Enclave,Gun Rock Enclave,3192,"Allen Solly, Titan, Pierre Cardin"
ANDHRA PRADESH,Hyderabad,Tirumalagiri,Secunderabad Cantt. Board,Outskirts,500009,Gun Rock Enclave,Gun Rock Enclave,3192,"Pierre Cardin, Being Human "
ANDHRA PRADESH,Hyderabad,Tirumalagiri,Secunderabad Cantt. Board,Outskirts,500009,Gun Rock Enclave,Wahab Nagar,3212,"Being Human, Pierre Cardin, Mexx"
ANDHRA PRADESH,Hyderabad,Tirumalagiri,Secunderabad Cantt. Board,Outskirts,500009,Gun Rock Enclave,Mudfort,3148,"Mexx, Van Heusen, Titan"
ANDHRA PRADESH,Hyderabad,Tirumalagiri,Secunderabad Cantt. Board,Outskirts,500009,Gun Rock Enclave,Mudfort,3148,"Being Human, Pierre Cardin, Mexx"
ANDHRA PRADESH,Hyderabad,Tirumalagiri,Secunderabad Cantt. Board,Outskirts,500009,Gun Rock Enclave,Mudfort,3148,"Blackberrys, Allen Solly, Titan"
ANDHRA PRADESH,Hyderabad,Tirumalagiri,Secunderabad Cantt. Board,Outskirts,500009,Gun Rock Enclave,Mudfort,3148,"Pierre Cardin, Being Human "
ANDHRA PRADESH,Hyderabad,Tirumalagiri,Secunderabad Cantt. Board,Outskirts,500009,Karkhana,Surya nagar,3045,"Mexx, Van Heusen, Titan"
ANDHRA PRADESH,Hyderabad,Tirumalagiri,Secunderabad Cantt. Board,Outskirts,500009,Karkhana,Surya nagar,3045,"Being Human, Pierre Cardin, Mexx"
ANDHRA PRADESH,Hyderabad,Tirumalagiri,Secunderabad Cantt. Board,Outskirts,500009,Karkhana,Surya nagar,3045,"Allen Solly, Titan, Pierre Cardin"
ANDHRA PRADESH,Hyderabad,Tirumalagiri,Secunderabad Cantt. Board,Outskirts,500009,Karkhana,Surya nagar,3045,"Mexx, Van Heusen, Titan"
ANDHRA PRADESH,Hyderabad,Tirumalagiri,Secunderabad Cantt. Board,Outskirts,500009,Karkhana,Hyderabad Asbestos Staff Colony,3081,"Being Human, Pierre Cardin, Mexx"
ANDHRA PRADESH,Hyderabad,Tirumalagiri,Secunderabad Cantt. Board,Outskirts,500009,Gun Rock Enclave,Gun Rock Enclave,3192,"Blackberrys, Allen Solly, Titan"
ANDHRA PRADESH,Hyderabad,Tirumalagiri,Secunderabad Cantt. Board,Outskirts,500009,Karkhana,Hyderabad Asbestos Staff Colony,3081,"Being Human, Pierre Cardin, Mexx"
ANDHRA PRADESH,Hyderabad,Tirumalagiri,Secunderabad Cantt. Board,Outskirts,500009,Gun Rock Enclave,Gun Rock Enclave,3192,"Being Human, Pierre Cardin, Mexx"
ANDHRA PRADESH,Hyderabad,Tirumalagiri,Secunderabad Cantt. Board,Outskirts,500009,Karkhana,P & T Colony,3058,"Pierre Cardin, Being Human "
ANDHRA PRADESH,Hyderabad,Tirumalagiri,Secunderabad Cantt. Board,Outskirts,500009,Karkhana,"Sri Ram Enclave, P & T Colony",3147,"Mexx, Van Heusen, Titan"
ANDHRA PRADESH,Hyderabad,Tirumalagiri,Secunderabad Cantt. Board,Outskirts,500009,Karkhana,P & T Colony,3058,"Allen Solly, Titan, Pierre Cardin"
ANDHRA PRADESH,Hyderabad,Tirumalagiri,Secunderabad Cantt. Board,Outskirts,500009,Karkhana,Vikampuri,3141,"Mexx, Van Heusen, Titan"
ANDHRA PRADESH,Hyderabad,Tirumalagiri,Secunderabad Cantt. Board,Outskirts,500009,Karkhana,Surya nagar,3045,"Allen Solly, Titan, Pierre Cardin"
ANDHRA PRADESH,Hyderabad,Tirumalagiri,Secunderabad Cantt. Board,Outskirts,500009,Karkhana,Kousalya Enclave,3025,"Mexx, Van Heusen, Titan"
ANDHRA PRADESH,Hyderabad,Tirumalagiri,Secunderabad Cantt. Board,Outskirts,500009,Karkhana,Surya nagar,3045,"Being Human, Pierre Cardin, Mexx"
ANDHRA PRADESH,Hyderabad,Tirumalagiri,Secunderabad Cantt. Board,Outskirts,500009,Karkhana,Hyderabad Asbestos Staff Colony,3081,"Blackberrys, Allen Solly, Titan"
ANDHRA PRADESH,Hyderabad,Tirumalagiri,Secunderabad Cantt. Board,Outskirts,500009,Karkhana,Vasavi Nagar,3118,"Mexx, Van Heusen, Titan"
ANDHRA PRADESH,Hyderabad,Tirumalagiri,Secunderabad Cantt. Board,Outskirts,500009,Karkhana,R & D Colony,3015,"Allen Solly, Titan, Pierre Cardin"
ANDHRA PRADESH,Hyderabad,Tirumalagiri,Secunderabad Cantt. Board,Outskirts,500009,Karkhana,Hyderabad Asbestos Staff Colony,3081,"Mexx, Van Heusen, Titan"
ANDHRA PRADESH,Hyderabad,Tirumalagiri,Secunderabad Cantt. Board,Outskirts,500009,Karkhana,Vikampuri,3141,"Allen Solly, Titan, Pierre Cardin"
ANDHRA PRADESH,Hyderabad,Tirumalagiri,Secunderabad Cantt. Board,Outskirts,500009,Karkhana,"Sri Ram Enclave, P & T Colony",3147,"Blackberrys, Allen Solly, Titan"
ANDHRA PRADESH,Hyderabad,Tirumalagiri,Secunderabad Cantt. Board,Outskirts,500026,West Marredpally,Picket,3026,"Mexx, Van Heusen, Titan"
ANDHRA PRADESH,Hyderabad,Tirumalagiri,Secunderabad Cantt. Board,Outskirts,500009,Karkhana,Vikampuri,3141,"Allen Solly, Titan, Pierre Cardin"
ANDHRA PRADESH,Hyderabad,Tirumalagiri,Secunderabad Cantt. Board,Outskirts,500009,Karkhana,Kousalya Enclave,3025,"Pierre Cardin, Being Human "
ANDHRA PRADESH,Hyderabad,Tirumalagiri,Secunderabad Cantt. Board,Outskirts,500009,Karkhana,Kousalya Enclave,3025,"Being Human, Pierre Cardin, Mexx"
ANDHRA PRADESH,Hyderabad,Tirumalagiri,Secunderabad Cantt. Board,Outskirts,500009,Karkhana,New Vasavi Nagar,3117,"Mexx, Van Heusen, Titan"
ANDHRA PRADESH,Hyderabad,Tirumalagiri,Secunderabad Cantt. Board,Outskirts,500009,Karkhana,Surya nagar,3045,"Being Human, Pierre Cardin, Mexx"
ANDHRA PRADESH,Hyderabad,Tirumalagiri,Secunderabad Cantt. Board,Outskirts,500009,Karkhana,New Vasavi Nagar,3117,"Blackberrys, Allen Solly, Titan"
ANDHRA PRADESH,Hyderabad,Tirumalagiri,Secunderabad Cantt. Board,Outskirts,500009,Karkhana,Vasavi Nagar,3118,"Pierre Cardin, Being Human "
ANDHRA PRADESH,Hyderabad,Tirumalagiri,Secunderabad Cantt. Board,Outskirts,500009,Karkhana,Vasavi Nagar,3118,"Mexx, Van Heusen, Titan"
ANDHRA PRADESH,Hyderabad,Tirumalagiri,Secunderabad Cantt. Board,Outskirts,500009,Karkhana,Kakaguda,3142,"Being Human, Pierre Cardin, Mexx"
ANDHRA PRADESH,Hyderabad,Tirumalagiri,Secunderabad Cantt. Board,Outskirts,500009,Karkhana,R & D Colony,3015,"Allen Solly, Titan, Pierre Cardin"
ANDHRA PRADESH,Hyderabad,Tirumalagiri,Secunderabad Cantt. Board,Outskirts,500009,Karkhana,Gruhalaxmi Colony,3074,"Mexx, Van Heusen, Titan"
ANDHRA PRADESH,Hyderabad,Tirumalagiri,Secunderabad Cantt. Board,Outskirts,500009,Karkhana,Gruhalaxmi Colony,3074,"Being Human, Pierre Cardin, Mexx"
ANDHRA PRADESH,Hyderabad,Tirumalagiri,Secunderabad Cantt. Board,Outskirts,500009,Karkhana,Vikampuri,3141,"Blackberrys, Allen Solly, Titan"
ANDHRA PRADESH,Hyderabad,Tirumalagiri,Secunderabad Cantt. Board,Outskirts,500009,Karkhana,Vikampuri,3141,"Being Human, Pierre Cardin, Mexx"
ANDHRA PRADESH,Hyderabad,Tirumalagiri,Secunderabad Cantt. Board,Outskirts,500015,Trimulgherry,Hanuman Temple Complex,3035,"Being Human, Pierre Cardin, Mexx"
ANDHRA PRADESH,Hyderabad,Tirumalagiri,Secunderabad Cantt. Board,Outskirts,500009,Karkhana,New Vasavi Nagar,3117,"Pierre Cardin, Being Human "
ANDHRA PRADESH,Hyderabad,Tirumalagiri,Secunderabad Cantt. Board,Outskirts,500009,Karkhana,"Balaji Colony, Dad Enclave",3073,"Mexx, Van Heusen, Titan"
ANDHRA PRADESH,Hyderabad,Tirumalagiri,Secunderabad Cantt. Board,Outskirts,500009,Karkhana,Dad Enclave,3116,"Allen Solly, Titan, Pierre Cardin"
ANDHRA PRADESH,Hyderabad,Tirumalagiri,Secunderabad Cantt. Board,Outskirts,500009,Karkhana,New Vasavi Nagar,3117,"Mexx, Van Heusen, Titan"
ANDHRA PRADESH,Hyderabad,Tirumalagiri,Secunderabad Cantt. Board,Outskirts,500009,Karkhana,Joyti Colony,3115,"Allen Solly, Titan, Pierre Cardin"
ANDHRA PRADESH,Hyderabad,Tirumalagiri,Secunderabad Cantt. Board,Outskirts,500009,Karkhana,Kakaguda,3142,"Mexx, Van Heusen, Titan"
ANDHRA PRADESH,Hyderabad,Tirumalagiri,Secunderabad Cantt. Board,Outskirts,500009,Karkhana,Brooke Bond Colony,3036,"Being Human, Pierre Cardin, Mexx"
ANDHRA PRADESH,Hyderabad,Tirumalagiri,Secunderabad Cantt. Board,Outskirts,500009,Karkhana,"Shangir Apartment, Theograj Nagar",3071,"Blackberrys, Allen Solly, Titan"
ANDHRA PRADESH,Hyderabad,Tirumalagiri,Secunderabad Cantt. Board,Outskirts,500009,Karkhana,Gruhalaxmi Colony,3074,"Mexx, Van Heusen, Titan"
ANDHRA PRADESH,Hyderabad,Tirumalagiri,Secunderabad Cantt. Board,Outskirts,500009,Karkhana,Kakaguda,3142,"Allen Solly, Titan, Pierre Cardin"
ANDHRA PRADESH,Hyderabad,Tirumalagiri,Secunderabad Cantt. Board,Outskirts,500026,West Marredpally,Krishnapuri,3027,"Mexx, Van Heusen, Titan"
ANDHRA PRADESH,Hyderabad,Tirumalagiri,Secunderabad Cantt. Board,Outskirts,500009,Karkhana,"Gayatri Residency, Ishaq Colony",3072,"Allen Solly, Titan, Pierre Cardin"
ANDHRA PRADESH,Hyderabad,Tirumalagiri,Secunderabad Cantt. Board,Outskirts,500009,Karkhana,Ishaq Colony,3082,"Blackberrys, Allen Solly, Titan"
ANDHRA PRADESH,Hyderabad,Tirumalagiri,Secunderabad Cantt. Board,Outskirts,500015,Trimulgherry,Hanuman Temple Complex,3035,"Mexx, Van Heusen, Titan"
ANDHRA PRADESH,Hyderabad,Tirumalagiri,Secunderabad Cantt. Board,Outskirts,500015,Trimulgherry,Hanuman Temple Complex,3035,"Allen Solly, Titan, Pierre Cardin"
ANDHRA PRADESH,Hyderabad,Tirumalagiri,Secunderabad Cantt. Board,Outskirts,500009,Karkhana,Karkhana,3037,"Pierre Cardin, Being Human "
ANDHRA PRADESH,Hyderabad,Tirumalagiri,Secunderabad Cantt. Board,Outskirts,500009,Karkhana,Dad Enclave,3116,"Being Human, Pierre Cardin, Mexx"
ANDHRA PRADESH,Hyderabad,Tirumalagiri,Secunderabad Cantt. Board,Outskirts,500009,Karkhana,Joyti Colony,3115,"Mexx, Van Heusen, Titan"
ANDHRA PRADESH,Hyderabad,Tirumalagiri,Secunderabad Cantt. Board,Outskirts,500009,Karkhana,Brooke Bond Colony,3036,"Being Human, Pierre Cardin, Mexx"
ANDHRA PRADESH,Hyderabad,Tirumalagiri,Secunderabad Cantt. Board,Outskirts,500026,West Marredpally,RK Nagar,3018,"Blackberrys, Allen Solly, Titan"
ANDHRA PRADESH,Hyderabad,Tirumalagiri,Secunderabad Cantt. Board,Outskirts,500026,West Marredpally,Krishnapuri,3027,"Pierre Cardin, Being Human "
ANDHRA PRADESH,Hyderabad,Tirumalagiri,Secunderabad Cantt. Board,Outskirts,500009,Karkhana,Karkhana,3037,"Mexx, Van Heusen, Titan"
ANDHRA PRADESH,Hyderabad,Tirumalagiri,Secunderabad Cantt. Board,Outskirts,500026,West Marredpally,"Rukmini Devi Colony, Mahatma Gandhi Nagar",3066,"Being Human, Pierre Cardin, Mexx"
ANDHRA PRADESH,Hyderabad,Tirumalagiri,Secunderabad Cantt. Board,Outskirts,500026,West Marredpally,Simhapuri Colony,3028,"Allen Solly, Titan, Pierre Cardin"
Maharashtra,Mumbai Suburban,Area not under any Sub-district,Mumbai,Suburbs,400053,Andheri West,Anand Nagar,1019,"Mexx, Van Heusen, Titan"
Maharashtra,Mumbai Suburban,Area not under any Sub-district,Mumbai,Suburbs,400053,Andheri West,Anand Nagar,1019,"Being Human, Pierre Cardin, Mexx"
Maharashtra,Mumbai Suburban,Area not under any Sub-district,Mumbai,Suburbs,400053,Andheri West,Industrial   Area,1183,"Blackberrys, Allen Solly, Titan"
Maharashtra,Mumbai Suburban,Area not under any Sub-district,Mumbai,Suburbs,400053,Andheri West,Model Town,1084,"Being Human, Pierre Cardin, Mexx"
Maharashtra,Mumbai Suburban,Area not under any Sub-district,Mumbai,Suburbs,400061,Andheri West,"Joseph Patel   Wadi, Versova",1150,"Being Human, Pierre Cardin, Mexx"
Maharashtra,Mumbai Suburban,Area not under any Sub-district,Mumbai,Suburbs,400053,Andheri West,Seven Bunglow,875,"Pierre Cardin, Being Human "
Maharashtra,Mumbai Suburban,Area not under any Sub-district,Mumbai,Suburbs,400053,Andheri West,SV Patel Nagar,1427,"Mexx, Van Heusen, Titan"
Maharashtra,Mumbai Suburban,Area not under any Sub-district,Mumbai,Suburbs,400053,Andheri West,Industrial   Area,1087,"Allen Solly, Titan, Pierre Cardin"
Maharashtra,Mumbai Suburban,Area not under any Sub-district,Mumbai,Suburbs,400052,Khar West,Pali Village,1325,"Mexx, Van Heusen, Titan"
Maharashtra,Mumbai Suburban,Area not under any Sub-district,Mumbai,Suburbs,400050,Bandra West,Santosh Nagar,993,"Allen Solly, Titan, Pierre Cardin"
Maharashtra,Mumbai Suburban,Area not under any Sub-district,Mumbai,Suburbs,400050,Bandra West,Bandra rAILWAY STATION,1468,"Mexx, Van Heusen, Titan"
Maharashtra,Mumbai Suburban,Area not under any Sub-district,Mumbai,Suburbs,400050,Bandra West,Reclamation,1077,"Being Human, Pierre Cardin, Mexx"
Maharashtra,Mumbai Suburban,Area not under any Sub-district,Mumbai,Suburbs,400102,Jogeshwari West,Gautam Nagar,891,"Blackberrys, Allen Solly, Titan"
Maharashtra,Mumbai Suburban,Area not under any Sub-district,Mumbai,Suburbs,400058,Jogeshwari West,Prathmesh   Complex,1139,"Mexx, Van Heusen, Titan"
Maharashtra,Mumbai Suburban,Area not under any Sub-district,Mumbai,Suburbs,400058,Jogeshwari West,Prathmesh   Complex,1139,"Allen Solly, Titan, Pierre Cardin"
Maharashtra,Mumbai Suburban,Area not under any Sub-district,Mumbai,Suburbs,400058,Andheri West,Azad Nagar,863,"Mexx, Van Heusen, Titan"
Maharashtra,Mumbai Suburban,Area not under any Sub-district,Mumbai,Suburbs,400050,Bandra West,Patkar Blocks,254,"Allen Solly, Titan, Pierre Cardin"
Maharashtra,Mumbai Suburban,Area not under any Sub-district,Mumbai,Suburbs,400050,Bandra West,Reclamation,1077,"Blackberrys, Allen Solly, Titan"
Maharashtra,Mumbai Suburban,Area not under any Sub-district,Mumbai,Suburbs,400050,Bandra West,Patkar Blocks,254,"Mexx, Van Heusen, Titan"
Maharashtra,Mumbai Suburban,Area not under any Sub-district,Mumbai,Suburbs,400050,Bandra West,Bandra rAILWAY STATION,1468,"Allen Solly, Titan, Pierre Cardin"
Maharashtra,Mumbai Suburban,Area not under any Sub-district,Mumbai,Suburbs,400050,Bandra West,Patkar Blocks,254,"Pierre Cardin, Being Human "
Maharashtra,Mumbai Suburban,Area not under any Sub-district,Mumbai,Suburbs,400102,Jogeshwari West,Shastri Nagar,1112,"Being Human, Pierre Cardin, Mexx"
Maharashtra,Mumbai Suburban,Area not under any Sub-district,Mumbai,Suburbs,400053,Andheri West,Veer Desai   Industrial Estate,1281,"Mexx, Van Heusen, Titan"
Maharashtra,Mumbai Suburban,Area not under any Sub-district,Mumbai,Suburbs,400053,Andheri West,Industrial   Area,1087,"Being Human, Pierre Cardin, Mexx"
Maharashtra,Mumbai Suburban,Area not under any Sub-district,Mumbai,Suburbs,400053,Andheri West,"Mhada Colony,   Azad Nagar",287,"Blackberrys, Allen Solly, Titan"
Maharashtra,Mumbai Suburban,Area not under any Sub-district,Mumbai,Suburbs,400053,Andheri West,Veer Desai   Industrial Estate,1281,"Pierre Cardin, Being Human "
Maharashtra,Mumbai Suburban,Area not under any Sub-district,Mumbai,Suburbs,400053,Andheri West,Industrial   Area,1087,"Mexx, Van Heusen, Titan"
Maharashtra,Mumbai Suburban,Area not under any Sub-district,Mumbai,Suburbs,400050,Bandra West,Suburbia Mall,1467,"Being Human, Pierre Cardin, Mexx"
Maharashtra,Mumbai Suburban,Area not under any Sub-district,Mumbai,Suburbs,400050,Bandra West,Bandra Talao,1446,"Allen Solly, Titan, Pierre Cardin"
Maharashtra,Mumbai Suburban,Area not under any Sub-district,Mumbai,Suburbs,400050,Bandra West,Bandra rAILWAY STATION,1468,"Mexx, Van Heusen, Titan"
Maharashtra,Mumbai Suburban,Area not under any Sub-district,Mumbai,Suburbs,400050,Bandra West,Bandra rAILWAY STATION,1468,"Being Human, Pierre Cardin, Mexx"
Maharashtra,Mumbai Suburban,Area not under any Sub-district,Mumbai,Suburbs,400050,Bandra West,Bandra rAILWAY STATION,1468,"Blackberrys, Allen Solly, Titan"
Maharashtra,Mumbai Suburban,Area not under any Sub-district,Mumbai,Suburbs,400053,Andheri West,Milat Nagar,991,"Being Human, Pierre Cardin, Mexx"
Maharashtra,Mumbai Suburban,Area not under any Sub-district,Mumbai,Suburbs,400053,Andheri West,Lokhandwala   Complex,1351,"Being Human, Pierre Cardin, Mexx"
Maharashtra,Mumbai Suburban,Area not under any Sub-district,Mumbai,Suburbs,400053,Andheri West,"Indira Nagar,   Four Bungalows",662,"Pierre Cardin, Being Human "
Maharashtra,Mumbai Suburban,Area not under any Sub-district,Mumbai,Suburbs,400053,Andheri West,"New DN Nagar,   D N Nagar",269,"Mexx, Van Heusen, Titan"
Maharashtra,Mumbai Suburban,Area not under any Sub-district,Mumbai,Suburbs,400049,Andheri West,Kapaswadi,621,"Allen Solly, Titan, Pierre Cardin"
Maharashtra,Mumbai Suburban,Area not under any Sub-district,Mumbai,Suburbs,400052,Khar West,Ambedkar   Colony,268,"Mexx, Van Heusen, Titan"
Maharashtra,Mumbai Suburban,Area not under any Sub-district,Mumbai,Suburbs,400050,Pali Hills,Union Park,894,"Allen Solly, Titan, Pierre Cardin"
Maharashtra,Mumbai Suburban,Area not under any Sub-district,Mumbai,Suburbs,400050,Khar West,Rizvi Complex area,1443,"Mexx, Van Heusen, Titan"
Maharashtra,Mumbai Suburban,Area not under any Sub-district,Mumbai,Suburbs,400050,Khar West,Rizvi Complex area,1443,"Being Human, Pierre Cardin, Mexx"
Maharashtra,Mumbai Suburban,Area not under any Sub-district,Mumbai,Suburbs,400050,Bandra West,Ranwar,1285,"Blackberrys, Allen Solly, Titan"
Maharashtra,Mumbai Suburban,Area not under any Sub-district,Mumbai,Suburbs,400053,Andheri West,Mhada Colony,1177,"Mexx, Van Heusen, Titan"
Maharashtra,Mumbai Suburban,Area not under any Sub-district,Mumbai,Suburbs,400053,Andheri West,Milat Nagar,991,"Allen Solly, Titan, Pierre Cardin"
Maharashtra,Mumbai Suburban,Area not under any Sub-district,Mumbai,Suburbs,400053,Andheri West,"Indian Oil   Nagar, D N Nagar",72,"Mexx, Van Heusen, Titan"
Maharashtra,Mumbai Suburban,Area not under any Sub-district,Mumbai,Suburbs,400050,Bandra West,Mithun Garden,1449,"Allen Solly, Titan, Pierre Cardin"
Maharashtra,Mumbai Suburban,Area not under any Sub-district,Mumbai,Suburbs,400053,Andheri West,Mhada Colony,1177,"Blackberrys, Allen Solly, Titan"
Maharashtra,Mumbai Suburban,Area not under any Sub-district,Mumbai,Suburbs,400053,Andheri West,Mhada Colony,1177,"Mexx, Van Heusen, Titan"
Maharashtra,Mumbai Suburban,Area not under any Sub-district,Mumbai,Suburbs,400058,Andheri West,Azad Nagar,863,"Allen Solly, Titan, Pierre Cardin"
Maharashtra,Mumbai Suburban,Area not under any Sub-district,Mumbai,Suburbs,400053,Andheri West,"Shitladevi   Chawl, D N Nagar",99,"Pierre Cardin, Being Human "
Maharashtra,Mumbai Suburban,Area not under any Sub-district,Mumbai,Suburbs,400053,Andheri West,"Shanti Nagar,   D N Nagar",570,"Being Human, Pierre Cardin, Mexx"
Maharashtra,Mumbai Suburban,Area not under any Sub-district,Mumbai,Suburbs,400050,Bandra West,Mithun Garden,1449,"Mexx, Van Heusen, Titan"
Maharashtra,Mumbai Suburban,Area not under any Sub-district,Mumbai,Suburbs,400053,Andheri West,Anand Nagar,1019,"Being Human, Pierre Cardin, Mexx"
Maharashtra,Mumbai Suburban,Area not under any Sub-district,Mumbai,Suburbs,400053,Andheri West,Anand Nagar,1019,"Blackberrys, Allen Solly, Titan"
Maharashtra,Mumbai Suburban,Area not under any Sub-district,Mumbai,Suburbs,400102,Jogeshwari West,Kadam Nagar,61,"Pierre Cardin, Being Human "
Maharashtra,Mumbai Suburban,Area not under any Sub-district,Mumbai,Suburbs,400050,Bandra West,Bandra Talao,1446,"Mexx, Van Heusen, Titan"
Maharashtra,Mumbai Suburban,Area not under any Sub-district,Mumbai,Suburbs,400050,Bandra West,Bhabh Hospital area,1450,"Being Human, Pierre Cardin, Mexx"
Maharashtra,Mumbai Suburban,Area not under any Sub-district,Mumbai,Suburbs,400050,Bandra West,Bandra Talao,1446,"Allen Solly, Titan, Pierre Cardin"
Maharashtra,Mumbai Suburban,Area not under any Sub-district,Mumbai,Suburbs,400050,Bandra West,Santosh Nagar,993,"Mexx, Van Heusen, Titan"
Maharashtra,Mumbai Suburban,Area not under any Sub-district,Mumbai,Suburbs,400050,Bandra West,Suburbia Mall,1467,"Being Human, Pierre Cardin, Mexx"
Maharashtra,Mumbai Suburban,Area not under any Sub-district,Mumbai,Suburbs,400050,Bandra West,Bandra Talao,1446,"Blackberrys, Allen Solly, Titan"
Maharashtra,Mumbai Suburban,Area not under any Sub-district,Mumbai,Suburbs,400052,Khar West,Jaibharat   Society,784,"Being Human, Pierre Cardin, Mexx"
Maharashtra,Mumbai Suburban,Area not under any Sub-district,Mumbai,Suburbs,400104,Goregaon West,Bhagat   Singh Nagar,959,"Being Human, Pierre Cardin, Mexx"
Maharashtra,Mumbai Suburban,Area not under any Sub-district,Mumbai,Suburbs,400053,Andheri West,"Jeevan Nagar,   Azad Nagar",244,"Pierre Cardin, Being Human "
Maharashtra,Mumbai Suburban,Area not under any Sub-district,Mumbai,Suburbs,400050,Bandra West,Mithun Garden,1449,"Mexx, Van Heusen, Titan"
Maharashtra,Mumbai Suburban,Area not under any Sub-district,Mumbai,Suburbs,400050,Pali Hills,Auxilium Convent,1466,"Allen Solly, Titan, Pierre Cardin"
Maharashtra,Mumbai Suburban,Area not under any Sub-district,Mumbai,Suburbs,400050,Bandra West,Mount Mary,1392,"Mexx, Van Heusen, Titan"
Maharashtra,Mumbai Suburban,Area not under any Sub-district,Mumbai,Suburbs,400050,Bandra West,Mount Mary,1392,"Allen Solly, Titan, Pierre Cardin"
Maharashtra,Mumbai Suburban,Area not under any Sub-district,Mumbai,Suburbs,400053,Andheri West,"Phase D,   Shastri Nagar",656,"Mexx, Van Heusen, Titan"
Maharashtra,Mumbai Suburban,Area not under any Sub-district,Mumbai,Suburbs,400053,Andheri West,Industrial   Area,1183,"Being Human, Pierre Cardin, Mexx"
Maharashtra,Mumbai Suburban,Area not under any Sub-district,Mumbai,Suburbs,400053,Andheri West,Bhudargarh Colony,1064,"Blackberrys, Allen Solly, Titan"
Maharashtra,Mumbai Suburban,Area not under any Sub-district,Mumbai,Suburbs,400053,Andheri West,"Manish Nagar,   Four Bungalows",636,"Mexx, Van Heusen, Titan"
Maharashtra,Mumbai Suburban,Area not under any Sub-district,Mumbai,Suburbs,400053,Andheri West,"Madhuban Colony,   D N Nagar",257,"Allen Solly, Titan, Pierre Cardin"
Maharashtra,Mumbai Suburban,Area not under any Sub-district,Mumbai,Suburbs,400053,Andheri West,"ESIC Nagar,   D N Nagar",123,"Mexx, Van Heusen, Titan"
Maharashtra,Mumbai Suburban,Area not under any Sub-district,Mumbai,Suburbs,400053,Andheri West,"Ganesh Nagar,   D N Nagar",3,"Allen Solly, Titan, Pierre Cardin"
Maharashtra,Mumbai Suburban,Area not under any Sub-district,Mumbai,Suburbs,400050,Khar West,Rizvi Complex area,1443,"Blackberrys, Allen Solly, Titan"
Maharashtra,Mumbai Suburban,Area not under any Sub-district,Mumbai,Suburbs,400050,Bandra West,D Monte Park,1452,"Mexx, Van Heusen, Titan"
Maharashtra,Mumbai Suburban,Area not under any Sub-district,Mumbai,Suburbs,400050,Bandra West,Mount Mary,1392,"Allen Solly, Titan, Pierre Cardin"
Maharashtra,Mumbai Suburban,Area not under any Sub-district,Mumbai,Suburbs,400053,Andheri West,Milat Nagar,991,"Pierre Cardin, Being Human "
Maharashtra,Mumbai Suburban,Area not under any Sub-district,Mumbai,Suburbs,400053,Andheri West,Milat Nagar,991,"Being Human, Pierre Cardin, Mexx"
Maharashtra,Mumbai Suburban,Area not under any Sub-district,Mumbai,Suburbs,400053,Andheri West,"New LIC Colony,   D N Nagar",43,"Mexx, Van Heusen, Titan"
Maharashtra,Mumbai Suburban,Area not under any Sub-district,Mumbai,Suburbs,400053,Andheri West,D N Nagar,410,"Being Human, Pierre Cardin, Mexx"
Maharashtra,Mumbai Suburban,Area not under any Sub-district,Mumbai,Suburbs,400053,Andheri West,"Shanti Nagar,   D N Nagar",570,"Blackberrys, Allen Solly, Titan"
Maharashtra,Mumbai Suburban,Area not under any Sub-district,Mumbai,Suburbs,400050,Bandra West,Almeida Park,1448,"Pierre Cardin, Being Human "
Maharashtra,Mumbai Suburban,Area not under any Sub-district,Mumbai,Suburbs,400050,Pali Hills,Auxilium Convent,1466,"Mexx, Van Heusen, Titan"
Maharashtra,Mumbai Suburban,Area not under any Sub-district,Mumbai,Suburbs,400050,Bandra West,D Monte Park,1452,"Being Human, Pierre Cardin, Mexx"
Maharashtra,Mumbai Suburban,Area not under any Sub-district,Mumbai,Suburbs,400053,Andheri West,Shastri Nagar,1057,"Allen Solly, Titan, Pierre Cardin"
Maharashtra,Mumbai Suburban,Area not under any Sub-district,Mumbai,Suburbs,400058,Andheri West,Munshi Nagar,1242,"Mexx, Van Heusen, Titan"
Maharashtra,Mumbai Suburban,Area not under any Sub-district,Mumbai,Suburbs,400050,Bandra West,Bhabh Hospital area,1450,"Being Human, Pierre Cardin, Mexx"
Maharashtra,Mumbai Suburban,Area not under any Sub-district,Mumbai,Suburbs,400050,Bandra West,Almeida Park,1448,"Blackberrys, Allen Solly, Titan"
Maharashtra,Mumbai Suburban,Area not under any Sub-district,Mumbai,Suburbs,400050,Bandra West,Reclamation,1077,"Being Human, Pierre Cardin, Mexx"
Maharashtra,Mumbai Suburban,Area not under any Sub-district,Mumbai,Suburbs,400061,Andheri West,"Jeet Nagar,   Versova",1056,"Being Human, Pierre Cardin, Mexx"
Maharashtra,Mumbai Suburban,Area not under any Sub-district,Mumbai,Suburbs,400061,Andheri West,"Joseph Patel   Wadi, Versova",1150,"Pierre Cardin, Being Human "
Maharashtra,Mumbai Suburban,Area not under any Sub-district,Mumbai,Suburbs,400061,Andheri West,"Joseph Patel   Wadi, Versova",1150,"Mexx, Van Heusen, Titan"
Maharashtra,Mumbai Suburban,Area not under any Sub-district,Mumbai,Suburbs,400053,Andheri West,"Aram Nagar,   Versova",1346,"Allen Solly, Titan, Pierre Cardin"
Maharashtra,Mumbai Suburban,Area not under any Sub-district,Mumbai,Suburbs,400053,Andheri West,Seven Bunglow,875,"Mexx, Van Heusen, Titan"
Maharashtra,Mumbai Suburban,Area not under any Sub-district,Mumbai,Suburbs,400053,Andheri West,"Bharat Nagar,   Versova",1162,"Allen Solly, Titan, Pierre Cardin"
Maharashtra,Mumbai Suburban,Area not under any Sub-district,Mumbai,Suburbs,400050,Bandra West,Mount Mary,1392,"Mexx, Van Heusen, Titan"
Maharashtra,Mumbai Suburban,Area not under any Sub-district,Mumbai,Suburbs,400053,Andheri West,SV Patel Nagar,1427,"Being Human, Pierre Cardin, Mexx"
Maharashtra,Mumbai Suburban,Area not under any Sub-district,Mumbai,Suburbs,400050,Bandra West,D Monte Park,1452,"Blackberrys, Allen Solly, Titan"
Maharashtra,Mumbai Suburban,Area not under any Sub-district,Mumbai,Suburbs,400050,Bandra West,D Monte Park,1452,"Mexx, Van Heusen, Titan"
Maharashtra,Mumbai Suburban,Area not under any Sub-district,Mumbai,Suburbs,400053,Andheri West,Shastri Nagar,1057,"Allen Solly, Titan, Pierre Cardin"
Maharashtra,Mumbai Suburban,Area not under any Sub-district,Mumbai,Suburbs,400053,Andheri West,Shastri Nagar,1057,"Mexx, Van Heusen, Titan"
Maharashtra,Mumbai Suburban,Area not under any Sub-district,Mumbai,Suburbs,400053,Andheri West,SV Patel Nagar,1427,"Allen Solly, Titan, Pierre Cardin"
Maharashtra,Mumbai Suburban,Area not under any Sub-district,Mumbai,Suburbs,400053,Andheri West,Bhudargarh Colony,1064,"Blackberrys, Allen Solly, Titan"
Maharashtra,Mumbai Suburban,Area not under any Sub-district,Mumbai,Suburbs,400053,Andheri West,"Ratan Nagar,   Four Bungalows",939,"Mexx, Van Heusen, Titan"
Maharashtra,Mumbai Suburban,Area not under any Sub-district,Mumbai,Suburbs,400053,Andheri West,"Bharat Nagar,   Versova",1162,"Allen Solly, Titan, Pierre Cardin"
Maharashtra,Mumbai Suburban,Area not under any Sub-district,Mumbai,Suburbs,400052,Pali Hills,Danda,309,"Pierre Cardin, Being Human "
Maharashtra,Mumbai Suburban,Area not under any Sub-district,Mumbai,Suburbs,400050,Pali Hills,Hanuman Nagar,749,"Being Human, Pierre Cardin, Mexx"
Maharashtra,Mumbai Suburban,Area not under any Sub-district,Mumbai,Suburbs,400050,Pali Hills,Chuim,306,"Mexx, Van Heusen, Titan"
Maharashtra,Mumbai Suburban,Area not under any Sub-district,Mumbai,Suburbs,400050,Pali Hills,"Railway Colony,   Shirley",169,"Being Human, Pierre Cardin, Mexx"
Maharashtra,Mumbai Suburban,Area not under any Sub-district,Mumbai,Suburbs,400053,Andheri West,Yamuna Nagar,617,"Blackberrys, Allen Solly, Titan"
Maharashtra,Mumbai Suburban,Area not under any Sub-district,Mumbai,Suburbs,400053,Andheri West,Lokhandwala   Complex,1351,"Pierre Cardin, Being Human "
Maharashtra,Mumbai Suburban,Area not under any Sub-district,Mumbai,Suburbs,400053,Andheri West,SV Patel Nagar,1427,"Mexx, Van Heusen, Titan"
Maharashtra,Mumbai Suburban,Area not under any Sub-district,Mumbai,Suburbs,400053,Andheri West,Mudran Press   Colony,872,"Being Human, Pierre Cardin, Mexx"
Maharashtra,Mumbai Suburban,Area not under any Sub-district,Mumbai,Suburbs,400053,Andheri West,"Indira Nagar,   Four Bungalows",662,"Allen Solly, Titan, Pierre Cardin"
Maharashtra,Mumbai Suburban,Area not under any Sub-district,Mumbai,Suburbs,400053,Andheri West,"Ratan Nagar,   Four Bungalows",939,"Mexx, Van Heusen, Titan"
Maharashtra,Mumbai Suburban,Area not under any Sub-district,Mumbai,Suburbs,400053,Andheri West,Kapaswadi,621,"Being Human, Pierre Cardin, Mexx"
Maharashtra,Mumbai Suburban,Area not under any Sub-district,Mumbai,Suburbs,400050,Pali Hills,Hanuman Nagar,749,"Blackberrys, Allen Solly, Titan"
Maharashtra,Mumbai Suburban,Area not under any Sub-district,Mumbai,Suburbs,400050,Pali Hills,Chuim,306,"Being Human, Pierre Cardin, Mexx"
Maharashtra,Mumbai Suburban,Area not under any Sub-district,Mumbai,Suburbs,400050,Khar West,Rizvi Complex area,1443,"Being Human, Pierre Cardin, Mexx"
Maharashtra,Mumbai Suburban,Area not under any Sub-district,Mumbai,Suburbs,400050,Bandra West,D Monte Park,1452,"Pierre Cardin, Being Human "
Maharashtra,Mumbai Suburban,Area not under any Sub-district,Mumbai,Suburbs,400053,Andheri West,Highland Park,885,"Mexx, Van Heusen, Titan"
Maharashtra,Mumbai Suburban,Area not under any Sub-district,Mumbai,Suburbs,400053,Andheri West,Lokhandwala   Complex,1351,"Allen Solly, Titan, Pierre Cardin"
Maharashtra,Mumbai Suburban,Area not under any Sub-district,Mumbai,Suburbs,400053,Andheri West,Shastri Nagar,1057,"Mexx, Van Heusen, Titan"
Maharashtra,Mumbai Suburban,Area not under any Sub-district,Mumbai,Suburbs,400053,Andheri West,Industrial   Area,1183,"Allen Solly, Titan, Pierre Cardin"
Maharashtra,Mumbai Suburban,Area not under any Sub-district,Mumbai,Suburbs,400053,Andheri West,Bhudargarh Colony,1064,"Mexx, Van Heusen, Titan"
Maharashtra,Mumbai Suburban,Area not under any Sub-district,Mumbai,Suburbs,400053,Andheri West,"New DN Nagar,   D N Nagar",269,"Being Human, Pierre Cardin, Mexx"
Maharashtra,Mumbai Suburban,Area not under any Sub-district,Mumbai,Suburbs,400050,Khar West,Rizvi Complex area,1443,"Blackberrys, Allen Solly, Titan"
Maharashtra,Mumbai Suburban,Area not under any Sub-district,Mumbai,Suburbs,400053,Andheri West,Milat Nagar,991,"Mexx, Van Heusen, Titan"
Maharashtra,Mumbai Suburban,Area not under any Sub-district,Mumbai,Suburbs,400053,Andheri West,Mhada Colony,1177,"Allen Solly, Titan, Pierre Cardin"
Maharashtra,Mumbai Suburban,Area not under any Sub-district,Mumbai,Suburbs,400053,Andheri West,Shastri Nagar,1057,"Mexx, Van Heusen, Titan"
Maharashtra,Mumbai Suburban,Area not under any Sub-district,Mumbai,Suburbs,400053,Andheri West,Industrial   Area,1183,"Allen Solly, Titan, Pierre Cardin"
Maharashtra,Mumbai Suburban,Area not under any Sub-district,Mumbai,Suburbs,400053,Andheri West,"New DN Nagar,   D N Nagar",269,"Blackberrys, Allen Solly, Titan"
Maharashtra,Mumbai Suburban,Area not under any Sub-district,Mumbai,Suburbs,400053,Andheri West,"New DN Nagar,   D N Nagar",269,"Mexx, Van Heusen, Titan"
Maharashtra,Mumbai Suburban,Area not under any Sub-district,Mumbai,Suburbs,400050,Khar West,Rizvi Complex area,1443,"Allen Solly, Titan, Pierre Cardin"
Maharashtra,Mumbai Suburban,Area not under any Sub-district,Mumbai,Suburbs,400050,Khar West,Rizvi Complex area,1443,"Pierre Cardin, Being Human "
Maharashtra,Mumbai Suburban,Area not under any Sub-district,Mumbai,Suburbs,400050,Bandra West,Almeida Park,1448,"Being Human, Pierre Cardin, Mexx"
Maharashtra,Mumbai Suburban,Area not under any Sub-district,Mumbai,Suburbs,400050,Bandra West,ONGC Colony,608,"Mexx, Van Heusen, Titan"
Maharashtra,Mumbai Suburban,Area not under any Sub-district,Mumbai,Suburbs,400104,Goregaon West,Bhagat   Singh Nagar,959,"Being Human, Pierre Cardin, Mexx"
Maharashtra,Mumbai Suburban,Area not under any Sub-district,Mumbai,Suburbs,400053,Andheri West,Anand Nagar,1019,"Blackberrys, Allen Solly, Titan"
Maharashtra,Mumbai Suburban,Area not under any Sub-district,Mumbai,Suburbs,400102,Jogeshwari West,Adarsh Nagar,1082,"Pierre Cardin, Being Human "
Maharashtra,Mumbai Suburban,Area not under any Sub-district,Mumbai,Suburbs,400053,Andheri West,D N Nagar,410,"Mexx, Van Heusen, Titan"
Maharashtra,Mumbai Suburban,Area not under any Sub-district,Mumbai,Suburbs,400050,Bandra West,Bhabh Hospital area,1450,"Being Human, Pierre Cardin, Mexx"
Maharashtra,Mumbai Suburban,Area not under any Sub-district,Mumbai,Suburbs,400050,Bandra West,Santosh Nagar,993,"Allen Solly, Titan, Pierre Cardin"
Maharashtra,Mumbai Suburban,Area not under any Sub-district,Mumbai,Suburbs,400050,Pali Hills,Shirley,431,"Mexx, Van Heusen, Titan"
Maharashtra,Mumbai Suburban,Area not under any Sub-district,Mumbai,Suburbs,400050,Khar West,Chimbai village,1451,"Being Human, Pierre Cardin, Mexx"
Maharashtra,Mumbai Suburban,Area not under any Sub-district,Mumbai,Suburbs,400050,Bandra West,Ranwar,1285,"Blackberrys, Allen Solly, Titan"
Maharashtra,Mumbai Suburban,Area not under any Sub-district,Mumbai,Suburbs,400050,Bandra West,Mount Mary,1392,"Being Human, Pierre Cardin, Mexx"
Maharashtra,Mumbai Suburban,Area not under any Sub-district,Mumbai,Suburbs,400053,Andheri West,Milat Nagar,991,"Being Human, Pierre Cardin, Mexx"
Maharashtra,Mumbai Suburban,Area not under any Sub-district,Mumbai,Suburbs,400053,Andheri West,Yamuna Nagar,617,"Pierre Cardin, Being Human "
Maharashtra,Mumbai Suburban,Area not under any Sub-district,Mumbai,Suburbs,400053,Andheri West,Highland Park,885,"Mexx, Van Heusen, Titan"
Maharashtra,Mumbai Suburban,Area not under any Sub-district,Mumbai,Suburbs,400050,Pali Hills,Union Park,894,"Allen Solly, Titan, Pierre Cardin"
Maharashtra,Mumbai Suburban,Area not under any Sub-district,Mumbai,Suburbs,400050,Khar West,Rizvi Complex area,1443,"Mexx, Van Heusen, Titan"
Maharashtra,Mumbai Suburban,Area not under any Sub-district,Mumbai,Suburbs,400050,Bandra West,D Monte Park,1452,"Allen Solly, Titan, Pierre Cardin"
Maharashtra,Mumbai Suburban,Area not under any Sub-district,Mumbai,Suburbs,400050,Bandra West,D Monte Park,1452,"Mexx, Van Heusen, Titan"
Maharashtra,Mumbai Suburban,Area not under any Sub-district,Mumbai,Suburbs,400050,Bandra West,ONGC Colony,608,"Being Human, Pierre Cardin, Mexx"
Maharashtra,Mumbai Suburban,Area not under any Sub-district,Mumbai,Suburbs,400053,Andheri West,"Phase D,   Shastri Nagar",656,"Blackberrys, Allen Solly, Titan"
Maharashtra,Mumbai Suburban,Area not under any Sub-district,Mumbai,Suburbs,400053,Andheri West,"Shitladevi   Chawl, D N Nagar",99,"Mexx, Van Heusen, Titan"
Maharashtra,Mumbai Suburban,Area not under any Sub-district,Mumbai,Suburbs,400053,Andheri West,"Shanti Nagar,   D N Nagar",570,"Allen Solly, Titan, Pierre Cardin"
Maharashtra,Mumbai Suburban,Area not under any Sub-district,Mumbai,Suburbs,400052,Khar West,Ambedkar Nagar,128,"Mexx, Van Heusen, Titan"
Maharashtra,Mumbai Suburban,Area not under any Sub-district,Mumbai,Suburbs,400050,Bandra West,Vaidya Nagar,112,"Allen Solly, Titan, Pierre Cardin"
Maharashtra,Mumbai Suburban,Area not under any Sub-district,Mumbai,Suburbs,400053,Andheri West,Mhada Colony,1177,"Blackberrys, Allen Solly, Titan"
Maharashtra,Mumbai Suburban,Area not under any Sub-district,Mumbai,Suburbs,400102,Jogeshwari West,Adarsh Nagar,1082,"Mexx, Van Heusen, Titan"
Maharashtra,Mumbai Suburban,Area not under any Sub-district,Mumbai,Suburbs,400053,Andheri West,D N Nagar,410,"Allen Solly, Titan, Pierre Cardin"
Maharashtra,Mumbai Suburban,Area not under any Sub-district,Mumbai,Suburbs,400052,Khar West,Pali Village,1325,"Pierre Cardin, Being Human "
Maharashtra,Mumbai Suburban,Area not under any Sub-district,Mumbai,Suburbs,400050,Bandra West,Bhabh Hospital area,1450,"Being Human, Pierre Cardin, Mexx"
Maharashtra,Mumbai Suburban,Area not under any Sub-district,Mumbai,Suburbs,400050,Bandra West,Ranwar,1285,"Mexx, Van Heusen, Titan"
Maharashtra,Mumbai Suburban,Area not under any Sub-district,Mumbai,Suburbs,400050,Bandra West,Santosh Nagar,993,"Being Human, Pierre Cardin, Mexx"
Maharashtra,Mumbai Suburban,Area not under any Sub-district,Mumbai,Suburbs,400050,Bandra West,Ranwar,1285,"Blackberrys, Allen Solly, Titan"
Maharashtra,Mumbai Suburban,Area not under any Sub-district,Mumbai,Suburbs,400050,Bandra West,ONGC Colony,608,"Pierre Cardin, Being Human "
Maharashtra,Mumbai Suburban,Area not under any Sub-district,Mumbai,Suburbs,400050,Bandra West,Bandra Talao,1446,"Mexx, Van Heusen, Titan"
Maharashtra,Mumbai Suburban,Area not under any Sub-district,Mumbai,Suburbs,400052,Khar West,Jaibharat   Society,784,"Being Human, Pierre Cardin, Mexx"
Maharashtra,Mumbai Suburban,Area not under any Sub-district,Mumbai,Suburbs,400061,Andheri West,"Joseph Patel   Wadi, Versova",1150,"Allen Solly, Titan, Pierre Cardin"
Maharashtra,Mumbai Suburban,Area not under any Sub-district,Mumbai,Suburbs,400061,Andheri West,"Joseph Patel   Wadi, Versova",1150,"Mexx, Van Heusen, Titan"
Maharashtra,Mumbai Suburban,Area not under any Sub-district,Mumbai,Suburbs,400053,Andheri West,Seven Bunglow,875,"Being Human, Pierre Cardin, Mexx"
Maharashtra,Mumbai Suburban,Area not under any Sub-district,Mumbai,Suburbs,400053,Juhu,Mora Gaon,1164,"Blackberrys, Allen Solly, Titan"
Maharashtra,Mumbai Suburban,Area not under any Sub-district,Mumbai,Suburbs,400050,Bandra West,Mount Mary,1392,"Being Human, Pierre Cardin, Mexx"
Maharashtra,Mumbai Suburban,Area not under any Sub-district,Mumbai,Suburbs,400050,Bandra West,Mount Mary,1392,"Being Human, Pierre Cardin, Mexx"
Maharashtra,Mumbai Suburban,Area not under any Sub-district,Mumbai,Suburbs,400053,Andheri West,Lokhandwala   Complex,1351,"Pierre Cardin, Being Human "
Maharashtra,Mumbai Suburban,Area not under any Sub-district,Mumbai,Suburbs,400053,Andheri West,Mudran Press   Colony,872,"Mexx, Van Heusen, Titan"
Maharashtra,Mumbai Suburban,Area not under any Sub-district,Mumbai,Suburbs,400053,Juhu,Mora Gaon,1164,"Allen Solly, Titan, Pierre Cardin"
Maharashtra,Mumbai Suburban,Area not under any Sub-district,Mumbai,Suburbs,400052,Pali Hills,Danda,309,"Mexx, Van Heusen, Titan"
Maharashtra,Mumbai Suburban,Area not under any Sub-district,Mumbai,Suburbs,400050,Pali Hills,Hanuman Nagar,749,"Allen Solly, Titan, Pierre Cardin"
Maharashtra,Mumbai Suburban,Area not under any Sub-district,Mumbai,Suburbs,400050,Pali Hills,"Railway Colony,   Shirley",169,"Mexx, Van Heusen, Titan"
Maharashtra,Mumbai Suburban,Area not under any Sub-district,Mumbai,Suburbs,400050,Bandra West,Mount Mary,1392,"Being Human, Pierre Cardin, Mexx"
Maharashtra,Mumbai Suburban,Area not under any Sub-district,Mumbai,Suburbs,400053,Andheri West,Lokhandwala   Complex,1351,"Blackberrys, Allen Solly, Titan"
Maharashtra,Mumbai Suburban,Area not under any Sub-district,Mumbai,Suburbs,400053,Andheri West,Yamuna Nagar,617,"Mexx, Van Heusen, Titan"
Maharashtra,Mumbai Suburban,Area not under any Sub-district,Mumbai,Suburbs,400053,Andheri West,Shastri Nagar,1057,"Allen Solly, Titan, Pierre Cardin"
Maharashtra,Mumbai Suburban,Area not under any Sub-district,Mumbai,Suburbs,400053,Andheri West,SV Patel Nagar,1427,"Mexx, Van Heusen, Titan"
Maharashtra,Mumbai Suburban,Area not under any Sub-district,Mumbai,Suburbs,400061,Andheri West,"Jeet Nagar,   Versova",1056,"Allen Solly, Titan, Pierre Cardin"
Maharashtra,Mumbai Suburban,Area not under any Sub-district,Mumbai,Suburbs,400053,Andheri West,"Aram Nagar,   Versova",1346,"Blackberrys, Allen Solly, Titan"
Maharashtra,Mumbai Suburban,Area not under any Sub-district,Mumbai,Suburbs,400061,Andheri West,"Joseph Patel   Wadi, Versova",1150,"Mexx, Van Heusen, Titan"
Maharashtra,Mumbai Suburban,Area not under any Sub-district,Mumbai,Suburbs,400053,Andheri West,"Aram Nagar,   Versova",1346,"Allen Solly, Titan, Pierre Cardin"
Maharashtra,Mumbai Suburban,Area not under any Sub-district,Mumbai,Suburbs,400053,Andheri West,Seven Bunglow,875,"Pierre Cardin, Being Human "
Maharashtra,Mumbai Suburban,Area not under any Sub-district,Mumbai,Suburbs,400053,Andheri West,Model Town,1084,"Being Human, Pierre Cardin, Mexx"
Maharashtra,Mumbai Suburban,Area not under any Sub-district,Mumbai,Suburbs,400050,Bandra West,Mount Mary,1392,"Mexx, Van Heusen, Titan"
Maharashtra,Mumbai Suburban,Area not under any Sub-district,Mumbai,Suburbs,400053,Andheri West,Mudran Press   Colony,872,"Being Human, Pierre Cardin, Mexx"
Maharashtra,Mumbai Suburban,Area not under any Sub-district,Mumbai,Suburbs,400053,Andheri West,"Ratan Nagar,   Four Bungalows",939,"Blackberrys, Allen Solly, Titan"
Maharashtra,Mumbai Suburban,Area not under any Sub-district,Mumbai,Suburbs,400053,Andheri West,"Bharat Nagar,   Versova",1162,"Pierre Cardin, Being Human "
Maharashtra,Mumbai Suburban,Area not under any Sub-district,Mumbai,Suburbs,400050,Pali Hills,Hanuman Nagar,749,"Mexx, Van Heusen, Titan"
Maharashtra,Mumbai Suburban,Area not under any Sub-district,Mumbai,Suburbs,400050,Pali Hills,Auxilium Convent,1466,"Being Human, Pierre Cardin, Mexx"
Maharashtra,Mumbai Suburban,Area not under any Sub-district,Mumbai,Suburbs,400050,Pali Hills,Auxilium Convent,1466,"Allen Solly, Titan, Pierre Cardin"
Maharashtra,Mumbai Suburban,Area not under any Sub-district,Mumbai,Suburbs,400050,Bandra West,Joggers Park,1447,"Mexx, Van Heusen, Titan"
Maharashtra,Mumbai Suburban,Area not under any Sub-district,Mumbai,Suburbs,400053,Andheri West,Model Town,1084,"Being Human, Pierre Cardin, Mexx"
Maharashtra,Mumbai Suburban,Area not under any Sub-district,Mumbai,Suburbs,400053,Andheri West,Industrial   Area,1183,"Blackberrys, Allen Solly, Titan"
Maharashtra,Mumbai Suburban,Area not under any Sub-district,Mumbai,Suburbs,400053,Andheri West,Bhudargarh Colony,1064,"Being Human, Pierre Cardin, Mexx"
Maharashtra,Mumbai Suburban,Area not under any Sub-district,Mumbai,Suburbs,400053,Andheri West,"Manish Nagar,   Four Bungalows",636,"Being Human, Pierre Cardin, Mexx"
Maharashtra,Mumbai Suburban,Area not under any Sub-district,Mumbai,Suburbs,400053,Andheri West,"Manish Nagar,   Four Bungalows",636,"Pierre Cardin, Being Human "
Maharashtra,Mumbai Suburban,Area not under any Sub-district,Mumbai,Suburbs,400050,Pali Hills,Union Park,894,"Mexx, Van Heusen, Titan"
Maharashtra,Mumbai Suburban,Area not under any Sub-district,Mumbai,Suburbs,400050,Pali Hills,Auxilium Convent,1466,"Allen Solly, Titan, Pierre Cardin"
Maharashtra,Mumbai Suburban,Area not under any Sub-district,Mumbai,Suburbs,400050,Bandra West,D Monte Park,1452,"Mexx, Van Heusen, Titan"
Maharashtra,Mumbai Suburban,Area not under any Sub-district,Mumbai,Suburbs,400050,Bandra West,D Monte Park,1452,"Allen Solly, Titan, Pierre Cardin"
Maharashtra,Mumbai Suburban,Area not under any Sub-district,Mumbai,Suburbs,400053,Andheri West,Milat Nagar,991,"Mexx, Van Heusen, Titan"
Maharashtra,Mumbai Suburban,Area not under any Sub-district,Mumbai,Suburbs,400053,Andheri West,Yamuna Nagar,617,"Being Human, Pierre Cardin, Mexx"
Maharashtra,Mumbai Suburban,Area not under any Sub-district,Mumbai,Suburbs,400053,Andheri West,Milat Nagar,991,"Blackberrys, Allen Solly, Titan"
Maharashtra,Mumbai Suburban,Area not under any Sub-district,Mumbai,Suburbs,400053,Andheri West,Highland Park,885,"Mexx, Van Heusen, Titan"
Maharashtra,Mumbai Suburban,Area not under any Sub-district,Mumbai,Suburbs,400053,Andheri West,Lokhandwala   Complex,1351,"Allen Solly, Titan, Pierre Cardin"
Maharashtra,Mumbai Suburban,Area not under any Sub-district,Mumbai,Suburbs,400053,Andheri West,"Manish Nagar,   Four Bungalows",636,"Mexx, Van Heusen, Titan"
Maharashtra,Mumbai Suburban,Area not under any Sub-district,Mumbai,Suburbs,400053,Andheri West,"Indira Nagar,   Four Bungalows",662,"Allen Solly, Titan, Pierre Cardin"
Maharashtra,Mumbai Suburban,Area not under any Sub-district,Mumbai,Suburbs,400053,Andheri West,"Shiv Nagar,   D N Nagar",119,"Blackberrys, Allen Solly, Titan"
Maharashtra,Mumbai Suburban,Area not under any Sub-district,Mumbai,Suburbs,400053,Andheri West,Mhada Colony,1177,"Mexx, Van Heusen, Titan"
Maharashtra,Mumbai Suburban,Area not under any Sub-district,Mumbai,Suburbs,400053,Andheri West,"Phase D,   Shastri Nagar",656,"Allen Solly, Titan, Pierre Cardin"
Maharashtra,Mumbai Suburban,Area not under any Sub-district,Mumbai,Suburbs,400053,Andheri West,"Shitladevi   Chawl, D N Nagar",99,"Pierre Cardin, Being Human "
Maharashtra,Mumbai Suburban,Area not under any Sub-district,Mumbai,Suburbs,400053,Andheri West,"Shiv Nagar,   D N Nagar",119,"Being Human, Pierre Cardin, Mexx"
Maharashtra,Mumbai Suburban,Area not under any Sub-district,Mumbai,Suburbs,400053,Andheri West,"ESIC Nagar,   D N Nagar",123,"Mexx, Van Heusen, Titan"
Maharashtra,Mumbai Suburban,Area not under any Sub-district,Mumbai,Suburbs,400050,Bandra West,Mithun Garden,1449,"Being Human, Pierre Cardin, Mexx"
Maharashtra,Mumbai Suburban,Area not under any Sub-district,Mumbai,Suburbs,400053,Andheri West,Anand Nagar,1019,"Blackberrys, Allen Solly, Titan"
Maharashtra,Mumbai Suburban,Area not under any Sub-district,Mumbai,Suburbs,400102,Jogeshwari West,Adarsh Nagar,1082,"Pierre Cardin, Being Human "
Maharashtra,Mumbai Suburban,Area not under any Sub-district,Mumbai,Suburbs,400053,Andheri West,"Aram Nagar,   Versova",1346,"Mexx, Van Heusen, Titan"
Maharashtra,Mumbai Suburban,Area not under any Sub-district,Mumbai,Suburbs,400050,Pali Hills,Chuim,306,"Being Human, Pierre Cardin, Mexx"
Maharashtra,Mumbai Suburban,Area not under any Sub-district,Mumbai,Suburbs,400050,Khar West,Carter Road,1445,"Allen Solly, Titan, Pierre Cardin"
Maharashtra,Mumbai Suburban,Area not under any Sub-district,Mumbai,Suburbs,400050,Khar West,Chimbai village,1451,"Mexx, Van Heusen, Titan"
Maharashtra,Mumbai Suburban,Area not under any Sub-district,Mumbai,Suburbs,400050,Khar West,Chimbai village,1451,"Being Human, Pierre Cardin, Mexx"
Maharashtra,Mumbai Suburban,Area not under any Sub-district,Mumbai,Suburbs,400050,Bandra West,Mount Mary,1392,"Blackberrys, Allen Solly, Titan"
Maharashtra,Mumbai Suburban,Area not under any Sub-district,Mumbai,Suburbs,400053,Andheri West,Milat Nagar,991,"Being Human, Pierre Cardin, Mexx"
Maharashtra,Mumbai Suburban,Area not under any Sub-district,Mumbai,Suburbs,400053,Andheri West,Milat Nagar,991,"Being Human, Pierre Cardin, Mexx"
Maharashtra,Mumbai Suburban,Area not under any Sub-district,Mumbai,Suburbs,400053,Andheri West,Lokhandwala   Complex,1351,"Pierre Cardin, Being Human "
Maharashtra,Mumbai Suburban,Area not under any Sub-district,Mumbai,Suburbs,400053,Andheri West,Four Bungalows,449,"Mexx, Van Heusen, Titan"
Maharashtra,Mumbai Suburban,Area not under any Sub-district,Mumbai,Suburbs,400050,Bandra West,Ranwar,1285,"Allen Solly, Titan, Pierre Cardin"
Maharashtra,Mumbai Suburban,Area not under any Sub-district,Mumbai,Suburbs,400053,Andheri West,"Aram Nagar,   Versova",1346,"Mexx, Van Heusen, Titan"
Maharashtra,Mumbai Suburban,Area not under any Sub-district,Mumbai,Suburbs,400053,Andheri West,"Aram Nagar,   Versova",1346,"Allen Solly, Titan, Pierre Cardin"
Maharashtra,Mumbai Suburban,Area not under any Sub-district,Mumbai,Suburbs,400053,Andheri West,SV Patel Nagar,1427,"Mexx, Van Heusen, Titan"
Maharashtra,Mumbai Suburban,Area not under any Sub-district,Mumbai,Suburbs,400050,Bandra West,Mount Mary,1392,"Being Human, Pierre Cardin, Mexx"
Maharashtra,Mumbai Suburban,Area not under any Sub-district,Mumbai,Suburbs,400050,Bandra West,Joggers Park,1447,"Blackberrys, Allen Solly, Titan"
Maharashtra,Mumbai Suburban,Area not under any Sub-district,Mumbai,Suburbs,400053,Andheri West,SV Patel Nagar,1427,"Mexx, Van Heusen, Titan"
Maharashtra,Mumbai Suburban,Area not under any Sub-district,Mumbai,Suburbs,400053,Andheri West,SV Patel Nagar,1427,"Allen Solly, Titan, Pierre Cardin"
Maharashtra,Mumbai Suburban,Area not under any Sub-district,Mumbai,Suburbs,400053,Andheri West,"Bharat Nagar,   Versova",1162,"Mexx, Van Heusen, Titan"
Maharashtra,Mumbai Suburban,Area not under any Sub-district,Mumbai,Suburbs,400053,Andheri West,"Bharat Nagar,   Versova",1162,"Allen Solly, Titan, Pierre Cardin"
Maharashtra,Mumbai Suburban,Area not under any Sub-district,Mumbai,Suburbs,400050,Pali Hills,Shirley,431,"Blackberrys, Allen Solly, Titan"
Maharashtra,Mumbai Suburban,Area not under any Sub-district,Mumbai,Suburbs,400050,Bandra West,Joggers Park,1447,"Mexx, Van Heusen, Titan"
Maharashtra,Mumbai Suburban,Area not under any Sub-district,Mumbai,Suburbs,400053,Andheri West,"Aram Nagar,   Versova",1346,"Allen Solly, Titan, Pierre Cardin"
Maharashtra,Mumbai Suburban,Area not under any Sub-district,Mumbai,Suburbs,400053,Andheri West,Model Town,1084,"Pierre Cardin, Being Human "
Maharashtra,Mumbai Suburban,Area not under any Sub-district,Mumbai,Suburbs,400053,Andheri West,"Bharat Nagar,   Versova",1162,"Being Human, Pierre Cardin, Mexx"
Maharashtra,Mumbai Suburban,Area not under any Sub-district,Mumbai,Suburbs,400053,Andheri West,Model Town,1084,"Mexx, Van Heusen, Titan"
Maharashtra,Mumbai Suburban,Area not under any Sub-district,Mumbai,Suburbs,400053,Andheri West,"Ratan Nagar,   Four Bungalows",939,"Being Human, Pierre Cardin, Mexx"
Maharashtra,Mumbai Suburban,Area not under any Sub-district,Mumbai,Suburbs,400049,Juhu,Mora Gaon,1164,"Blackberrys, Allen Solly, Titan"
Maharashtra,Mumbai Suburban,Area not under any Sub-district,Mumbai,Suburbs,400050,Pali Hills,Union Park,894,"Pierre Cardin, Being Human "
Maharashtra,Mumbai Suburban,Area not under any Sub-district,Mumbai,Suburbs,400050,Bandra West,Mount Mary,1392,"Mexx, Van Heusen, Titan"
Maharashtra,Mumbai Suburban,Area not under any Sub-district,Mumbai,Suburbs,400053,Andheri West,"Ratan Nagar,   Four Bungalows",939,"Being Human, Pierre Cardin, Mexx"
Maharashtra,Mumbai Suburban,Area not under any Sub-district,Mumbai,Suburbs,400053,Andheri West,"Bharat Nagar,   Versova",1162,"Allen Solly, Titan, Pierre Cardin"
Maharashtra,Mumbai Suburban,Area not under any Sub-district,Mumbai,Suburbs,400052,Pali Hills,Danda,309,"Mexx, Van Heusen, Titan"
Maharashtra,Mumbai Suburban,Area not under any Sub-district,Mumbai,Suburbs,400050,Pali Hills,Union Park,894,"Being Human, Pierre Cardin, Mexx"
Maharashtra,Mumbai Suburban,Area not under any Sub-district,Mumbai,Suburbs,400053,Andheri West,SV Patel Nagar,1427,"Blackberrys, Allen Solly, Titan"
Maharashtra,Mumbai Suburban,Area not under any Sub-district,Mumbai,Suburbs,400053,Andheri West,SV Patel Nagar,1427,"Being Human, Pierre Cardin, Mexx"
Maharashtra,Mumbai Suburban,Area not under any Sub-district,Mumbai,Suburbs,400053,Andheri West,Mudran Press   Colony,872,"Being Human, Pierre Cardin, Mexx"
Maharashtra,Mumbai Suburban,Area not under any Sub-district,Mumbai,Suburbs,400052,Old Khar West,Koliwada,743,"Pierre Cardin, Being Human "
Maharashtra,Mumbai Suburban,Area not under any Sub-district,Mumbai,Suburbs,400050,Pali Hills,Union Park,894,"Mexx, Van Heusen, Titan"
Maharashtra,Mumbai Suburban,Area not under any Sub-district,Mumbai,Suburbs,400050,Bandra West,Ranwar,1285,"Allen Solly, Titan, Pierre Cardin"
Maharashtra,Mumbai Suburban,Area not under any Sub-district,Mumbai,Suburbs,400053,Andheri West,SV Patel Nagar,1427,"Mexx, Van Heusen, Titan"
Maharashtra,Mumbai Suburban,Area not under any Sub-district,Mumbai,Suburbs,400053,Andheri West,"Aram Nagar,   Versova",1346,"Allen Solly, Titan, Pierre Cardin"
Maharashtra,Mumbai Suburban,Area not under any Sub-district,Mumbai,Suburbs,400053,Andheri West,Lokhandwala   Complex,1351,"Mexx, Van Heusen, Titan"
Maharashtra,Mumbai Suburban,Area not under any Sub-district,Mumbai,Suburbs,400053,Andheri West,Lokhandwala   Complex,1351,"Being Human, Pierre Cardin, Mexx"
Maharashtra,Mumbai Suburban,Area not under any Sub-district,Mumbai,Suburbs,400053,Andheri West,"Ratan Nagar,   Four Bungalows",939,"Blackberrys, Allen Solly, Titan"
Maharashtra,Mumbai Suburban,Area not under any Sub-district,Mumbai,Suburbs,400053,Andheri West,"Bharat Nagar,   Versova",1162,"Mexx, Van Heusen, Titan"
Maharashtra,Mumbai Suburban,Area not under any Sub-district,Mumbai,Suburbs,400049,Juhu,Mora Gaon,1164,"Allen Solly, Titan, Pierre Cardin"
Maharashtra,Mumbai Suburban,Area not under any Sub-district,Mumbai,Suburbs,400053,Andheri West,Lokhandwala   Complex,1351,"Mexx, Van Heusen, Titan"
Maharashtra,Mumbai Suburban,Area not under any Sub-district,Mumbai,Suburbs,400053,Andheri West,Lokhandwala   Complex,1351,"Allen Solly, Titan, Pierre Cardin"
Maharashtra,Mumbai Suburban,Area not under any Sub-district,Mumbai,Suburbs,400053,Andheri West,Lokhandwala   Complex,1351,"Blackberrys, Allen Solly, Titan"
Maharashtra,Mumbai Suburban,Area not under any Sub-district,Mumbai,Suburbs,400053,Andheri West,"Ratan Nagar,   Four Bungalows",939,"Mexx, Van Heusen, Titan"
Maharashtra,Mumbai Suburban,Area not under any Sub-district,Mumbai,Suburbs,400052,Old Khar West,Danda Village,679,"Allen Solly, Titan, Pierre Cardin"
Maharashtra,Mumbai Suburban,Area not under any Sub-district,Mumbai,Suburbs,400050,Pali Hills,Hanuman Nagar,749,"Pierre Cardin, Being Human "
Maharashtra,Mumbai Suburban,Area not under any Sub-district,Mumbai,Suburbs,400050,Pali Hills,Shirley,431,"Being Human, Pierre Cardin, Mexx"
Maharashtra,Mumbai Suburban,Area not under any Sub-district,Mumbai,Suburbs,400050,Bandra West,Mount Mary,1392,"Mexx, Van Heusen, Titan"
Maharashtra,Mumbai Suburban,Area not under any Sub-district,Mumbai,Suburbs,400053,Andheri West,Lokhandwala   Complex,1351,"Being Human, Pierre Cardin, Mexx"
Maharashtra,Mumbai Suburban,Area not under any Sub-district,Mumbai,Suburbs,400050,Khar West,Rizvi Complex area,1443,"Being Human, Pierre Cardin, Mexx"
Maharashtra,Mumbai Suburban,Area not under any Sub-district,Mumbai,Suburbs,400053,Andheri West,Four Bungalows,449,"Allen Solly, Titan, Pierre Cardin"
Maharashtra,Mumbai Suburban,Area not under any Sub-district,Mumbai,Suburbs,400050,Khar West,Rizvi Complex area,1443,"Mexx, Van Heusen, Titan"
Maharashtra,Mumbai Suburban,Area not under any Sub-district,Mumbai,Suburbs,400053,Andheri West,Shastri Nagar,1057,"Being Human, Pierre Cardin, Mexx"
Maharashtra,Mumbai Suburban,Area not under any Sub-district,Mumbai,Suburbs,400053,Andheri West,"ESIC Nagar,   D N Nagar",123,"Blackberrys, Allen Solly, Titan"
Maharashtra,Mumbai Suburban,Area not under any Sub-district,Mumbai,Suburbs,400053,Andheri West,Four Bungalows,449,"Mexx, Van Heusen, Titan"
Maharashtra,Mumbai Suburban,Area not under any Sub-district,Mumbai,Suburbs,400050,Pali Hills,Auxilium Convent,1466,"Allen Solly, Titan, Pierre Cardin"
Maharashtra,Mumbai Suburban,Area not under any Sub-district,Mumbai,Suburbs,400050,Pali Hills,Auxilium Convent,1466,"Mexx, Van Heusen, Titan"
Maharashtra,Mumbai Suburban,Area not under any Sub-district,Mumbai,Suburbs,400050,Bandra West,Mount Mary,1392,"Allen Solly, Titan, Pierre Cardin"
Maharashtra,Mumbai Suburban,Area not under any Sub-district,Mumbai,Suburbs,400050,Bandra West,ONGC Colony,608,"Blackberrys, Allen Solly, Titan"
Maharashtra,Mumbai Suburban,Area not under any Sub-district,Mumbai,Suburbs,400102,Jogeshwari West,Adarsh Nagar,1082,"Mexx, Van Heusen, Titan"
Maharashtra,Mumbai Suburban,Area not under any Sub-district,Mumbai,Suburbs,400053,Andheri West,Mhada Colony,1177,"Allen Solly, Titan, Pierre Cardin"
Maharashtra,Mumbai Suburban,Area not under any Sub-district,Mumbai,Suburbs,400053,Andheri West,"Shanti Nagar,   D N Nagar",570,"Pierre Cardin, Being Human "
Maharashtra,Mumbai Suburban,Area not under any Sub-district,Mumbai,Suburbs,400050,Khar West,Rizvi Complex area,1443,"Being Human, Pierre Cardin, Mexx"
Maharashtra,Mumbai Suburban,Area not under any Sub-district,Mumbai,Suburbs,400050,Bandra West,D Monte Park,1452,"Mexx, Van Heusen, Titan"
Maharashtra,Mumbai Suburban,Area not under any Sub-district,Mumbai,Suburbs,400050,Bandra West,Vaidya Nagar,112,"Being Human, Pierre Cardin, Mexx"
Maharashtra,Mumbai Suburban,Area not under any Sub-district,Mumbai,Suburbs,400050,Bandra West,Ranwar,1285,"Being Human, Pierre Cardin, Mexx"
Maharashtra,Mumbai Suburban,Area not under any Sub-district,Mumbai,Suburbs,400053,Andheri West,Anand Nagar,1019,"Mexx, Van Heusen, Titan"
Maharashtra,Mumbai Suburban,Area not under any Sub-district,Mumbai,Suburbs,400053,Andheri West,Shastri Nagar,1057,"Allen Solly, Titan, Pierre Cardin"
Maharashtra,Mumbai Suburban,Area not under any Sub-district,Mumbai,Suburbs,400050,Bandra West,Ranwar,1285,"Mexx, Van Heusen, Titan"
Maharashtra,Mumbai Suburban,Area not under any Sub-district,Mumbai,Suburbs,400050,Bandra West,Mount Mary,1392,"Allen Solly, Titan, Pierre Cardin"
Maharashtra,Mumbai Suburban,Area not under any Sub-district,Mumbai,Suburbs,400053,Andheri West,Highland Park,885,"Mexx, Van Heusen, Titan"
Maharashtra,Mumbai Suburban,Area not under any Sub-district,Mumbai,Suburbs,400053,Andheri West,Highland Park,885,"Being Human, Pierre Cardin, Mexx"
Maharashtra,Mumbai Suburban,Area not under any Sub-district,Mumbai,Suburbs,400053,Andheri West,Shastri Nagar,1057,"Blackberrys, Allen Solly, Titan"
Maharashtra,Mumbai Suburban,Area not under any Sub-district,Mumbai,Suburbs,400053,Andheri West,"Madhuban Colony,   D N Nagar",257,"Mexx, Van Heusen, Titan"
Maharashtra,Mumbai Suburban,Area not under any Sub-district,Mumbai,Suburbs,400053,Andheri West,"New LIC Colony,   D N Nagar",43,"Allen Solly, Titan, Pierre Cardin"
Maharashtra,Mumbai Suburban,Area not under any Sub-district,Mumbai,Suburbs,400052,Khar West,Pali Village,1325,"Mexx, Van Heusen, Titan"
Maharashtra,Mumbai Suburban,Area not under any Sub-district,Mumbai,Suburbs,400050,Bandra West,Ranwar,1285,"Allen Solly, Titan, Pierre Cardin"
Maharashtra,Mumbai Suburban,Area not under any Sub-district,Mumbai,Suburbs,400050,Bandra West,Almeida Park,1448,"Blackberrys, Allen Solly, Titan"
Maharashtra,Mumbai Suburban,Area not under any Sub-district,Mumbai,Suburbs,400053,Andheri West,Anand Nagar,1019,"Mexx, Van Heusen, Titan"
Maharashtra,Mumbai Suburban,Area not under any Sub-district,Mumbai,Suburbs,400053,Andheri West,"Phase D,   Shastri Nagar",656,"Allen Solly, Titan, Pierre Cardin"
Maharashtra,Mumbai Suburban,Area not under any Sub-district,Mumbai,Suburbs,400058,Andheri West,"Sahakar Nagar,   Azad Nagar",181,"Pierre Cardin, Being Human "
Maharashtra,Mumbai Suburban,Area not under any Sub-district,Mumbai,Suburbs,400050,Bandra West,Vaidya Nagar,112,"Being Human, Pierre Cardin, Mexx"
Maharashtra,Mumbai Suburban,Area not under any Sub-district,Mumbai,Suburbs,400050,Bandra West,Santosh Nagar,993,"Mexx, Van Heusen, Titan"
Maharashtra,Mumbai Suburban,Area not under any Sub-district,Mumbai,Suburbs,400102,Jogeshwari West,Shastri Nagar,1112,"Being Human, Pierre Cardin, Mexx"
Maharashtra,Mumbai Suburban,Area not under any Sub-district,Mumbai,Suburbs,400050,Pali Hills,Shirley,431,"Being Human, Pierre Cardin, Mexx"
Maharashtra,Mumbai Suburban,Area not under any Sub-district,Mumbai,Suburbs,400050,Bandra West,Ranwar,1285,"Allen Solly, Titan, Pierre Cardin"
Maharashtra,Mumbai Suburban,Area not under any Sub-district,Mumbai,Suburbs,400053,Andheri West,Mhada Colony,1177,"Mexx, Van Heusen, Titan"
Maharashtra,Mumbai Suburban,Area not under any Sub-district,Mumbai,Suburbs,400053,Andheri West,Industrial   Area,1183,"Being Human, Pierre Cardin, Mexx"
Maharashtra,Mumbai Suburban,Area not under any Sub-district,Mumbai,Suburbs,400053,Andheri West,"Madhuban Colony,   D N Nagar",257,"Blackberrys, Allen Solly, Titan"
Maharashtra,Mumbai Suburban,Area not under any Sub-district,Mumbai,Suburbs,400050,Pali Hills,Auxilium Convent,1466,"Mexx, Van Heusen, Titan"
Maharashtra,Mumbai Suburban,Area not under any Sub-district,Mumbai,Suburbs,400050,Bandra West,D Monte Park,1452,"Allen Solly, Titan, Pierre Cardin"
Maharashtra,Mumbai Suburban,Area not under any Sub-district,Mumbai,Suburbs,400053,Andheri West,Mhada Colony,1177,"Mexx, Van Heusen, Titan"
Maharashtra,Mumbai Suburban,Area not under any Sub-district,Mumbai,Suburbs,400053,Andheri West,"Jeevan Nagar,   Azad Nagar",244,"Allen Solly, Titan, Pierre Cardin"
Maharashtra,Mumbai Suburban,Area not under any Sub-district,Mumbai,Suburbs,400058,Andheri West,"Sahakar Nagar,   Azad Nagar",181,"Blackberrys, Allen Solly, Titan"
Maharashtra,Mumbai Suburban,Area not under any Sub-district,Mumbai,Suburbs,400053,Andheri West,"Shanti Nagar,   D N Nagar",570,"Mexx, Van Heusen, Titan"
Maharashtra,Mumbai Suburban,Area not under any Sub-district,Mumbai,Suburbs,400053,Andheri West,"Shitladevi   Chawl, D N Nagar",99,"Allen Solly, Titan, Pierre Cardin"
Maharashtra,Mumbai Suburban,Area not under any Sub-district,Mumbai,Suburbs,400050,Bandra West,Almeida Park,1448,"Pierre Cardin, Being Human "
Maharashtra,Mumbai Suburban,Area not under any Sub-district,Mumbai,Suburbs,400050,Bandra West,Mithun Garden,1449,"Being Human, Pierre Cardin, Mexx"
Maharashtra,Mumbai Suburban,Area not under any Sub-district,Mumbai,Suburbs,400050,Bandra West,Almeida Park,1448,"Mexx, Van Heusen, Titan"
Maharashtra,Mumbai Suburban,Area not under any Sub-district,Mumbai,Suburbs,400053,Andheri West,Veer Desai   Industrial Estate,1281,"Being Human, Pierre Cardin, Mexx"
Maharashtra,Mumbai Suburban,Area not under any Sub-district,Mumbai,Suburbs,400053,Andheri West,"Mhada Colony,   Azad Nagar",287,"Being Human, Pierre Cardin, Mexx"
Maharashtra,Mumbai Suburban,Area not under any Sub-district,Mumbai,Suburbs,400050,Bandra West,Mithun Garden,1449,"Mexx, Van Heusen, Titan"
Maharashtra,Mumbai Suburban,Area not under any Sub-district,Mumbai,Suburbs,400050,Bandra West,Bandra Talao,1446,"Allen Solly, Titan, Pierre Cardin"
Maharashtra,Mumbai Suburban,Area not under any Sub-district,Mumbai,Suburbs,400050,Bandra West,Bhabh Hospital area,1450,"Mexx, Van Heusen, Titan"
Maharashtra,Mumbai Suburban,Area not under any Sub-district,Mumbai,Suburbs,400050,Bandra West,Reclamation,1077,"Allen Solly, Titan, Pierre Cardin"
Maharashtra,Mumbai Suburban,Area not under any Sub-district,Mumbai,Suburbs,400053,Andheri West,Veer Desai   Industrial Estate,1281,"Mexx, Van Heusen, Titan"
Maharashtra,Mumbai Suburban,Area not under any Sub-district,Mumbai,Suburbs,400053,Andheri West,"Mhada Colony,   Azad Nagar",287,"Being Human, Pierre Cardin, Mexx"
Maharashtra,Mumbai Suburban,Area not under any Sub-district,Mumbai,Suburbs,400050,Bandra West,Patkar Blocks,254,"Blackberrys, Allen Solly, Titan"
Maharashtra,Mumbai Suburban,Area not under any Sub-district,Mumbai,Suburbs,400050,Bandra West,Santosh Nagar,993,"Mexx, Van Heusen, Titan"
Maharashtra,Mumbai Suburban,Area not under any Sub-district,Mumbai,Suburbs,400050,Bandra West,Patkar Blocks,254,"Allen Solly, Titan, Pierre Cardin"
Maharashtra,Mumbai Suburban,Area not under any Sub-district,Mumbai,Suburbs,400050,Bandra West,Bandra rAILWAY STATION,1468,"Mexx, Van Heusen, Titan"
Maharashtra,Mumbai Suburban,Area not under any Sub-district,Mumbai,Suburbs,400053,Andheri West,Veer Desai   Industrial Estate,1281,"Allen Solly, Titan, Pierre Cardin"
Maharashtra,Mumbai Suburban,Area not under any Sub-district,Mumbai,Suburbs,400058,Andheri West,Azad Nagar,863,"Blackberrys, Allen Solly, Titan"
Maharashtra,Mumbai Suburban,Area not under any Sub-district,Mumbai,Suburbs,400052,Khar West,Pali Village,1325,"Mexx, Van Heusen, Titan"
Maharashtra,Mumbai Suburban,Area not under any Sub-district,Mumbai,Suburbs,400058,Jogeshwari West,Prathmesh   Complex,1139,"Allen Solly, Titan, Pierre Cardin"
Maharashtra,Mumbai Suburban,Area not under any Sub-district,Mumbai,Suburbs,400050,Bandra West,Santosh Nagar,993,"Pierre Cardin, Being Human "
Maharashtra,Mumbai Suburban,Area not under any Sub-district,Mumbai,Suburbs,400050,Bandra West,Bandra rAILWAY STATION,1468,"Being Human, Pierre Cardin, Mexx"