State,District,Subdistrict,City,City_Regiotype,Pincode,Locality,Sublocality,Sublocality_ID,Building_Type
Gujarat,Ahmadabad,Ahmadabad City,Ahmadabad,Suburbs,380054,Vikram Nagar,Vikram Nagar,430,Villas
Gujarat,Ahmadabad,Ahmadabad City,Ahmadabad,Second City,380054,Thaltej,Hebatpur Village,79,More then 5 years old
Gujarat,Ahmadabad,Ahmadabad City,Ahmadabad,Suburbs,380054,Ashok Vatika,Ashok Vatika,287,More then 5 years old
Gujarat,Ahmadabad,Ahmadabad City,Ahmadabad,Second City,380054,Ashok Vatika,Ashok Vatika,287,Apartment
Gujarat,Ahmadabad,Ahmadabad City,Ahmadabad,Second City,380054,Bodakdev,Bodakdev,293,Less than 5 years old
Gujarat,Ahmadabad,Ahmadabad City,Ahmadabad,Second City,380054,Thaltej,Shangrila,233,Villas
Gujarat,Ahmadabad,Ahmadabad City,Ahmadabad,Second City,380054,Thaltej,Panchamrut Bunglows II,155,Govt Constructed
Gujarat,Ahmadabad,Ahmadabad City,Ahmadabad,Suburbs,380054,Bodakdev,Bodakdev,293,Less than 5 years old
Gujarat,Ahmadabad,Ahmadabad City,Ahmadabad,Second City,380054,Thaltej,Shangrila,233,Govt Constructed
Gujarat,Ahmadabad,Ahmadabad City,Ahmadabad,Suburbs,380054,Gurukul,Sunrise Park,254,Less than 5 years old
Gujarat,Ahmadabad,Ahmadabad City,Ahmadabad,Second City,380054,Thaltej,PRL Colony,185,More then 5 years old
Gujarat,Ahmadabad,Ahmadabad City,Ahmadabad,Second City,380054,Thaltej,Jai Ambe Nagar,93,Less than 5 years old
Gujarat,Ahmadabad,Ahmadabad City,Ahmadabad,Suburbs,380054,Bodakdev,Bodakdev,293,Private Constructed
Gujarat,Ahmadabad,Ahmadabad City,Ahmadabad,Second City,380054,Thaltej,PRL Colony,185,Private Constructed
Gujarat,Ahmadabad,Ahmadabad City,Ahmadabad,Suburbs,380054,Vikram Nagar,Vikram Nagar,430,Govt Constructed
Gujarat,Ahmadabad,Ahmadabad City,Ahmadabad,Second City,380054,Bodakdev,Bodakdev,293,Apartment
Gujarat,Ahmadabad,Ahmadabad City,Ahmadabad,Second City,380054,Thaltej,Shangrila,233,Less than 5 years old
Gujarat,Ahmadabad,Ahmadabad City,Ahmadabad,Second City,380059,Thaltej,Shangrila,233,Villas
Gujarat,Ahmadabad,Ahmadabad City,Ahmadabad,Second City,380054,Thaltej,PRL Colony,185,Villas
Gujarat,Ahmadabad,Ahmadabad City,Ahmadabad,Second City,380054,Thaltej,PRL Colony,185,More then 5 years old
Gujarat,Ahmadabad,Ahmadabad City,Ahmadabad,Second City,380054,Thaltej,PRL Colony,185,More then 5 years old
Gujarat,Ahmadabad,Ahmadabad City,Ahmadabad,Second City,380054,Thaltej,Panchamrut Bunglows II,155,Govt Constructed
Gujarat,Ahmadabad,Ahmadabad City,Ahmadabad,Suburbs,380054,Bodakdev,Bodakdev,293,Private Constructed
Gujarat,Ahmadabad,Ahmadabad City,Ahmadabad,Second City,380054,Thaltej,PRL Colony,185,Apartment
Gujarat,Ahmadabad,Ahmadabad City,Ahmadabad,Second City,380054,Bodakdev,Bodakdev,293,Villas
Gujarat,Ahmadabad,Ahmadabad City,Ahmadabad,Second City,380054,Thaltej,Shangrila,233,Apartment
Gujarat,Ahmadabad,Ahmadabad City,Ahmadabad,Second City,380054,Mem Nagar,Nilmani Society,147,Villas
Gujarat,Ahmadabad,Ahmadabad City,Ahmadabad,Second City,380054,Thaltej,Shangrila,233,Apartment
Gujarat,Ahmadabad,Ahmadabad City,Ahmadabad,Second City,380054,Thaltej,Shangrila,233,Private Constructed
Gujarat,Ahmadabad,Ahmadabad City,Ahmadabad,Second City,380054,Thaltej,PRL Colony,185,Apartment
Gujarat,Ahmadabad,Ahmadabad City,Ahmadabad,Second City,380054,Thaltej,Bhaikakanagar,19,Less than 5 years old
Gujarat,Ahmadabad,Ahmadabad City,Ahmadabad,Second City,380054,Mem Nagar,Sarathi Co-operative Housing Society,213,More then 5 years old
Gujarat,Ahmadabad,Ahmadabad City,Ahmadabad,Second City,380054,Thaltej,Someshwar Park III,245,More then 5 years old
Gujarat,Ahmadabad,Ahmadabad City,Ahmadabad,Suburbs,380054,Satellite,Premchand Nagar,182,Villas
Gujarat,Ahmadabad,Ahmadabad City,Ahmadabad,Second City,380054,Thaltej,Shangrila,233,Villas
Gujarat,Ahmadabad,Ahmadabad City,Ahmadabad,Second City,380054,Thaltej,Shangrila,233,Private Constructed
Gujarat,Ahmadabad,Ahmadabad City,Ahmadabad,Second City,380054,Thaltej,Shangrila,233,More then 5 years old
Gujarat,Ahmadabad,Ahmadabad City,Ahmadabad,Suburbs,380054,Vikram Nagar,Vikram Nagar,430,Less than 5 years old
Gujarat,Ahmadabad,Ahmadabad City,Ahmadabad,Suburbs,380054,Bodakdev,Bodakdev,293,Apartment
Gujarat,Ahmadabad,Ahmadabad City,Ahmadabad,Suburbs,380054,Mem Nagar,Mem Nagar,348,Govt Constructed
Gujarat,Ahmadabad,Ahmadabad City,Ahmadabad,Second City,380054,Bodakdev,Bodakdev,293,Apartment
Gujarat,Ahmadabad,Ahmadabad City,Ahmadabad,Second City,380054,Thaltej,PRL Colony,185,Apartment
Gujarat,Ahmadabad,Ahmadabad City,Ahmadabad,Second City,380054,Bodakdev,Sumeru,251,Govt Constructed
Gujarat,Ahmadabad,Ahmadabad City,Ahmadabad,Second City,380058,Thaltej,PRL Colony,185,Villas
Gujarat,Ahmadabad,Ahmadabad City,Ahmadabad,Second City,380054,Thaltej,PRL Colony,185,More then 5 years old
Gujarat,Ahmadabad,Ahmadabad City,Ahmadabad,Second City,380054,Thaltej,Shangrila,233,Villas
Gujarat,Ahmadabad,Ahmadabad City,Ahmadabad,Second City,380054,Bodakdev,Sumeru,251,Private Constructed
Gujarat,Ahmadabad,Ahmadabad City,Ahmadabad,Second City,380054,Thaltej,Hebatpur Village,79,Apartment
Gujarat,Ahmadabad,Ahmadabad City,Ahmadabad,Second City,380054,Gurukul,Sunrise Park,254,Less than 5 years old
Gujarat,Ahmadabad,Ahmadabad City,Ahmadabad,Second City,380054,Bodakdev,Bodakdev,293,Govt Constructed
Gujarat,Ahmadabad,Ahmadabad City,Ahmadabad,Second City,380054,Bodakdev,Bodakdev,293,Apartment
Gujarat,Ahmadabad,Ahmadabad City,Ahmadabad,Second City,380054,Thaltej,PRL Colony,185,More then 5 years old
Gujarat,Ahmadabad,Ahmadabad City,Ahmadabad,Suburbs,380054,Thaltej,Someshwar Park III,245,Less than 5 years old
Gujarat,Ahmadabad,Ahmadabad City,Ahmadabad,Suburbs,380054,Thaltej,Nirant Park Society Part 1,148,Private Constructed
Gujarat,Ahmadabad,Ahmadabad City,Ahmadabad,Second City,380054,Gurukul,Sunrise Park,254,More then 5 years old
Gujarat,Ahmadabad,Ahmadabad City,Ahmadabad,Suburbs,380054,Mem Nagar,Mem Nagar,348,Villas
Gujarat,Ahmadabad,Ahmadabad City,Ahmadabad,Suburbs,380051,Bodakdev,Bodakdev,293,Govt Constructed
Gujarat,Ahmadabad,Ahmadabad City,Ahmadabad,Second City,380054,Thaltej,Jai Ambe Nagar,93,Private Constructed
Gujarat,Ahmadabad,Ahmadabad City,Ahmadabad,Second City,380054,Thaltej,Shangrila,233,Private Constructed
Gujarat,Ahmadabad,Ahmadabad City,Ahmadabad,Second City,380054,Thaltej,Someshwar Park III,245,Less than 5 years old
Gujarat,Ahmadabad,Ahmadabad City,Ahmadabad,Second City,380054,Bodakdev,Bodakdev,293,Less than 5 years old
Gujarat,Ahmadabad,Ahmadabad City,Ahmadabad,Suburbs,380054,Thaltej,Nirant Park Society Part 2,149,Govt Constructed
Gujarat,Ahmadabad,Ahmadabad City,Ahmadabad,Second City,380054,Bodakdev,Sumeru,251,Apartment
Gujarat,Ahmadabad,Ahmadabad City,Ahmadabad,Second City,380054,Thaltej,PRL Colony,185,More then 5 years old
Gujarat,Ahmadabad,Ahmadabad City,Ahmadabad,Suburbs,380054,Ghatlodia,Shenbhai Nagar,239,Villas
Gujarat,Ahmadabad,Ahmadabad City,Ahmadabad,Second City,380054,Thaltej,Shangrila,233,Less than 5 years old
Gujarat,Ahmadabad,Ahmadabad City,Ahmadabad,Suburbs,380054,Bodakdev,Bodakdev,293,Less than 5 years old
Gujarat,Ahmadabad,Ahmadabad City,Ahmadabad,Suburbs,380054,Gurukul,Sunrise Park,254,Less than 5 years old
Gujarat,Ahmadabad,Ahmadabad City,Ahmadabad,Suburbs,380054,Mem Nagar,Nilmani Society,147,Apartment
Gujarat,Ahmadabad,Ahmadabad City,Ahmadabad,Suburbs,380054,Bodakdev,Bodakdev,293,Govt Constructed
Gujarat,Ahmadabad,Ahmadabad City,Ahmadabad,Second City,380054,Thaltej,Panchamrut Bunglows II,155,Less than 5 years old
Gujarat,Ahmadabad,Ahmadabad City,Ahmadabad,Second City,380054,Thaltej,PRL Colony,185,Less than 5 years old
Gujarat,Ahmadabad,Ahmadabad City,Ahmadabad,Second City,380054,Thaltej,Shangrila,233,Less than 5 years old
Gujarat,Ahmadabad,Ahmadabad City,Ahmadabad,Suburbs,380054,Vikram Nagar,Vikram Nagar,430,Apartment
Gujarat,Ahmadabad,Ahmadabad City,Ahmadabad,Second City,380054,Thaltej,Bhaikakanagar,19,More then 5 years old
Gujarat,Ahmadabad,Ahmadabad City,Ahmadabad,Second City,380054,Bodakdev,Sumeru,251,Less than 5 years old
Gujarat,Ahmadabad,Ahmadabad City,Ahmadabad,Second City,380054,Thaltej,Jai Ambe Nagar,93,Apartment
Gujarat,Ahmadabad,Ahmadabad City,Ahmadabad,Second City,380054,Thaltej,Shangrila,233,Govt Constructed
Gujarat,Ahmadabad,Ahmadabad City,Ahmadabad,Second City,380054,Thaltej,Shangrila,233,Govt Constructed
Gujarat,Ahmadabad,Ahmadabad City,Ahmadabad,Second City,380054,Thaltej,Hebatpur Village,79,Less than 5 years old
Gujarat,Ahmadabad,Ahmadabad City,Ahmadabad,Suburbs,380054,Ashok Vatika,Ashok Vatika,287,More then 5 years old
Gujarat,Ahmadabad,Ahmadabad City,Ahmadabad,Second City,380054,Thaltej,PRL Colony,185,Apartment
Gujarat,Ahmadabad,Ahmadabad City,Ahmadabad,Second City,380054,Thaltej,Someshwar Park III,245,Govt Constructed
Gujarat,Ahmadabad,Ahmadabad City,Ahmadabad,Second City,380054,Thaltej,Panchamrut Bunglows II,155,Govt Constructed
Gujarat,Ahmadabad,Ahmadabad City,Ahmadabad,Suburbs,380054,Bodakdev,Bodakdev,293,Less than 5 years old
Gujarat,Ahmadabad,Ahmadabad City,Ahmadabad,Second City,380054,Thaltej,PRL Colony,185,Less than 5 years old
Gujarat,Ahmadabad,Ahmadabad City,Ahmadabad,Suburbs,380054,Vikram Nagar,Vikram Nagar,430,Less than 5 years old
Gujarat,Ahmadabad,Ahmadabad City,Ahmadabad,Second City,380054,Thaltej,Shangrila,233,Apartment
Gujarat,Ahmadabad,Ahmadabad City,Ahmadabad,Second City,380054,Thaltej,Shangrila,233,Villas
Gujarat,Ahmadabad,Ahmadabad City,Ahmadabad,Second City,380054,Thaltej,Shangrila,233,Villas
Gujarat,Ahmadabad,Ahmadabad City,Ahmadabad,Second City,380054,Thaltej,Bhaikakanagar,19,Less than 5 years old
Gujarat,Ahmadabad,Ahmadabad City,Ahmadabad,Second City,380054,Bodakdev,Bodakdev,293,Villas
Gujarat,Ahmadabad,Ahmadabad City,Ahmadabad,Second City,380054,Gurukul,Sunrise Park,254,Less than 5 years old
Gujarat,Ahmadabad,Ahmadabad City,Ahmadabad,Second City,380054,Thaltej,PRL Colony,185,Apartment
Gujarat,Ahmadabad,Ahmadabad City,Ahmadabad,Second City,380054,Thaltej,Shangrila,233,Apartment
Gujarat,Ahmadabad,Ahmadabad City,Ahmadabad,Second City,380054,Thaltej,PRL Colony,185,Less than 5 years old
Gujarat,Ahmadabad,Ahmadabad City,Ahmadabad,Suburbs,380061,Ghatlodia,Shenbhai Nagar,239,Govt Constructed
Gujarat,Ahmadabad,Ahmadabad City,Ahmadabad,Second City,380054,Thaltej,PRL Colony,185,Less than 5 years old
Gujarat,Ahmadabad,Ahmadabad City,Ahmadabad,Suburbs,380054,Ashok Vatika,Ashok Vatika,287,Govt Constructed
Gujarat,Ahmadabad,Ahmadabad City,Ahmadabad,Second City,380054,Bodakdev,Bodakdev,293,Apartment
Gujarat,Ahmadabad,Ahmadabad City,Ahmadabad,Second City,380058,Thaltej,PRL Colony,185,More then 5 years old
Gujarat,Ahmadabad,Ahmadabad City,Ahmadabad,Second City,380054,Thaltej,PRL Colony,185,Private Constructed
Gujarat,Ahmadabad,Ahmadabad City,Ahmadabad,Second City,380054,Thaltej,Bhaikakanagar,19,Villas
Gujarat,Ahmadabad,Ahmadabad City,Ahmadabad,Second City,380054,Thaltej,Shangrila,233,Apartment
Gujarat,Ahmadabad,Ahmadabad City,Ahmadabad,Suburbs,380054,Mem Nagar,Nilmani Society,147,More then 5 years old
Gujarat,Ahmadabad,Ahmadabad City,Ahmadabad,Second City,380054,Bodakdev,Sumeru,251,Apartment
Gujarat,Ahmadabad,Ahmadabad City,Ahmadabad,Second City,380054,Thaltej,Bhaikakanagar,19,Apartment
Gujarat,Ahmadabad,Ahmadabad City,Ahmadabad,Second City,380054,Thaltej,Shangrila,233,Villas
Gujarat,Ahmadabad,Ahmadabad City,Ahmadabad,Suburbs,380015,Vastrapur,Vastrapur,426,More then 5 years old
Gujarat,Ahmadabad,Ahmadabad City,Ahmadabad,Second City,380054,Bodakdev,Bodakdev,293,Villas
Gujarat,Ahmadabad,Ahmadabad City,Ahmadabad,Second City,380054,Thaltej,Shangrila,233,Less than 5 years old
Gujarat,Ahmadabad,Ahmadabad City,Ahmadabad,Second City,380054,Vastrapur,Vastrapur,426,More then 5 years old
Gujarat,Ahmadabad,Ahmadabad City,Ahmadabad,Second City,380054,Thaltej,Shangrila,233,Less than 5 years old
Gujarat,Ahmadabad,Ahmadabad City,Ahmadabad,Second City,380054,Thaltej,Shangrila,233,Less than 5 years old
Gujarat,Ahmadabad,Ahmadabad City,Ahmadabad,Second City,380054,Thaltej,Shangrila,233,Private Constructed
Gujarat,Ahmadabad,Ahmadabad City,Ahmadabad,Second City,380054,Thaltej,Shangrila,233,Govt Constructed
Gujarat,Ahmadabad,Ahmadabad City,Ahmadabad,Second City,380054,Thaltej,Shangrila,233,More then 5 years old
Gujarat,Ahmadabad,Ahmadabad City,Ahmadabad,Second City,380054,Thaltej,Shangrila,233,Private Constructed
Gujarat,Ahmadabad,Ahmadabad City,Ahmadabad,Suburbs,380058,Ashok Vatika,Ashok Vatika,287,Govt Constructed
Gujarat,Ahmadabad,Ahmadabad City,Ahmadabad,Second City,380054,Ashok Vatika,Ashok Vatika,287,Govt Constructed
Gujarat,Ahmadabad,Ahmadabad City,Ahmadabad,Suburbs,380054,Bodakdev,Bodakdev,293,Apartment
Gujarat,Ahmadabad,Ahmadabad City,Ahmadabad,Second City,380054,Thaltej,Shangrila,233,Private Constructed
Gujarat,Ahmadabad,Ahmadabad City,Ahmadabad,Second City,380054,Thaltej,Jai Ambe Nagar,93,Villas
Gujarat,Ahmadabad,Ahmadabad City,Ahmadabad,Second City,380054,Bodakdev,Bodakdev,293,Private Constructed
Gujarat,Ahmadabad,Ahmadabad City,Ahmadabad,Second City,380054,Thaltej,Jai Ambe Nagar,93,Apartment
Gujarat,Ahmadabad,Ahmadabad City,Ahmadabad,Second City,380054,Thaltej,Shangrila,233,More then 5 years old
Gujarat,Ahmadabad,Ahmadabad City,Ahmadabad,Second City,380058,Thaltej,PRL Colony,185,Govt Constructed
Gujarat,Ahmadabad,Ahmadabad City,Ahmadabad,Second City,380054,Thaltej,Shangrila,233,Private Constructed
Gujarat,Ahmadabad,Ahmadabad City,Ahmadabad,Second City,380054,Bodakdev,Sumeru,251,Private Constructed
Gujarat,Ahmadabad,Ahmadabad City,Ahmadabad,Second City,380054,Thaltej,Shangrila,233,Apartment
Gujarat,Ahmadabad,Ahmadabad City,Ahmadabad,Suburbs,380054,Satellite,Premchand Nagar,182,Apartment
Gujarat,Ahmadabad,Ahmadabad City,Ahmadabad,Suburbs,380054,Bodakdev,Bodakdev,293,Villas
Gujarat,Ahmadabad,Ahmadabad City,Ahmadabad,Second City,380054,Thaltej,Shangrila,233,More then 5 years old
Gujarat,Ahmadabad,Ahmadabad City,Ahmadabad,Second City,380054,Thaltej,Shangrila,233,More then 5 years old
Gujarat,Ahmadabad,Ahmadabad City,Ahmadabad,Second City,380054,Thaltej,PRL Colony,185,Less than 5 years old
Gujarat,Ahmadabad,Ahmadabad City,Ahmadabad,Second City,380054,Thaltej,Shangrila,233,Villas
Gujarat,Ahmadabad,Ahmadabad City,Ahmadabad,Second City,380054,Thaltej,Shangrila,233,Govt Constructed
Gujarat,Ahmadabad,Ahmadabad City,Ahmadabad,Second City,380054,Thaltej,Shangrila,233,Less than 5 years old
Gujarat,Ahmadabad,Ahmadabad City,Ahmadabad,Second City,380054,Ashok Vatika,Ashok Vatika,287,Apartment
Gujarat,Ahmadabad,Ahmadabad City,Ahmadabad,Second City,380054,Thaltej,Shangrila,233,Govt Constructed
Gujarat,Ahmadabad,Ahmadabad City,Ahmadabad,Second City,380054,Thaltej,Bhaikakanagar,19,More then 5 years old
Gujarat,Ahmadabad,Ahmadabad City,Ahmadabad,Second City,380054,Thaltej,Shangrila,233,Less than 5 years old
Gujarat,Ahmadabad,Ahmadabad City,Ahmadabad,Second City,380054,Bodakdev,Bodakdev,293,More then 5 years old
Gujarat,Ahmadabad,Ahmadabad City,Ahmadabad,Second City,380054,Thaltej,Shangrila,233,Private Constructed
Gujarat,Ahmadabad,Ahmadabad City,Ahmadabad,Second City,380054,Thaltej,Jai Ambe Nagar,93,Less than 5 years old
Gujarat,Ahmadabad,Ahmadabad City,Ahmadabad,Second City,380054,Thaltej,Panchamrut Bunglows II,155,Govt Constructed
Gujarat,Ahmadabad,Ahmadabad City,Ahmadabad,Second City,380054,Thaltej,Shangrila,233,Less than 5 years old
Gujarat,Ahmadabad,Ahmadabad City,Ahmadabad,Second City,380054,Thaltej,Jai Ambe Nagar,93,Govt Constructed
Gujarat,Ahmadabad,Ahmadabad City,Ahmadabad,Second City,380054,Thaltej,Shangrila,233,Govt Constructed
Gujarat,Ahmadabad,Ahmadabad City,Ahmadabad,Second City,380054,Thaltej,Shangrila,233,Apartment
Gujarat,Ahmadabad,Ahmadabad City,Ahmadabad,Second City,380054,Thaltej,Shangrila,233,More then 5 years old
Gujarat,Ahmadabad,Ahmadabad City,Ahmadabad,Second City,380054,Bodakdev,Bodakdev,293,Apartment
Gujarat,Ahmadabad,Ahmadabad City,Ahmadabad,Second City,380054,Thaltej,Shangrila,233,Private Constructed
Gujarat,Ahmadabad,Ahmadabad City,Ahmadabad,Second City,380054,Bodakdev,Bodakdev,293,Govt Constructed
Gujarat,Ahmadabad,Ahmadabad City,Ahmadabad,Second City,380054,Thaltej,Shangrila,233,Private Constructed
Gujarat,Ahmadabad,Ahmadabad City,Ahmadabad,Second City,380054,Thaltej,Shangrila,233,Govt Constructed
Gujarat,Ahmadabad,Ahmadabad City,Ahmadabad,Second City,380054,Thaltej,Shangrila,233,More then 5 years old
Gujarat,Ahmadabad,Ahmadabad City,Ahmadabad,Second City,380054,Thaltej,Shangrila,233,Villas
Gujarat,Ahmadabad,Ahmadabad City,Ahmadabad,Second City,380054,Thaltej,Shangrila,233,Private Constructed
Gujarat,Ahmadabad,Ahmadabad City,Ahmadabad,Second City,380054,Thaltej,Shangrila,233,Apartment
Gujarat,Ahmadabad,Ahmadabad City,Ahmadabad,Second City,380054,Thaltej,Shangrila,233,Private Constructed
Gujarat,Ahmadabad,Ahmadabad City,Ahmadabad,Second City,380054,Thaltej,Jai Ambe Nagar,93,More then 5 years old
Gujarat,Ahmadabad,Ahmadabad City,Ahmadabad,Second City,380054,Thaltej,PRL Colony,185,More then 5 years old
Gujarat,Ahmadabad,Ahmadabad City,Ahmadabad,Second City,380054,Thaltej,Bhaikakanagar,19,More then 5 years old
Gujarat,Ahmadabad,Ahmadabad City,Ahmadabad,Suburbs,380054,Ashok Vatika,Ashok Vatika,287,More then 5 years old
Gujarat,Ahmadabad,Ahmadabad City,Ahmadabad,Suburbs,380054,Satellite,Premchand Nagar,182,Less than 5 years old
Gujarat,Ahmadabad,Ahmadabad City,Ahmadabad,Suburbs,380054,Vastrapur,Vastrapur,426,Apartment
Gujarat,Ahmadabad,Ahmadabad City,Ahmadabad,Second City,380054,Thaltej,Shangrila,233,More then 5 years old
Gujarat,Ahmadabad,Ahmadabad City,Ahmadabad,Second City,380054,Thaltej,Shangrila,233,Less than 5 years old
Gujarat,Ahmadabad,Ahmadabad City,Ahmadabad,Second City,380054,Thaltej,Shangrila,233,Private Constructed
Gujarat,Ahmadabad,Ahmadabad City,Ahmadabad,Suburbs,380054,Mem Nagar,Mem Nagar,348,Govt Constructed
Gujarat,Ahmadabad,Ahmadabad City,Ahmadabad,Second City,380054,Thaltej,Shangrila,233,Less than 5 years old
Gujarat,Ahmadabad,Ahmadabad City,Ahmadabad,Second City,380054,Thaltej,Shangrila,233,Govt Constructed
Gujarat,Ahmadabad,Ahmadabad City,Ahmadabad,Second City,380054,Thaltej,Shangrila,233,Villas
Gujarat,Ahmadabad,Ahmadabad City,Ahmadabad,Second City,380054,Thaltej,Shangrila,233,Less than 5 years old
Gujarat,Ahmadabad,Ahmadabad City,Ahmadabad,Second City,380054,Thaltej,Shangrila,233,More then 5 years old
Gujarat,Ahmadabad,Ahmadabad City,Ahmadabad,Second City,380054,Thaltej,Shangrila,233,Govt Constructed
Gujarat,Ahmadabad,Ahmadabad City,Ahmadabad,Second City,380054,Bodakdev,Bodakdev,293,Less than 5 years old
Gujarat,Ahmadabad,Ahmadabad City,Ahmadabad,Suburbs,380054,Ashok Vatika,Ashok Vatika,287,Apartment
Gujarat,Ahmadabad,Ahmadabad City,Ahmadabad,Suburbs,380015,Satellite,Premchand Nagar,182,More then 5 years old
Gujarat,Ahmadabad,Ahmadabad City,Ahmadabad,Second City,380054,Thaltej,Shangrila,233,Less than 5 years old
Gujarat,Ahmadabad,Ahmadabad City,Ahmadabad,Suburbs,380054,Vastrapur,Vastrapur,426,Villas
Gujarat,Ahmadabad,Ahmadabad City,Ahmadabad,Second City,380054,Thaltej,PRL Colony,185,Less than 5 years old
Gujarat,Ahmadabad,Ahmadabad City,Ahmadabad,Suburbs,380054,Ashok Vatika,Ashok Vatika,287,Apartment
Gujarat,Ahmadabad,Ahmadabad City,Ahmadabad,Second City,380054,Thaltej,PRL Colony,185,Less than 5 years old
Gujarat,Ahmadabad,Ahmadabad City,Ahmadabad,Second City,380054,Mem Nagar,Nilmani Society,147,Villas
Gujarat,Ahmadabad,Ahmadabad City,Ahmadabad,Second City,380054,Thaltej,Shangrila,233,Villas
Gujarat,Ahmadabad,Ahmadabad City,Ahmadabad,Second City,380054,Bodakdev,Bodakdev,293,Villas
Gujarat,Ahmadabad,Ahmadabad City,Ahmadabad,Second City,380054,Bodakdev,Sumeru,251,Villas
Gujarat,Ahmadabad,Ahmadabad City,Ahmadabad,Second City,380054,Thaltej,Shangrila,233,Apartment
Gujarat,Ahmadabad,Ahmadabad City,Ahmadabad,Second City,380054,Bodakdev,Bodakdev,293,Less than 5 years old
Gujarat,Ahmadabad,Ahmadabad City,Ahmadabad,Second City,380054,Thaltej,Jai Ambe Nagar,93,Govt Constructed
Gujarat,Ahmadabad,Ahmadabad City,Ahmadabad,Second City,380054,Thaltej,Shangrila,233,More then 5 years old
Gujarat,Ahmadabad,Ahmadabad City,Ahmadabad,Second City,380054,Thaltej,Someshwar Park III,245,Apartment
Gujarat,Ahmadabad,Ahmadabad City,Ahmadabad,Second City,380054,Bodakdev,Bodakdev,293,More then 5 years old
Gujarat,Ahmadabad,Ahmadabad City,Ahmadabad,Suburbs,380054,Thaltej,Nirant Park Society Part 2,149,Villas
Gujarat,Ahmadabad,Ahmadabad City,Ahmadabad,Suburbs,380054,Gurukul,Sunrise Park,254,Private Constructed
Gujarat,Ahmadabad,Ahmadabad City,Ahmadabad,Suburbs,380054,Ashok Vatika,Ashok Vatika,287,Apartment
Gujarat,Ahmadabad,Ahmadabad City,Ahmadabad,Suburbs,380063,Thaltej,Someshwar Park III,245,Apartment
Gujarat,Ahmadabad,Ahmadabad City,Ahmadabad,Suburbs,380054,Bodakdev,Bodakdev,293,Govt Constructed
Gujarat,Ahmadabad,Ahmadabad City,Ahmadabad,Suburbs,380051,Vikram Nagar,Vikram Nagar,430,Govt Constructed
Gujarat,Ahmadabad,Ahmadabad City,Ahmadabad,Suburbs,380052,Mem Nagar,Mem Nagar,348,Private Constructed
Gujarat,Ahmadabad,Ahmadabad City,Ahmadabad,Suburbs,380054,Satellite,Premchand Nagar,182,Apartment
Gujarat,Ahmadabad,Ahmadabad City,Ahmadabad,Suburbs,380054,Gurukul,Sunrise Park,254,Less than 5 years old
Gujarat,Ahmadabad,Ahmadabad City,Ahmadabad,Second City,380059,Thaltej,Panchamrut Bunglows II,155,Govt Constructed
Gujarat,Ahmadabad,Ahmadabad City,Ahmadabad,Suburbs,380054,Gurukul,Sunrise Park,254,More then 5 years old
Gujarat,Ahmadabad,Ahmadabad City,Ahmadabad,Second City,380054,Thaltej,Shangrila,233,More then 5 years old
Gujarat,Ahmadabad,Ahmadabad City,Ahmadabad,Suburbs,380051,Satellite,Premchand Nagar,182,Villas
Gujarat,Ahmadabad,Ahmadabad City,Ahmadabad,Suburbs,380054,Gurukul,Sunrise Park,254,Villas
Gujarat,Ahmadabad,Ahmadabad City,Ahmadabad,Suburbs,380054,Bodakdev,Bodakdev,293,Apartment
Gujarat,Ahmadabad,Ahmadabad City,Ahmadabad,Suburbs,380054,Bodakdev,Bodakdev,293,Villas
Gujarat,Ahmadabad,Ahmadabad City,Ahmadabad,Suburbs,380054,Thaltej,Nirant Park Society Part 1,148,More then 5 years old
Gujarat,Ahmadabad,Ahmadabad City,Ahmadabad,Suburbs,380054,Vikram Nagar,Vikram Nagar,430,More then 5 years old
Gujarat,Ahmadabad,Ahmadabad City,Ahmadabad,Suburbs,380054,Thaltej,Someshwar Park III,245,Private Constructed
Gujarat,Ahmadabad,Ahmadabad City,Ahmadabad,Second City,380054,Vastrapur,Vastrapur,426,More then 5 years old
Gujarat,Ahmadabad,Ahmadabad City,Ahmadabad,Suburbs,380063,Mem Nagar,Mem Nagar,348,Private Constructed
Gujarat,Ahmadabad,Ahmadabad City,Ahmadabad,Suburbs,380054,Thaltej,Someshwar Park III,245,Govt Constructed
Gujarat,Ahmadabad,Ahmadabad City,Ahmadabad,Suburbs,380054,Satellite,Premchand Nagar,182,Govt Constructed
Gujarat,Ahmadabad,Ahmadabad City,Ahmadabad,Suburbs,380015,Bodakdev,Bodakdev,293,Villas
Gujarat,Ahmadabad,Ahmadabad City,Ahmadabad,Suburbs,380054,Thaltej,Nirant Park Society Part 2,149,Private Constructed
Gujarat,Ahmadabad,Ahmadabad City,Ahmadabad,Suburbs,380054,Mem Nagar,Nilmani Society,147,Govt Constructed
Gujarat,Ahmadabad,Ahmadabad City,Ahmadabad,Suburbs,380054,Satellite,Premchand Nagar,182,Govt Constructed
Gujarat,Ahmadabad,Ahmadabad City,Ahmadabad,Suburbs,380054,Thaltej,Someshwar Park III,245,More then 5 years old
Gujarat,Ahmadabad,Ahmadabad City,Ahmadabad,Suburbs,380051,Satellite,Premchand Nagar,182,Apartment
Gujarat,Ahmadabad,Ahmadabad City,Ahmadabad,Suburbs,380054,Mem Nagar,Mem Nagar,348,Less than 5 years old
Gujarat,Ahmadabad,Ahmadabad City,Ahmadabad,Suburbs,380054,Gurukul,Sunrise Park,254,Less than 5 years old
Gujarat,Ahmadabad,Ahmadabad City,Ahmadabad,Suburbs,380054,Satellite,Premchand Nagar,182,More then 5 years old
Gujarat,Ahmadabad,Ahmadabad City,Ahmadabad,Suburbs,380052,Mem Nagar,Sarathi Co-operative Housing Society,213,Villas
Gujarat,Ahmadabad,Ahmadabad City,Ahmadabad,Suburbs,380054,Mem Nagar,Sarathi Co-operative Housing Society,213,Villas
Gujarat,Ahmadabad,Ahmadabad City,Ahmadabad,Suburbs,380052,Mem Nagar,Nilmani Society,147,Private Constructed
Gujarat,Ahmadabad,Ahmadabad City,Ahmadabad,Suburbs,380054,Thaltej,Someshwar Park III,245,Less than 5 years old
Gujarat,Ahmadabad,Ahmadabad City,Ahmadabad,Suburbs,380054,Gurukul,Sunrise Park,254,Apartment
Gujarat,Ahmadabad,Ahmadabad City,Ahmadabad,Suburbs,380052,Mem Nagar,Mem Nagar,348,Govt Constructed
Gujarat,Ahmadabad,Ahmadabad City,Ahmadabad,Suburbs,380054,Gurukul,Gurukul,315,Apartment
Gujarat,Ahmadabad,Ahmadabad City,Ahmadabad,Suburbs,380054,Mem Nagar,Nilmani Society,147,Villas
Gujarat,Ahmadabad,Ahmadabad City,Ahmadabad,Suburbs,380063,Mem Nagar,Vishram Nagar,277,Less than 5 years old
Gujarat,Ahmadabad,Ahmadabad City,Ahmadabad,Suburbs,380054,Thaltej,Someshwar Park III,245,Govt Constructed
Gujarat,Ahmadabad,Ahmadabad City,Ahmadabad,Suburbs,380052,Mem Nagar,Mem Nagar,348,Less than 5 years old
Gujarat,Ahmadabad,Ahmadabad City,Ahmadabad,Suburbs,380054,Thaltej,Someshwar Park III,245,Villas
Gujarat,Ahmadabad,Ahmadabad City,Ahmadabad,Suburbs,380054,Thaltej,Nirant Park Society Part 1,148,Apartment
Gujarat,Ahmadabad,Ahmadabad City,Ahmadabad,Suburbs,380052,Mem Nagar,Mem Nagar,348,Govt Constructed
Gujarat,Ahmadabad,Ahmadabad City,Ahmadabad,Suburbs,380054,Thaltej,Someshwar Park III,245,Less than 5 years old
Gujarat,Ahmadabad,Ahmadabad City,Ahmadabad,Suburbs,380054,Thaltej,Someshwar Park III,245,Villas
Gujarat,Ahmadabad,Ahmadabad City,Ahmadabad,Suburbs,380054,Thaltej,Someshwar Park III,245,More then 5 years old
Gujarat,Ahmadabad,Ahmadabad City,Ahmadabad,Suburbs,380054,Thaltej,Someshwar Park III,245,Less than 5 years old
Gujarat,Ahmadabad,Ahmadabad City,Ahmadabad,Suburbs,380059,Ghatlodia,Shenbhai Nagar,239,Villas
Gujarat,Ahmadabad,Ahmadabad City,Ahmadabad,Suburbs,380054,Thaltej,Someshwar Park III,245,Private Constructed
Gujarat,Ahmadabad,Ahmadabad City,Ahmadabad,Suburbs,380061,Ghatlodia,Shenbhai Nagar,239,Villas
Gujarat,Ahmadabad,Ahmadabad City,Ahmadabad,Suburbs,380054,Thaltej,Someshwar Park III,245,Apartment
Gujarat,Ahmadabad,Ahmadabad City,Ahmadabad,Suburbs,380063,Mem Nagar,Mem Nagar,348,Govt Constructed
Gujarat,Ahmadabad,Ahmadabad City,Ahmadabad,Suburbs,380054,Thaltej,Someshwar Park III,245,Villas
Gujarat,Ahmadabad,Ahmadabad City,Ahmadabad,Suburbs,380054,Thaltej,Someshwar Park III,245,Apartment
TAMILNADU,Chennai,Area not under any Sub-district,Chennai,Suburbs,600018,Teynampet,Kasturi Estate,372,Villas
TAMILNADU,Chennai,Area not under any Sub-district,Chennai,Suburbs,600018,Teynampet,Thiru Vi Ka Kudiyiruppu,366,Apartment
TAMILNADU,Chennai,Area not under any Sub-district,Chennai,Suburbs,600018,Teynampet,Thiru Vi Ka Kudiyiruppu,366,Villas
TAMILNADU,Chennai,Area not under any Sub-district,Chennai,Suburbs,600017,Thyagaraya Nagar,Thyagaraya Nagar,982,More then 5 years old
TAMILNADU,Chennai,Area not under any Sub-district,Chennai,Suburbs,600017,Thyagaraya Nagar,Thyagaraya Nagar,982,Villas
TAMILNADU,Chennai,Area not under any Sub-district,Chennai,Suburbs,600018,Teynampet,Teynampet,360,Private Constructed
TAMILNADU,Chennai,Area not under any Sub-district,Chennai,Suburbs,600018,Teynampet,Subbarayan Nagar,367,Less than 5 years old
TAMILNADU,Chennai,Area not under any Sub-district,Chennai,Suburbs,600017,Thyagaraya Nagar,Drivers Colony,983,Private Constructed
TAMILNADU,Chennai,Area not under any Sub-district,Chennai,Suburbs,600018,Teynampet,Teynampet,360,Private Constructed
TAMILNADU,Chennai,Area not under any Sub-district,Chennai,Suburbs,600018,Teynampet,Subbarayan Nagar,367,Govt Constructed
TAMILNADU,Chennai,Area not under any Sub-district,Chennai,Suburbs,600018,Teynampet,Teynampet,360,More then 5 years old
TAMILNADU,Chennai,Area not under any Sub-district,Chennai,Suburbs,600018,Teynampet,Seethammal Extension,364,Less than 5 years old
TAMILNADU,Chennai,Area not under any Sub-district,Chennai,Suburbs,600018,Alwarpet,Sri Ram Nagar,78,More then 5 years old
TAMILNADU,Chennai,Area not under any Sub-district,Chennai,Suburbs,600018,Alwarpet,Austin Nagar,79,Private Constructed
TAMILNADU,Chennai,Area not under any Sub-district,Chennai,Suburbs,600028,Nandanam,Nandanam,1083,Private Constructed
TAMILNADU,Chennai,Area not under any Sub-district,Chennai,Suburbs,600018,Alwarpet,Austin Nagar,79,Less than 5 years old
TAMILNADU,Chennai,Area not under any Sub-district,Chennai,Suburbs,600028,Nandanam,Nandanam,1083,Govt Constructed
TAMILNADU,Chennai,Area not under any Sub-district,Chennai,Suburbs,600028,Nandanam,Nandanam,1083,Villas
TAMILNADU,Chennai,Area not under any Sub-district,Chennai,Suburbs,600028,Nandanam,Nandanam,1083,Less than 5 years old
TAMILNADU,Chennai,Area not under any Sub-district,Chennai,Suburbs,600017,Teynampet,Satya Murthy Nagar,361,Villas
TAMILNADU,Chennai,Area not under any Sub-district,Chennai,Suburbs,600035,Alwarpet,Rathna Nagar,80,Private Constructed
TAMILNADU,Chennai,Area not under any Sub-district,Chennai,Suburbs,600035,Alwarpet,Rathna Nagar,80,Apartment
TAMILNADU,Chennai,Area not under any Sub-district,Chennai,Suburbs,600028,Nandanam,Nandanam,1083,Apartment
TAMILNADU,Chennai,Area not under any Sub-district,Chennai,Suburbs,600035,Nandanam,Nandanam Extension,1088,Villas
TAMILNADU,Chennai,Area not under any Sub-district,Chennai,Suburbs,600035,Alwarpet,Rathna Nagar,80,Less than 5 years old
TAMILNADU,Chennai,Area not under any Sub-district,Chennai,Suburbs,600028,Nandanam,Nandanam,1083,Villas
TAMILNADU,Chennai,Area not under any Sub-district,Chennai,Suburbs,600028,Raja Annamalai Puram,Thideer Nagar,415,Private Constructed
TAMILNADU,Chennai,Area not under any Sub-district,Chennai,Suburbs,600028,Raja Annamalai Puram,South Kesavaperumalpuram,417,Apartment
TAMILNADU,Chennai,Area not under any Sub-district,Chennai,Suburbs,600028,Raja Annamalai Puram,South Kesavaperumalpuram,417,Villas
TAMILNADU,Chennai,Area not under any Sub-district,Chennai,Suburbs,600017,Thyagaraya Nagar,Drivers Colony,983,More then 5 years old
TAMILNADU,Chennai,Area not under any Sub-district,Chennai,Suburbs,600017,Thyagaraya Nagar,JJ Nagar,984,Villas
TAMILNADU,Chennai,Area not under any Sub-district,Chennai,Suburbs,600018,Teynampet,Teynampet,360,Private Constructed
TAMILNADU,Chennai,Area not under any Sub-district,Chennai,Suburbs,600017,Thyagaraya Nagar,JJ Nagar,984,More then 5 years old
TAMILNADU,Chennai,Area not under any Sub-district,Chennai,Suburbs,600018,Teynampet,Teynampet,360,Less than 5 years old
TAMILNADU,Chennai,Area not under any Sub-district,Chennai,Suburbs,600018,Teynampet,Poes Garden,362,More then 5 years old
TAMILNADU,Chennai,Area not under any Sub-district,Chennai,Suburbs,600018,Teynampet,Kasturi Estate,372,Private Constructed
TAMILNADU,Chennai,Area not under any Sub-district,Chennai,Suburbs,600018,Teynampet,Poes Garden,362,Apartment
TAMILNADU,Chennai,Area not under any Sub-district,Chennai,Suburbs,600018,Teynampet,Kasturi Estate,372,Govt Constructed
TAMILNADU,Chennai,Area not under any Sub-district,Chennai,Suburbs,600018,Teynampet,Venus Colony,363,Villas
TAMILNADU,Chennai,Area not under any Sub-district,Chennai,Suburbs,600018,Teynampet,Venus Colony,363,Govt Constructed
TAMILNADU,Chennai,Area not under any Sub-district,Chennai,Suburbs,600018,Teynampet,Lubdhi Colony,371,More then 5 years old
TAMILNADU,Chennai,Area not under any Sub-district,Chennai,Suburbs,600018,Teynampet,Lubdhi Colony,371,Private Constructed
TAMILNADU,Chennai,Area not under any Sub-district,Chennai,Suburbs,600004,Abhiramapuram,Sriram Colony,667,More then 5 years old
TAMILNADU,Chennai,Area not under any Sub-district,Chennai,Suburbs,600018,Alwarpet,MIG Colony,77,Less than 5 years old
TAMILNADU,Chennai,Area not under any Sub-district,Chennai,Suburbs,600018,Abhiramapuram,Sriram Colony,667,Villas
TAMILNADU,Chennai,Area not under any Sub-district,Chennai,Suburbs,600018,Alwarpet,Alwarpet,76,Govt Constructed
TAMILNADU,Chennai,Area not under any Sub-district,Chennai,Suburbs,600018,Abhiramapuram,Vidya Thirtha Nagar,666,Less than 5 years old
TAMILNADU,Chennai,Area not under any Sub-district,Chennai,Suburbs,600018,Abhiramapuram,Demonte Colony,672,Govt Constructed
TAMILNADU,Chennai,Area not under any Sub-district,Chennai,Suburbs,600018,Alwarpet,Alwarpet,76,Less than 5 years old
TAMILNADU,Chennai,Area not under any Sub-district,Chennai,Suburbs,600028,Abhiramapuram,SBI Colony,665,More then 5 years old
TAMILNADU,Chennai,Area not under any Sub-district,Chennai,Suburbs,600028,Abhiramapuram,SBI Colony,665,Less than 5 years old
TAMILNADU,Chennai,Area not under any Sub-district,Chennai,Suburbs,600018,Abhiramapuram,Vidya Thirtha Nagar,666,Govt Constructed
TAMILNADU,Chennai,Area not under any Sub-district,Chennai,Suburbs,600018,Abhiramapuram,Vidya Thirtha Nagar,666,Less than 5 years old
TAMILNADU,Chennai,Area not under any Sub-district,Chennai,Suburbs,600018,Abhiramapuram,Demonte Colony,672,Private Constructed
TAMILNADU,Chennai,Area not under any Sub-district,Chennai,Suburbs,600018,Abhiramapuram,Demonte Colony,672,Less than 5 years old
TAMILNADU,Chennai,Area not under any Sub-district,Chennai,Suburbs,600028,Raja Annamalai Puram,Govindaswamy Nagar,419,More then 5 years old
TAMILNADU,Chennai,Area not under any Sub-district,Chennai,Suburbs,600028,Abhiramapuram,SBI Colony,665,Private Constructed
TAMILNADU,Chennai,Area not under any Sub-district,Chennai,Suburbs,600028,Abhiramapuram,SBI Colony,665,Govt Constructed
TAMILNADU,Chennai,Area not under any Sub-district,Chennai,Suburbs,600028,Raja Annamalai Puram,Govindaswamy Nagar,419,Govt Constructed
TAMILNADU,Chennai,Area not under any Sub-district,Chennai,Suburbs,600028,Raja Annamalai Puram,Kesavaperumalpuram,409,Villas
TAMILNADU,Chennai,Area not under any Sub-district,Chennai,Suburbs,600028,Raja Annamalai Puram,Krisknapuri,411,Villas
TAMILNADU,Chennai,Area not under any Sub-district,Chennai,Suburbs,600028,Raja Annamalai Puram,Govindaswamy Nagar,419,More then 5 years old
TAMILNADU,Chennai,Area not under any Sub-district,Chennai,Suburbs,600028,Raja Annamalai Puram,Kesavaperumalpuram,409,Villas
TAMILNADU,Chennai,Area not under any Sub-district,Chennai,Suburbs,600028,Raja Annamalai Puram,South Kesavaperumalpuram,417,More then 5 years old
TAMILNADU,Chennai,Area not under any Sub-district,Chennai,Suburbs,600028,Raja Annamalai Puram,Annai Sathya Nagar,420,More then 5 years old
TAMILNADU,Chennai,Area not under any Sub-district,Chennai,Suburbs,600028,Raja Annamalai Puram,South Kesavaperumalpuram,417,More then 5 years old
TAMILNADU,Chennai,Area not under any Sub-district,Chennai,Suburbs,600028,Raja Annamalai Puram,Annai Sathya Nagar,420,More then 5 years old
TAMILNADU,Chennai,Area not under any Sub-district,Chennai,Suburbs,600028,Raja Annamalai Puram,Annai Sathya Nagar,420,Govt Constructed
TAMILNADU,Chennai,Area not under any Sub-district,Chennai,Suburbs,600028,Mandavelli,Mandavelli,109,Villas
TAMILNADU,Chennai,Area not under any Sub-district,Chennai,Suburbs,600028,Mandavelli,Mandavelli,109,Less than 5 years old
TAMILNADU,Chennai,Area not under any Sub-district,Chennai,Suburbs,600028,Raja Annamalai Puram,Ramakrishna Nagar,408,More then 5 years old
TAMILNADU,Chennai,Area not under any Sub-district,Chennai,Suburbs,600028,Raja Annamalai Puram,Ramakrishna Nagar,408,Govt Constructed
TAMILNADU,Chennai,Area not under any Sub-district,Chennai,Suburbs,600028,Raja Annamalai Puram,Raja Annamalai Puram,405,Govt Constructed
TAMILNADU,Chennai,Area not under any Sub-district,Chennai,Suburbs,600028,Raja Annamalai Puram,Ramakrishna Nagar,408,Less than 5 years old
TAMILNADU,Chennai,Area not under any Sub-district,Chennai,Suburbs,600028,Raja Annamalai Puram,Karpagam Avenue,413,More then 5 years old
TAMILNADU,Chennai,Area not under any Sub-district,Chennai,Suburbs,600028,Raja Annamalai Puram,May Flower Garden,407,Less than 5 years old
TAMILNADU,Chennai,Area not under any Sub-district,Chennai,Suburbs,600028,Raja Annamalai Puram,State Bank of India Colony,416,Private Constructed
TAMILNADU,Chennai,Area not under any Sub-district,Chennai,Suburbs,600028,Raja Annamalai Puram,State Bank of India Colony,416,Private Constructed
TAMILNADU,Chennai,Area not under any Sub-district,Chennai,Suburbs,600028,Mandavelli,Trustpakkam,110,Apartment
TAMILNADU,Chennai,Area not under any Sub-district,Chennai,Suburbs,600028,Raja Annamalai Puram,Govindaswamy Nagar,419,More then 5 years old
TAMILNADU,Chennai,Area not under any Sub-district,Chennai,Suburbs,600028,Raja Annamalai Puram,Krisknapuri,411,More then 5 years old
TAMILNADU,Chennai,Area not under any Sub-district,Chennai,Suburbs,600028,Raja Annamalai Puram,Govindaswamy Nagar,419,Villas
TAMILNADU,Chennai,Area not under any Sub-district,Chennai,Suburbs,600028,Raja Annamalai Puram,Bishop Garden,406,Private Constructed
TAMILNADU,Chennai,Area not under any Sub-district,Chennai,Suburbs,600028,Raja Annamalai Puram,Kesavaperumalpuram,409,Villas
TAMILNADU,Chennai,Area not under any Sub-district,Chennai,Suburbs,600028,Raja Annamalai Puram,Krisknapuri,411,Apartment
TAMILNADU,Chennai,Area not under any Sub-district,Chennai,Suburbs,600028,Raja Annamalai Puram,Bishop Garden,406,Villas
TAMILNADU,Chennai,Area not under any Sub-district,Chennai,Suburbs,600028,Raja Annamalai Puram,Kesavaperumalpuram,409,Less than 5 years old
TAMILNADU,Chennai,Area not under any Sub-district,Chennai,Suburbs,600028,Raja Annamalai Puram,Annai Sathya Nagar,420,More then 5 years old
TAMILNADU,Chennai,Area not under any Sub-district,Chennai,Suburbs,600028,Raja Annamalai Puram,Annai Sathya Nagar,420,Apartment
TAMILNADU,Chennai,Area not under any Sub-district,Chennai,Suburbs,600028,Raja Annamalai Puram,Annai Sathya Nagar,420,More then 5 years old
TAMILNADU,Chennai,Area not under any Sub-district,Chennai,Suburbs,600028,Mandavelli,Mandavelli,109,Govt Constructed
TAMILNADU,Chennai,Area not under any Sub-district,Chennai,Suburbs,600028,Raja Annamalai Puram,Mandavelipakkam,418,Private Constructed
TAMILNADU,Chennai,Area not under any Sub-district,Chennai,Suburbs,600004,Mylapore,Saradapuram,832,Villas
TAMILNADU,Chennai,Area not under any Sub-district,Chennai,Suburbs,600028,Mandavelli,Mandavelli,109,Less than 5 years old
TAMILNADU,Chennai,Area not under any Sub-district,Chennai,Suburbs,600028,Raja Annamalai Puram,Ramakrishna Nagar,408,Private Constructed
TAMILNADU,Chennai,Area not under any Sub-district,Chennai,Suburbs,600028,Raja Annamalai Puram,Raja Annamalai Puram,405,More then 5 years old
TAMILNADU,Chennai,Area not under any Sub-district,Chennai,Suburbs,600028,Raja Annamalai Puram,Raja Annamalai Puram,405,Private Constructed
TAMILNADU,Chennai,Area not under any Sub-district,Chennai,Suburbs,600028,Raja Annamalai Puram,Karpagam Avenue,413,Villas
TAMILNADU,Chennai,Area not under any Sub-district,Chennai,Suburbs,600028,Raja Annamalai Puram,Karpagam Avenue,413,Govt Constructed
TAMILNADU,Chennai,Area not under any Sub-district,Chennai,Suburbs,600028,Raja Annamalai Puram,State Bank of India Colony,416,More then 5 years old
TAMILNADU,Chennai,Area not under any Sub-district,Chennai,Suburbs,600018,Teynampet,Poes Garden,362,Less than 5 years old
TAMILNADU,Chennai,Area not under any Sub-district,Chennai,Suburbs,600018,Teynampet,Rostrevor Garden,368,Less than 5 years old
TAMILNADU,Chennai,Area not under any Sub-district,Chennai,Suburbs,600018,Teynampet,Poes Garden,362,Private Constructed
TAMILNADU,Chennai,Area not under any Sub-district,Chennai,Suburbs,600018,Teynampet,Rostrevor Garden,368,Less than 5 years old
TAMILNADU,Chennai,Area not under any Sub-district,Chennai,Suburbs,600018,Teynampet,Venus Colony,363,More then 5 years old
TAMILNADU,Chennai,Area not under any Sub-district,Chennai,Suburbs,600018,Teynampet,Subbarayan Nagar,367,Villas
TAMILNADU,Chennai,Area not under any Sub-district,Chennai,Suburbs,600018,Teynampet,Teynampet,360,Villas
TAMILNADU,Chennai,Area not under any Sub-district,Chennai,Suburbs,600018,Teynampet,Lubdhi Colony,371,Private Constructed
TAMILNADU,Chennai,Area not under any Sub-district,Chennai,Suburbs,600018,Teynampet,Lubdhi Colony,371,Apartment
TAMILNADU,Chennai,Area not under any Sub-district,Chennai,Suburbs,600018,Alwarpet,MIG Colony,77,Less than 5 years old
TAMILNADU,Chennai,Area not under any Sub-district,Chennai,Suburbs,600018,Alwarpet,MIG Colony,77,Private Constructed
TAMILNADU,Chennai,Area not under any Sub-district,Chennai,Suburbs,600018,Alwarpet,Sri Ram Nagar,78,Private Constructed
TAMILNADU,Chennai,Area not under any Sub-district,Chennai,Suburbs,600018,Abhiramapuram,Demonte Colony,672,Govt Constructed
TAMILNADU,Chennai,Area not under any Sub-district,Chennai,Suburbs,600018,Alwarpet,Sri Ram Nagar,78,Apartment
TAMILNADU,Chennai,Area not under any Sub-district,Chennai,Suburbs,600028,Nandanam,Nandanam,1083,Less than 5 years old
TAMILNADU,Chennai,Area not under any Sub-district,Chennai,Suburbs,600018,Abhiramapuram,Demonte Colony,672,Private Constructed
TAMILNADU,Chennai,Area not under any Sub-district,Chennai,Suburbs,600018,Alwarpet,Austin Nagar,79,Govt Constructed
TAMILNADU,Chennai,Area not under any Sub-district,Chennai,Suburbs,600028,Nandanam,Nandanam,1083,Apartment
TAMILNADU,Chennai,Area not under any Sub-district,Chennai,Suburbs,600028,Nandanam,Nandanam,1083,Private Constructed
TAMILNADU,Chennai,Area not under any Sub-district,Chennai,Suburbs,600028,Raja Annamalai Puram,Thideer Nagar,415,Apartment
TAMILNADU,Chennai,Area not under any Sub-district,Chennai,Suburbs,600028,Nandanam,Nandanam,1083,Private Constructed
TAMILNADU,Chennai,Area not under any Sub-district,Chennai,Suburbs,600028,Raja Annamalai Puram,Thideer Nagar,415,Less than 5 years old
TAMILNADU,Chennai,Area not under any Sub-district,Chennai,Suburbs,600028,Raja Annamalai Puram,Govindaswamy Nagar,419,More then 5 years old
TAMILNADU,Chennai,Area not under any Sub-district,Chennai,Suburbs,600028,Raja Annamalai Puram,Mandavelipakkam,418,Govt Constructed
TAMILNADU,Chennai,Area not under any Sub-district,Chennai,Suburbs,600004,Mylapore,Sankarapuram,838,Govt Constructed
TAMILNADU,Chennai,Area not under any Sub-district,Chennai,Suburbs,600028,Raja Annamalai Puram,Mandavelipakkam,418,Apartment
TAMILNADU,Chennai,Area not under any Sub-district,Chennai,Suburbs,600028,Raja Annamalai Puram,Karpagam Avenue,413,Private Constructed
TAMILNADU,Chennai,Area not under any Sub-district,Chennai,Suburbs,600028,Raja Annamalai Puram,Mandavelipakkam,418,More then 5 years old
TAMILNADU,Chennai,Area not under any Sub-district,Chennai,Suburbs,600028,Raja Annamalai Puram,Karpagam Avenue,413,Govt Constructed
TAMILNADU,Chennai,Area not under any Sub-district,Chennai,Suburbs,600028,Raja Annamalai Puram,Karpagam Avenue,413,Less than 5 years old
TAMILNADU,Chennai,Area not under any Sub-district,Chennai,Suburbs,600028,Raja Annamalai Puram,MRC Nagar,414,Apartment
TAMILNADU,Chennai,Area not under any Sub-district,Chennai,Suburbs,600028,Raja Annamalai Puram,MRC Nagar,414,More then 5 years old
TAMILNADU,Chennai,Area not under any Sub-district,Chennai,Suburbs,600028,Raja Annamalai Puram,MRC Nagar,414,Private Constructed
TAMILNADU,Chennai,Area not under any Sub-district,Chennai,Suburbs,600018,Teynampet,Kasturi Estate,372,Apartment
TAMILNADU,Chennai,Area not under any Sub-district,Chennai,Suburbs,600018,Teynampet,Parthasarathypuram,365,Govt Constructed
TAMILNADU,Chennai,Area not under any Sub-district,Chennai,Suburbs,600018,Teynampet,Kasturi Estate,372,Govt Constructed
TAMILNADU,Chennai,Area not under any Sub-district,Chennai,Suburbs,600018,Teynampet,Parthasarathypuram,365,Villas
TAMILNADU,Chennai,Area not under any Sub-district,Chennai,Suburbs,600018,Teynampet,Kasturi Estate,372,Private Constructed
TAMILNADU,Chennai,Area not under any Sub-district,Chennai,Suburbs,600018,Teynampet,Venus Colony,363,Apartment
TAMILNADU,Chennai,Area not under any Sub-district,Chennai,Suburbs,600018,Teynampet,Parthasarathypuram,365,More then 5 years old
TAMILNADU,Chennai,Area not under any Sub-district,Chennai,Suburbs,600018,Teynampet,Lubdhi Colony,371,Apartment
TAMILNADU,Chennai,Area not under any Sub-district,Chennai,Suburbs,600004,Abhiramapuram,Sriram Colony,667,Less than 5 years old
TAMILNADU,Chennai,Area not under any Sub-district,Chennai,Suburbs,600004,Mylapore,CIT Colony,852,Govt Constructed
TAMILNADU,Chennai,Area not under any Sub-district,Chennai,Suburbs,600004,Abhiramapuram,Sriram Colony,667,Less than 5 years old
TAMILNADU,Chennai,Area not under any Sub-district,Chennai,Suburbs,600018,Abhiramapuram,Abhiramapuram,664,Less than 5 years old
TAMILNADU,Chennai,Area not under any Sub-district,Chennai,Suburbs,600018,Abhiramapuram,Sriram Colony,667,Private Constructed
TAMILNADU,Chennai,Area not under any Sub-district,Chennai,Suburbs,600018,Abhiramapuram,Abhiramapuram,664,Private Constructed
TAMILNADU,Chennai,Area not under any Sub-district,Chennai,Suburbs,600018,Abhiramapuram,Vidya Thirtha Nagar,666,Private Constructed
TAMILNADU,Chennai,Area not under any Sub-district,Chennai,Suburbs,600018,Abhiramapuram,Sriram Colony,667,Govt Constructed
TAMILNADU,Chennai,Area not under any Sub-district,Chennai,Suburbs,600028,Mandavelli,Trustpakkam,110,More then 5 years old
TAMILNADU,Chennai,Area not under any Sub-district,Chennai,Suburbs,600028,Mandavelli,Trustpakkam,110,Apartment
TAMILNADU,Chennai,Area not under any Sub-district,Chennai,Suburbs,600018,Abhiramapuram,Abhiramapuram,664,Less than 5 years old
TAMILNADU,Chennai,Area not under any Sub-district,Chennai,Suburbs,600018,Abhiramapuram,Abhiramapuram,664,Less than 5 years old
TAMILNADU,Chennai,Area not under any Sub-district,Chennai,Suburbs,600028,Abhiramapuram,SBI Colony,665,Apartment
TAMILNADU,Chennai,Area not under any Sub-district,Chennai,Suburbs,600028,Abhiramapuram,SBI Colony,665,Villas
TAMILNADU,Chennai,Area not under any Sub-district,Chennai,Suburbs,600018,Abhiramapuram,Vidya Thirtha Nagar,666,Apartment
TAMILNADU,Chennai,Area not under any Sub-district,Chennai,Suburbs,600018,Abhiramapuram,Vidya Thirtha Nagar,666,Apartment
TAMILNADU,Chennai,Area not under any Sub-district,Chennai,Suburbs,600028,Raja Annamalai Puram,Mandavelipakkam,418,Govt Constructed
TAMILNADU,Chennai,Area not under any Sub-district,Chennai,Suburbs,600028,Raja Annamalai Puram,Mandavelipakkam,418,Villas
TAMILNADU,Chennai,Area not under any Sub-district,Chennai,Suburbs,600004,Mylapore,Quil Thoppu,848,Less than 5 years old
TAMILNADU,Chennai,Area not under any Sub-district,Chennai,Suburbs,600028,Raja Annamalai Puram,Mandavelipakkam,418,Govt Constructed
TAMILNADU,Chennai,Area not under any Sub-district,Chennai,Suburbs,600028,Foreshore Estate,Santhome,725,Apartment
TAMILNADU,Chennai,Area not under any Sub-district,Chennai,Suburbs,600028,Foreshore Estate,Block C,728,Apartment
TAMILNADU,Chennai,Area not under any Sub-district,Chennai,Suburbs,600028,Raja Annamalai Puram,Mandavelipakkam,418,Govt Constructed
TAMILNADU,Chennai,Area not under any Sub-district,Chennai,Suburbs,600028,Foreshore Estate,Block L,727,Less than 5 years old
TAMILNADU,Chennai,Area not under any Sub-district,Chennai,Suburbs,600028,Srinivasa Puram,Srinivasa Puram,113,Private Constructed
TAMILNADU,Chennai,Area not under any Sub-district,Chennai,Suburbs,600028,Srinivasa Puram,Srinivasa Puram,113,Govt Constructed
TAMILNADU,Chennai,Area not under any Sub-district,Chennai,Suburbs,600018,Teynampet,Thiru Vi Ka Kudiyiruppu,366,Private Constructed
TAMILNADU,Chennai,Area not under any Sub-district,Chennai,Suburbs,600018,Teynampet,Thiru Vi Ka Kudiyiruppu,366,Private Constructed
TAMILNADU,Chennai,Area not under any Sub-district,Chennai,Suburbs,600018,Teynampet,Rostrevor Garden,368,Villas
TAMILNADU,Chennai,Area not under any Sub-district,Chennai,Suburbs,600018,Teynampet,Subbarayan Nagar,367,Private Constructed
TAMILNADU,Chennai,Area not under any Sub-district,Chennai,Suburbs,600018,Teynampet,Rostrevor Garden,368,Govt Constructed
TAMILNADU,Chennai,Area not under any Sub-district,Chennai,Suburbs,600018,Teynampet,Subbarayan Nagar,367,More then 5 years old
TAMILNADU,Chennai,Area not under any Sub-district,Chennai,Suburbs,600018,Teynampet,Teynampet,360,More then 5 years old
TAMILNADU,Chennai,Area not under any Sub-district,Chennai,Suburbs,600018,Teynampet,Teynampet,360,Govt Constructed
TAMILNADU,Chennai,Area not under any Sub-district,Chennai,Suburbs,600018,Teynampet,Seethammal Extension,364,Less than 5 years old
TAMILNADU,Chennai,Area not under any Sub-district,Chennai,Suburbs,600018,Teynampet,Seethammal Extension,364,Govt Constructed
TAMILNADU,Chennai,Area not under any Sub-district,Chennai,Suburbs,600018,Alwarpet,Sri Ram Nagar,78,Villas
TAMILNADU,Chennai,Area not under any Sub-district,Chennai,Suburbs,600018,Alwarpet,Sri Ram Nagar,78,Private Constructed
TAMILNADU,Chennai,Area not under any Sub-district,Chennai,Suburbs,600018,Alwarpet,Austin Nagar,79,Private Constructed
TAMILNADU,Chennai,Area not under any Sub-district,Chennai,Suburbs,600028,Nandanam,Nandanam,1083,More then 5 years old
TAMILNADU,Chennai,Area not under any Sub-district,Chennai,Suburbs,600018,Alwarpet,Austin Nagar,79,Private Constructed
TAMILNADU,Chennai,Area not under any Sub-district,Chennai,Suburbs,600028,Nandanam,Nandanam,1083,Less than 5 years old
TAMILNADU,Chennai,Area not under any Sub-district,Chennai,Suburbs,600028,Nandanam,Nandanam,1083,Villas
TAMILNADU,Chennai,Area not under any Sub-district,Chennai,Suburbs,600028,Nandanam,Nandanam,1083,Villas
TAMILNADU,Chennai,Area not under any Sub-district,Chennai,Suburbs,600028,Raja Annamalai Puram,Thideer Nagar,415,Private Constructed
TAMILNADU,Chennai,Area not under any Sub-district,Chennai,Suburbs,600028,Raja Annamalai Puram,South Kesavaperumalpuram,417,Govt Constructed
TAMILNADU,Chennai,Area not under any Sub-district,Chennai,Suburbs,600028,Raja Annamalai Puram,South Kesavaperumalpuram,417,Apartment
TAMILNADU,Chennai,Area not under any Sub-district,Chennai,Suburbs,600018,Teynampet,Parthasarathypuram,365,Less than 5 years old
TAMILNADU,Chennai,Area not under any Sub-district,Chennai,Suburbs,600018,Teynampet,Parthasarathypuram,365,Govt Constructed
TAMILNADU,Chennai,Area not under any Sub-district,Chennai,Suburbs,600004,Mylapore,CIT Colony,852,Govt Constructed
TAMILNADU,Chennai,Area not under any Sub-district,Chennai,Suburbs,600004,Mylapore,CIT Colony,852,Govt Constructed
TAMILNADU,Chennai,Area not under any Sub-district,Chennai,Suburbs,600018,Abhiramapuram,Abhiramapuram,664,Less than 5 years old
TAMILNADU,Chennai,Area not under any Sub-district,Chennai,Suburbs,600004,Abhiramapuram,Anandapuram Puram,668,Govt Constructed
TAMILNADU,Chennai,Area not under any Sub-district,Chennai,Suburbs,600018,Abhiramapuram,Abhiramapuram,664,Apartment
TAMILNADU,Chennai,Area not under any Sub-district,Chennai,Suburbs,600028,Mandavelli,Trustpakkam,110,Govt Constructed
TAMILNADU,Chennai,Area not under any Sub-district,Chennai,Suburbs,600028,Mandavelli,Trustpakkam,110,Apartment
TAMILNADU,Chennai,Area not under any Sub-district,Chennai,Suburbs,600018,Abhiramapuram,Abhiramapuram,664,More then 5 years old
TAMILNADU,Chennai,Area not under any Sub-district,Chennai,Suburbs,600018,Abhiramapuram,Abhiramapuram,664,Private Constructed
TAMILNADU,Chennai,Area not under any Sub-district,Chennai,Suburbs,600028,Mandavelli,Trustpakkam,110,Govt Constructed
TAMILNADU,Chennai,Area not under any Sub-district,Chennai,Suburbs,600028,Raja Annamalai Puram,Ramakrishna Nagar,408,Apartment
TAMILNADU,Chennai,Area not under any Sub-district,Chennai,Suburbs,600028,Raja Annamalai Puram,Govindaswamy Nagar,419,Less than 5 years old
TAMILNADU,Chennai,Area not under any Sub-district,Chennai,Suburbs,600028,Raja Annamalai Puram,Ramakrishna Nagar,408,Govt Constructed
TAMILNADU,Chennai,Area not under any Sub-district,Chennai,Suburbs,600028,Raja Annamalai Puram,Krisknapuri,411,Govt Constructed
TAMILNADU,Chennai,Area not under any Sub-district,Chennai,Suburbs,600028,Raja Annamalai Puram,Govindaswamy Nagar,419,Govt Constructed
TAMILNADU,Chennai,Area not under any Sub-district,Chennai,Suburbs,600028,Raja Annamalai Puram,Bishop Garden,406,Apartment
TAMILNADU,Chennai,Area not under any Sub-district,Chennai,Suburbs,600028,Raja Annamalai Puram,May Flower Garden,407,Less than 5 years old
TAMILNADU,Chennai,Area not under any Sub-district,Chennai,Suburbs,600028,Raja Annamalai Puram,Krisknapuri,411,Govt Constructed
TAMILNADU,Chennai,Area not under any Sub-district,Chennai,Suburbs,600028,Raja Annamalai Puram,Bishop Garden,406,Private Constructed
TAMILNADU,Chennai,Area not under any Sub-district,Chennai,Suburbs,600028,Raja Annamalai Puram,Annai Sathya Nagar,420,Apartment
TAMILNADU,Chennai,Area not under any Sub-district,Chennai,Suburbs,600028,Raja Annamalai Puram,Annai Sathya Nagar,420,Private Constructed
TAMILNADU,Chennai,Area not under any Sub-district,Chennai,Suburbs,600004,Abhiramapuram,East Abhiramapuram,670,Private Constructed
TAMILNADU,Chennai,Area not under any Sub-district,Chennai,Suburbs,600004,Abhiramapuram,Narasimhapuram,671,Private Constructed
TAMILNADU,Chennai,Area not under any Sub-district,Chennai,Suburbs,600004,Abhiramapuram,Narasimhapuram,671,Villas
TAMILNADU,Chennai,Area not under any Sub-district,Chennai,Suburbs,600028,Mandavelli,Mandavelli,109,More then 5 years old
TAMILNADU,Chennai,Area not under any Sub-district,Chennai,Suburbs,600028,Mandavelli,Trustpakkam,110,Govt Constructed
TAMILNADU,Chennai,Area not under any Sub-district,Chennai,Suburbs,600028,Mandavelli,Trustpakkam,110,More then 5 years old
TAMILNADU,Chennai,Area not under any Sub-district,Chennai,Suburbs,600028,Mandavelli,Mandavelli,109,Govt Constructed
TAMILNADU,Chennai,Area not under any Sub-district,Chennai,Suburbs,600028,Raja Annamalai Puram,Ramakrishna Nagar,408,Apartment
TAMILNADU,Chennai,Area not under any Sub-district,Chennai,Suburbs,600028,Raja Annamalai Puram,Ramakrishna Nagar,408,Govt Constructed
TAMILNADU,Chennai,Area not under any Sub-district,Chennai,Suburbs,600028,Raja Annamalai Puram,May Flower Garden,407,Apartment
TAMILNADU,Chennai,Area not under any Sub-district,Chennai,Suburbs,600028,Raja Annamalai Puram,Ramakrishna Nagar,408,Govt Constructed
TAMILNADU,Chennai,Area not under any Sub-district,Chennai,Suburbs,600028,Raja Annamalai Puram,Kamaraj Nagar,410,More then 5 years old
TAMILNADU,Chennai,Area not under any Sub-district,Chennai,Suburbs,600028,Raja Annamalai Puram,KVB Garden,412,Private Constructed
TAMILNADU,Chennai,Area not under any Sub-district,Chennai,Suburbs,600028,Raja Annamalai Puram,State Bank of India Colony,416,Villas
TAMILNADU,Chennai,Area not under any Sub-district,Chennai,Suburbs,600028,Raja Annamalai Puram,State Bank of India Colony,416,Less than 5 years old
TAMILNADU,Chennai,Area not under any Sub-district,Chennai,Suburbs,600028,Raja Annamalai Puram,Annai Sathya Nagar,420,More then 5 years old
TAMILNADU,Chennai,Area not under any Sub-district,Chennai,Suburbs,600004,Santhome,Dummingkuppam,111,Private Constructed
TAMILNADU,Chennai,Area not under any Sub-district,Chennai,Suburbs,600028,Foreshore Estate,Santhome,725,More then 5 years old
TAMILNADU,Chennai,Area not under any Sub-district,Chennai,Suburbs,600004,Mylapore,Quil Thoppu,848,More then 5 years old
TAMILNADU,Chennai,Area not under any Sub-district,Chennai,Suburbs,600028,Foreshore Estate,Santhome,725,Apartment
TAMILNADU,Chennai,Area not under any Sub-district,Chennai,Suburbs,600028,Foreshore Estate,Block AT,714,Private Constructed
TAMILNADU,Chennai,Area not under any Sub-district,Chennai,Suburbs,600028,Srinivasa Puram,Srinivasa Puram,113,Villas
TAMILNADU,Chennai,Area not under any Sub-district,Chennai,Suburbs,600028,Foreshore Estate,Block AT,714,More then 5 years old
TAMILNADU,Chennai,Area not under any Sub-district,Chennai,Suburbs,600028,Srinivasa Puram,Srinivasa Puram,113,Villas
TAMILNADU,Chennai,Area not under any Sub-district,Chennai,Suburbs,600028,Srinivasa Puram,Srinivasa Puram,113,Private Constructed
TAMILNADU,Chennai,Area not under any Sub-district,Chennai,Suburbs,600028,Srinivasa Puram,Srinivasa Puram,113,Less than 5 years old
TAMILNADU,Chennai,Area not under any Sub-district,Chennai,Suburbs,600004,Mylapore,Sankarapuram,838,Private Constructed
TAMILNADU,Chennai,Area not under any Sub-district,Chennai,Suburbs,600028,Raja Annamalai Puram,Mandavelipakkam,418,Villas
TAMILNADU,Chennai,Area not under any Sub-district,Chennai,Suburbs,600028,Raja Annamalai Puram,Raja Annamalai Puram,405,More then 5 years old
TAMILNADU,Chennai,Area not under any Sub-district,Chennai,Suburbs,600028,Raja Annamalai Puram,Karpagam Avenue,413,More then 5 years old
TAMILNADU,Chennai,Area not under any Sub-district,Chennai,Suburbs,600028,Raja Annamalai Puram,Mandavelipakkam,418,Less than 5 years old
TAMILNADU,Chennai,Area not under any Sub-district,Chennai,Suburbs,600028,Raja Annamalai Puram,Karpagam Avenue,413,Govt Constructed
TAMILNADU,Chennai,Area not under any Sub-district,Chennai,Suburbs,600028,Raja Annamalai Puram,Karpagam Avenue,413,Govt Constructed
TAMILNADU,Chennai,Area not under any Sub-district,Chennai,Suburbs,600028,Raja Annamalai Puram,MRC Nagar,414,Private Constructed
TAMILNADU,Chennai,Area not under any Sub-district,Chennai,Suburbs,600028,Raja Annamalai Puram,State Bank of India Colony,416,Apartment
TAMILNADU,Chennai,Area not under any Sub-district,Chennai,Suburbs,600004,Santhome,Dummingkuppam,111,More then 5 years old
TAMILNADU,Chennai,Area not under any Sub-district,Chennai,Suburbs,600028,Foreshore Estate,Foreshore Estate,708,Apartment
TAMILNADU,Chennai,Area not under any Sub-district,Chennai,Suburbs,600028,Foreshore Estate,Foreshore Estate,708,Private Constructed
TAMILNADU,Chennai,Area not under any Sub-district,Chennai,Suburbs,600028,Raja Annamalai Puram,Mandavelipakkam,418,Apartment
TAMILNADU,Chennai,Area not under any Sub-district,Chennai,Suburbs,600004,Mylapore,Sankarapuram,838,Private Constructed
TAMILNADU,Chennai,Area not under any Sub-district,Chennai,Suburbs,600028,Raja Annamalai Puram,Mandavelipakkam,418,Private Constructed
TAMILNADU,Chennai,Area not under any Sub-district,Chennai,Suburbs,600028,Raja Annamalai Puram,Karpagam Avenue,413,More then 5 years old
TAMILNADU,Chennai,Area not under any Sub-district,Chennai,Suburbs,600028,Raja Annamalai Puram,MRC Nagar,414,Private Constructed
TAMILNADU,Chennai,Area not under any Sub-district,Chennai,Suburbs,600028,Raja Annamalai Puram,MRC Nagar,414,Govt Constructed
TAMILNADU,Chennai,Area not under any Sub-district,Chennai,Suburbs,600028,Raja Annamalai Puram,MRC Nagar,414,Villas
ANDHRA PRADESH,Hyderabad,Tirumalagiri,Secunderabad Cantt. Board,Outskirts,500011,Bowenpally,Parkview Enclave,3024,Private Constructed
ANDHRA PRADESH,Hyderabad,Tirumalagiri,Secunderabad Cantt. Board,Outskirts,500011,Bowenpally,Parkview Enclave,3024,More then 5 years old
ANDHRA PRADESH,Hyderabad,Tirumalagiri,Secunderabad Cantt. Board,Outskirts,500011,Bowenpally,Anand Nagar,3133,Private Constructed
ANDHRA PRADESH,Hyderabad,Tirumalagiri,Secunderabad Cantt. Board,Outskirts,500011,Bowenpally,Anand Nagar,3133,More then 5 years old
ANDHRA PRADESH,Hyderabad,Tirumalagiri,Secunderabad Cantt. Board,Outskirts,500011,Bowenpally,New Bowenpally,3136,Less than 5 years old
ANDHRA PRADESH,Hyderabad,Tirumalagiri,Secunderabad Cantt. Board,Outskirts,500009,Bowenpally,Napier Lines,3132,More then 5 years old
ANDHRA PRADESH,Hyderabad,Tirumalagiri,Secunderabad Cantt. Board,Outskirts,500009,Bowenpally,Napier Lines,3132,Govt Constructed
ANDHRA PRADESH,Hyderabad,Tirumalagiri,Secunderabad Cantt. Board,Outskirts,500009,Bowenpally,Napier Lines,3132,Less than 5 years old
ANDHRA PRADESH,Hyderabad,Tirumalagiri,Secunderabad Cantt. Board,Outskirts,500009,Bowenpally,Tar Bund,3020,Villas
ANDHRA PRADESH,Hyderabad,Tirumalagiri,Secunderabad Cantt. Board,Outskirts,500009,Bowenpally,Napier Lines,3132,More then 5 years old
ANDHRA PRADESH,Hyderabad,Tirumalagiri,Secunderabad Cantt. Board,Outskirts,500009,Bowenpally,Tar Bund,3020,Less than 5 years old
ANDHRA PRADESH,Hyderabad,Tirumalagiri,Secunderabad Cantt. Board,Outskirts,500011,Bowenpally,Parkview Enclave,3024,Govt Constructed
ANDHRA PRADESH,Hyderabad,Tirumalagiri,Secunderabad Cantt. Board,Outskirts,500011,Bowenpally,"SAIL Employees Colony, SAIL Colony",3053,Villas
ANDHRA PRADESH,Hyderabad,Tirumalagiri,Secunderabad Cantt. Board,Outskirts,500009,Bowenpally,Manovikas Nagar,3140,Less than 5 years old
ANDHRA PRADESH,Hyderabad,Tirumalagiri,Secunderabad Cantt. Board,Outskirts,500011,Bowenpally,Icrisat Colony,3139,More then 5 years old
ANDHRA PRADESH,Hyderabad,Tirumalagiri,Secunderabad Cantt. Board,Outskirts,500009,Bowenpally,Kummu Gutta,3146,Private Constructed
ANDHRA PRADESH,Hyderabad,Tirumalagiri,Secunderabad Cantt. Board,Outskirts,500009,Bowenpally,Tar Bund,3020,Apartment
ANDHRA PRADESH,Hyderabad,Tirumalagiri,Secunderabad Cantt. Board,Outskirts,500009,Bowenpally,Kummu Gutta,3146,Villas
ANDHRA PRADESH,Hyderabad,Tirumalagiri,Secunderabad Cantt. Board,Outskirts,500009,Bowenpally,Kummu Gutta,3146,Private Constructed
ANDHRA PRADESH,Hyderabad,Tirumalagiri,Secunderabad Cantt. Board,Outskirts,500009,Bowenpally,Manovikas Nagar,3140,Apartment
ANDHRA PRADESH,Hyderabad,Tirumalagiri,Secunderabad Cantt. Board,Outskirts,500009,Bowenpally,"Madhupala Enclave, Manovikas Nagar",3055,Govt Constructed
ANDHRA PRADESH,Hyderabad,Tirumalagiri,Secunderabad Cantt. Board,Outskirts,500009,Bowenpally,Sikh Village,3191,More then 5 years old
ANDHRA PRADESH,Hyderabad,Tirumalagiri,Secunderabad Cantt. Board,Outskirts,500009,Bowenpally,Kummu Gutta,3146,Villas
ANDHRA PRADESH,Hyderabad,Tirumalagiri,Secunderabad Cantt. Board,Outskirts,500009,Bowenpally,Sikh Village,3191,Private Constructed
ANDHRA PRADESH,Hyderabad,Tirumalagiri,Secunderabad Cantt. Board,Outskirts,500009,Bowenpally,Kummu Gutta,3146,Private Constructed
ANDHRA PRADESH,Hyderabad,Tirumalagiri,Secunderabad Cantt. Board,Outskirts,500009,Bowenpally,Kummu Gutta,3146,Govt Constructed
ANDHRA PRADESH,Hyderabad,Tirumalagiri,Secunderabad Cantt. Board,Outskirts,500009,Gun Rock Enclave,Mudfort,3148,Govt Constructed
ANDHRA PRADESH,Hyderabad,Tirumalagiri,Secunderabad Cantt. Board,Outskirts,500009,Gun Rock Enclave,Mudfort,3148,Govt Constructed
ANDHRA PRADESH,Hyderabad,Tirumalagiri,Secunderabad Cantt. Board,Outskirts,500011,Bowenpally,"Sri Sai Apartment, SBI Colony",3051,More then 5 years old
ANDHRA PRADESH,Hyderabad,Tirumalagiri,Secunderabad Cantt. Board,Outskirts,500009,Bowenpally,"Jupiter Colony, Radha Swamy Colony",3048,Less than 5 years old
ANDHRA PRADESH,Hyderabad,Tirumalagiri,Secunderabad Cantt. Board,Outskirts,500009,Bowenpally,Manovikas Nagar,3140,Apartment
ANDHRA PRADESH,Hyderabad,Tirumalagiri,Secunderabad Cantt. Board,Outskirts,500009,Bowenpally,Kiran Enclave,3138,Govt Constructed
ANDHRA PRADESH,Hyderabad,Tirumalagiri,Secunderabad Cantt. Board,Outskirts,500009,Bowenpally,Kiran Enclave,3138,Govt Constructed
ANDHRA PRADESH,Hyderabad,Tirumalagiri,Secunderabad Cantt. Board,Outskirts,500009,Bowenpally,Sikh Village,3191,Govt Constructed
ANDHRA PRADESH,Hyderabad,Tirumalagiri,Secunderabad Cantt. Board,Outskirts,500009,Gun Rock Enclave,Wahab Nagar,3212,More then 5 years old
ANDHRA PRADESH,Hyderabad,Tirumalagiri,Secunderabad Cantt. Board,Outskirts,500009,Bowenpally,Sikh Village,3191,Apartment
ANDHRA PRADESH,Hyderabad,Tirumalagiri,Secunderabad Cantt. Board,Outskirts,500009,Gun Rock Enclave,Wahab Nagar,3212,Govt Constructed
ANDHRA PRADESH,Hyderabad,Tirumalagiri,Secunderabad Cantt. Board,Outskirts,500009,Bowenpally,Kummu Gutta,3146,Apartment
ANDHRA PRADESH,Hyderabad,Tirumalagiri,Secunderabad Cantt. Board,Outskirts,500009,Gun Rock Enclave,Mudfort,3148,More then 5 years old
ANDHRA PRADESH,Hyderabad,Tirumalagiri,Secunderabad Cantt. Board,Outskirts,500009,Gun Rock Enclave,Mudfort,3148,Govt Constructed
ANDHRA PRADESH,Hyderabad,Tirumalagiri,Secunderabad Cantt. Board,Outskirts,500009,Gun Rock Enclave,Mudfort,3148,More then 5 years old
ANDHRA PRADESH,Hyderabad,Tirumalagiri,Secunderabad Cantt. Board,Outskirts,500009,Gun Rock Enclave,Mudfort,3148,Villas
ANDHRA PRADESH,Hyderabad,Tirumalagiri,Secunderabad Cantt. Board,Outskirts,500009,Bowenpally,Radha Swamy Colony,3049,Private Constructed
ANDHRA PRADESH,Hyderabad,Tirumalagiri,Secunderabad Cantt. Board,Outskirts,500009,Bowenpally,"Jupiter Colony, Radha Swamy Colony",3048,Govt Constructed
ANDHRA PRADESH,Hyderabad,Tirumalagiri,Secunderabad Cantt. Board,Outskirts,500009,Bowenpally,Radha Swamy Colony,3049,Private Constructed
ANDHRA PRADESH,Hyderabad,Tirumalagiri,Secunderabad Cantt. Board,Outskirts,500009,Karkhana,Vahini nagar,3046,Less than 5 years old
ANDHRA PRADESH,Hyderabad,Tirumalagiri,Secunderabad Cantt. Board,Outskirts,500009,Karkhana,"AWHO Colony, Vahini nagar",3047,Govt Constructed
ANDHRA PRADESH,Hyderabad,Tirumalagiri,Secunderabad Cantt. Board,Outskirts,500009,Bowenpally,"Jupiter Colony, Radha Swamy Colony",3048,Private Constructed
ANDHRA PRADESH,Hyderabad,Tirumalagiri,Secunderabad Cantt. Board,Outskirts,500009,Karkhana,"AWHO Colony, Vahini nagar",3047,Govt Constructed
ANDHRA PRADESH,Hyderabad,Tirumalagiri,Secunderabad Cantt. Board,Outskirts,500009,Gun Rock Enclave,Sitaram Nagar,3080,Apartment
ANDHRA PRADESH,Hyderabad,Tirumalagiri,Secunderabad Cantt. Board,Outskirts,500009,Gun Rock Enclave,Sitaram Nagar,3080,Private Constructed
ANDHRA PRADESH,Hyderabad,Tirumalagiri,Secunderabad Cantt. Board,Outskirts,500009,Gun Rock Enclave,Wahab Nagar,3212,Govt Constructed
ANDHRA PRADESH,Hyderabad,Tirumalagiri,Secunderabad Cantt. Board,Outskirts,500009,Gun Rock Enclave,Mudfort,3148,More then 5 years old
ANDHRA PRADESH,Hyderabad,Tirumalagiri,Secunderabad Cantt. Board,Outskirts,500009,Gun Rock Enclave,Wahab Nagar,3212,Apartment
ANDHRA PRADESH,Hyderabad,Tirumalagiri,Secunderabad Cantt. Board,Outskirts,500009,Gun Rock Enclave,Mudfort,3148,Govt Constructed
ANDHRA PRADESH,Hyderabad,Tirumalagiri,Secunderabad Cantt. Board,Outskirts,500009,Gun Rock Enclave,Mudfort,3148,More then 5 years old
ANDHRA PRADESH,Hyderabad,Tirumalagiri,Secunderabad Cantt. Board,Outskirts,500009,Gun Rock Enclave,Mudfort,3148,Less than 5 years old
ANDHRA PRADESH,Hyderabad,Tirumalagiri,Secunderabad Cantt. Board,Outskirts,500009,Gun Rock Enclave,Mudfort,3148,Govt Constructed
ANDHRA PRADESH,Hyderabad,Tirumalagiri,Secunderabad Cantt. Board,Outskirts,500009,Karkhana,Surya nagar,3045,Less than 5 years old
ANDHRA PRADESH,Hyderabad,Tirumalagiri,Secunderabad Cantt. Board,Outskirts,500009,Bowenpally,"Rail Enclave, Radha Swamy Colony",3050,More then 5 years old
ANDHRA PRADESH,Hyderabad,Tirumalagiri,Secunderabad Cantt. Board,Outskirts,500009,Karkhana,Surya nagar,3045,Private Constructed
ANDHRA PRADESH,Hyderabad,Tirumalagiri,Secunderabad Cantt. Board,Outskirts,500009,Karkhana,Vahini nagar,3046,More then 5 years old
ANDHRA PRADESH,Hyderabad,Tirumalagiri,Secunderabad Cantt. Board,Outskirts,500009,Karkhana,Vahini nagar,3046,Less than 5 years old
ANDHRA PRADESH,Hyderabad,Tirumalagiri,Secunderabad Cantt. Board,Outskirts,500009,Karkhana,Vahini nagar,3046,Villas
ANDHRA PRADESH,Hyderabad,Tirumalagiri,Secunderabad Cantt. Board,Outskirts,500009,Karkhana,"AWHO Colony, Vahini nagar",3047,Govt Constructed
ANDHRA PRADESH,Hyderabad,Tirumalagiri,Secunderabad Cantt. Board,Outskirts,500009,Gun Rock Enclave,Sitaram Nagar,3080,Private Constructed
ANDHRA PRADESH,Hyderabad,Tirumalagiri,Secunderabad Cantt. Board,Outskirts,500009,Gun Rock Enclave,Sitaram Nagar,3080,Less than 5 years old
ANDHRA PRADESH,Hyderabad,Tirumalagiri,Secunderabad Cantt. Board,Outskirts,500009,Gun Rock Enclave,Gun Rock Enclave,3192,More then 5 years old
ANDHRA PRADESH,Hyderabad,Tirumalagiri,Secunderabad Cantt. Board,Outskirts,500009,Gun Rock Enclave,Gun Rock Enclave,3192,More then 5 years old
ANDHRA PRADESH,Hyderabad,Tirumalagiri,Secunderabad Cantt. Board,Outskirts,500009,Gun Rock Enclave,Wahab Nagar,3212,Private Constructed
ANDHRA PRADESH,Hyderabad,Tirumalagiri,Secunderabad Cantt. Board,Outskirts,500009,Gun Rock Enclave,Mudfort,3148,Apartment
ANDHRA PRADESH,Hyderabad,Tirumalagiri,Secunderabad Cantt. Board,Outskirts,500009,Gun Rock Enclave,Mudfort,3148,More then 5 years old
ANDHRA PRADESH,Hyderabad,Tirumalagiri,Secunderabad Cantt. Board,Outskirts,500009,Gun Rock Enclave,Mudfort,3148,Govt Constructed
ANDHRA PRADESH,Hyderabad,Tirumalagiri,Secunderabad Cantt. Board,Outskirts,500009,Gun Rock Enclave,Mudfort,3148,Govt Constructed
ANDHRA PRADESH,Hyderabad,Tirumalagiri,Secunderabad Cantt. Board,Outskirts,500009,Karkhana,Surya nagar,3045,Private Constructed
ANDHRA PRADESH,Hyderabad,Tirumalagiri,Secunderabad Cantt. Board,Outskirts,500009,Karkhana,Surya nagar,3045,Apartment
ANDHRA PRADESH,Hyderabad,Tirumalagiri,Secunderabad Cantt. Board,Outskirts,500009,Karkhana,Surya nagar,3045,More then 5 years old
ANDHRA PRADESH,Hyderabad,Tirumalagiri,Secunderabad Cantt. Board,Outskirts,500009,Karkhana,Surya nagar,3045,More then 5 years old
ANDHRA PRADESH,Hyderabad,Tirumalagiri,Secunderabad Cantt. Board,Outskirts,500009,Karkhana,Hyderabad Asbestos Staff Colony,3081,Less than 5 years old
ANDHRA PRADESH,Hyderabad,Tirumalagiri,Secunderabad Cantt. Board,Outskirts,500009,Gun Rock Enclave,Gun Rock Enclave,3192,Less than 5 years old
ANDHRA PRADESH,Hyderabad,Tirumalagiri,Secunderabad Cantt. Board,Outskirts,500009,Karkhana,Hyderabad Asbestos Staff Colony,3081,More then 5 years old
ANDHRA PRADESH,Hyderabad,Tirumalagiri,Secunderabad Cantt. Board,Outskirts,500009,Gun Rock Enclave,Gun Rock Enclave,3192,Govt Constructed
ANDHRA PRADESH,Hyderabad,Tirumalagiri,Secunderabad Cantt. Board,Outskirts,500009,Karkhana,P & T Colony,3058,More then 5 years old
ANDHRA PRADESH,Hyderabad,Tirumalagiri,Secunderabad Cantt. Board,Outskirts,500009,Karkhana,"Sri Ram Enclave, P & T Colony",3147,Apartment
ANDHRA PRADESH,Hyderabad,Tirumalagiri,Secunderabad Cantt. Board,Outskirts,500009,Karkhana,P & T Colony,3058,Apartment
ANDHRA PRADESH,Hyderabad,Tirumalagiri,Secunderabad Cantt. Board,Outskirts,500009,Karkhana,Vikampuri,3141,Private Constructed
ANDHRA PRADESH,Hyderabad,Tirumalagiri,Secunderabad Cantt. Board,Outskirts,500009,Karkhana,Surya nagar,3045,Villas
ANDHRA PRADESH,Hyderabad,Tirumalagiri,Secunderabad Cantt. Board,Outskirts,500009,Karkhana,Kousalya Enclave,3025,Less than 5 years old
ANDHRA PRADESH,Hyderabad,Tirumalagiri,Secunderabad Cantt. Board,Outskirts,500009,Karkhana,Surya nagar,3045,Less than 5 years old
ANDHRA PRADESH,Hyderabad,Tirumalagiri,Secunderabad Cantt. Board,Outskirts,500009,Karkhana,Hyderabad Asbestos Staff Colony,3081,Villas
ANDHRA PRADESH,Hyderabad,Tirumalagiri,Secunderabad Cantt. Board,Outskirts,500009,Karkhana,Vasavi Nagar,3118,Private Constructed
ANDHRA PRADESH,Hyderabad,Tirumalagiri,Secunderabad Cantt. Board,Outskirts,500009,Karkhana,R & D Colony,3015,Less than 5 years old
ANDHRA PRADESH,Hyderabad,Tirumalagiri,Secunderabad Cantt. Board,Outskirts,500009,Karkhana,Hyderabad Asbestos Staff Colony,3081,Private Constructed
ANDHRA PRADESH,Hyderabad,Tirumalagiri,Secunderabad Cantt. Board,Outskirts,500009,Karkhana,Vikampuri,3141,Govt Constructed
ANDHRA PRADESH,Hyderabad,Tirumalagiri,Secunderabad Cantt. Board,Outskirts,500009,Karkhana,"Sri Ram Enclave, P & T Colony",3147,Apartment
ANDHRA PRADESH,Hyderabad,Tirumalagiri,Secunderabad Cantt. Board,Outskirts,500026,West Marredpally,Picket,3026,More then 5 years old
ANDHRA PRADESH,Hyderabad,Tirumalagiri,Secunderabad Cantt. Board,Outskirts,500009,Karkhana,Vikampuri,3141,Less than 5 years old
ANDHRA PRADESH,Hyderabad,Tirumalagiri,Secunderabad Cantt. Board,Outskirts,500009,Karkhana,Kousalya Enclave,3025,Less than 5 years old
ANDHRA PRADESH,Hyderabad,Tirumalagiri,Secunderabad Cantt. Board,Outskirts,500009,Karkhana,Kousalya Enclave,3025,Govt Constructed
ANDHRA PRADESH,Hyderabad,Tirumalagiri,Secunderabad Cantt. Board,Outskirts,500009,Karkhana,New Vasavi Nagar,3117,Villas
ANDHRA PRADESH,Hyderabad,Tirumalagiri,Secunderabad Cantt. Board,Outskirts,500009,Karkhana,Surya nagar,3045,Private Constructed
ANDHRA PRADESH,Hyderabad,Tirumalagiri,Secunderabad Cantt. Board,Outskirts,500009,Karkhana,New Vasavi Nagar,3117,Less than 5 years old
ANDHRA PRADESH,Hyderabad,Tirumalagiri,Secunderabad Cantt. Board,Outskirts,500009,Karkhana,Vasavi Nagar,3118,More then 5 years old
ANDHRA PRADESH,Hyderabad,Tirumalagiri,Secunderabad Cantt. Board,Outskirts,500009,Karkhana,Vasavi Nagar,3118,Private Constructed
ANDHRA PRADESH,Hyderabad,Tirumalagiri,Secunderabad Cantt. Board,Outskirts,500009,Karkhana,Kakaguda,3142,Apartment
ANDHRA PRADESH,Hyderabad,Tirumalagiri,Secunderabad Cantt. Board,Outskirts,500009,Karkhana,R & D Colony,3015,Private Constructed
ANDHRA PRADESH,Hyderabad,Tirumalagiri,Secunderabad Cantt. Board,Outskirts,500009,Karkhana,Gruhalaxmi Colony,3074,Private Constructed
ANDHRA PRADESH,Hyderabad,Tirumalagiri,Secunderabad Cantt. Board,Outskirts,500009,Karkhana,Gruhalaxmi Colony,3074,More then 5 years old
ANDHRA PRADESH,Hyderabad,Tirumalagiri,Secunderabad Cantt. Board,Outskirts,500009,Karkhana,Vikampuri,3141,More then 5 years old
ANDHRA PRADESH,Hyderabad,Tirumalagiri,Secunderabad Cantt. Board,Outskirts,500009,Karkhana,Vikampuri,3141,Private Constructed
ANDHRA PRADESH,Hyderabad,Tirumalagiri,Secunderabad Cantt. Board,Outskirts,500015,Trimulgherry,Hanuman Temple Complex,3035,Apartment
ANDHRA PRADESH,Hyderabad,Tirumalagiri,Secunderabad Cantt. Board,Outskirts,500009,Karkhana,New Vasavi Nagar,3117,Private Constructed
ANDHRA PRADESH,Hyderabad,Tirumalagiri,Secunderabad Cantt. Board,Outskirts,500009,Karkhana,"Balaji Colony, Dad Enclave",3073,Apartment
ANDHRA PRADESH,Hyderabad,Tirumalagiri,Secunderabad Cantt. Board,Outskirts,500009,Karkhana,Dad Enclave,3116,Villas
ANDHRA PRADESH,Hyderabad,Tirumalagiri,Secunderabad Cantt. Board,Outskirts,500009,Karkhana,New Vasavi Nagar,3117,Less than 5 years old
ANDHRA PRADESH,Hyderabad,Tirumalagiri,Secunderabad Cantt. Board,Outskirts,500009,Karkhana,Joyti Colony,3115,Apartment
ANDHRA PRADESH,Hyderabad,Tirumalagiri,Secunderabad Cantt. Board,Outskirts,500009,Karkhana,Kakaguda,3142,Private Constructed
ANDHRA PRADESH,Hyderabad,Tirumalagiri,Secunderabad Cantt. Board,Outskirts,500009,Karkhana,Brooke Bond Colony,3036,Apartment
ANDHRA PRADESH,Hyderabad,Tirumalagiri,Secunderabad Cantt. Board,Outskirts,500009,Karkhana,"Shangir Apartment, Theograj Nagar",3071,More then 5 years old
ANDHRA PRADESH,Hyderabad,Tirumalagiri,Secunderabad Cantt. Board,Outskirts,500009,Karkhana,Gruhalaxmi Colony,3074,Govt Constructed
ANDHRA PRADESH,Hyderabad,Tirumalagiri,Secunderabad Cantt. Board,Outskirts,500009,Karkhana,Kakaguda,3142,More then 5 years old
ANDHRA PRADESH,Hyderabad,Tirumalagiri,Secunderabad Cantt. Board,Outskirts,500026,West Marredpally,Krishnapuri,3027,Less than 5 years old
ANDHRA PRADESH,Hyderabad,Tirumalagiri,Secunderabad Cantt. Board,Outskirts,500009,Karkhana,"Gayatri Residency, Ishaq Colony",3072,Villas
ANDHRA PRADESH,Hyderabad,Tirumalagiri,Secunderabad Cantt. Board,Outskirts,500009,Karkhana,Ishaq Colony,3082,Less than 5 years old
ANDHRA PRADESH,Hyderabad,Tirumalagiri,Secunderabad Cantt. Board,Outskirts,500015,Trimulgherry,Hanuman Temple Complex,3035,Govt Constructed
ANDHRA PRADESH,Hyderabad,Tirumalagiri,Secunderabad Cantt. Board,Outskirts,500015,Trimulgherry,Hanuman Temple Complex,3035,Apartment
ANDHRA PRADESH,Hyderabad,Tirumalagiri,Secunderabad Cantt. Board,Outskirts,500009,Karkhana,Karkhana,3037,Private Constructed
ANDHRA PRADESH,Hyderabad,Tirumalagiri,Secunderabad Cantt. Board,Outskirts,500009,Karkhana,Dad Enclave,3116,Less than 5 years old
ANDHRA PRADESH,Hyderabad,Tirumalagiri,Secunderabad Cantt. Board,Outskirts,500009,Karkhana,Joyti Colony,3115,Less than 5 years old
ANDHRA PRADESH,Hyderabad,Tirumalagiri,Secunderabad Cantt. Board,Outskirts,500009,Karkhana,Brooke Bond Colony,3036,Govt Constructed
ANDHRA PRADESH,Hyderabad,Tirumalagiri,Secunderabad Cantt. Board,Outskirts,500026,West Marredpally,RK Nagar,3018,Apartment
ANDHRA PRADESH,Hyderabad,Tirumalagiri,Secunderabad Cantt. Board,Outskirts,500026,West Marredpally,Krishnapuri,3027,Villas
ANDHRA PRADESH,Hyderabad,Tirumalagiri,Secunderabad Cantt. Board,Outskirts,500009,Karkhana,Karkhana,3037,Villas
ANDHRA PRADESH,Hyderabad,Tirumalagiri,Secunderabad Cantt. Board,Outskirts,500026,West Marredpally,"Rukmini Devi Colony, Mahatma Gandhi Nagar",3066,Apartment
ANDHRA PRADESH,Hyderabad,Tirumalagiri,Secunderabad Cantt. Board,Outskirts,500026,West Marredpally,Simhapuri Colony,3028,Less than 5 years old
Maharashtra,Mumbai Suburban,Area not under any Sub-district,Mumbai,Suburbs,400053,Andheri West,Anand Nagar,1019,Less than 5 years old
Maharashtra,Mumbai Suburban,Area not under any Sub-district,Mumbai,Suburbs,400053,Andheri West,Anand Nagar,1019,More then 5 years old
Maharashtra,Mumbai Suburban,Area not under any Sub-district,Mumbai,Suburbs,400053,Andheri West,Industrial   Area,1183,More then 5 years old
Maharashtra,Mumbai Suburban,Area not under any Sub-district,Mumbai,Suburbs,400053,Andheri West,Model Town,1084,Apartment
Maharashtra,Mumbai Suburban,Area not under any Sub-district,Mumbai,Suburbs,400061,Andheri West,"Joseph Patel   Wadi, Versova",1150,More then 5 years old
Maharashtra,Mumbai Suburban,Area not under any Sub-district,Mumbai,Suburbs,400053,Andheri West,Seven Bunglow,875,Apartment
Maharashtra,Mumbai Suburban,Area not under any Sub-district,Mumbai,Suburbs,400053,Andheri West,SV Patel Nagar,1427,Apartment
Maharashtra,Mumbai Suburban,Area not under any Sub-district,Mumbai,Suburbs,400053,Andheri West,Industrial   Area,1087,Villas
Maharashtra,Mumbai Suburban,Area not under any Sub-district,Mumbai,Suburbs,400052,Khar West,Pali Village,1325,Villas
Maharashtra,Mumbai Suburban,Area not under any Sub-district,Mumbai,Suburbs,400050,Bandra West,Santosh Nagar,993,Less than 5 years old
Maharashtra,Mumbai Suburban,Area not under any Sub-district,Mumbai,Suburbs,400050,Bandra West,Bandra rAILWAY STATION,1468,Apartment
Maharashtra,Mumbai Suburban,Area not under any Sub-district,Mumbai,Suburbs,400050,Bandra West,Reclamation,1077,Villas
Maharashtra,Mumbai Suburban,Area not under any Sub-district,Mumbai,Suburbs,400102,Jogeshwari West,Gautam Nagar,891,Apartment
Maharashtra,Mumbai Suburban,Area not under any Sub-district,Mumbai,Suburbs,400058,Jogeshwari West,Prathmesh   Complex,1139,More then 5 years old
Maharashtra,Mumbai Suburban,Area not under any Sub-district,Mumbai,Suburbs,400058,Jogeshwari West,Prathmesh   Complex,1139,Less than 5 years old
Maharashtra,Mumbai Suburban,Area not under any Sub-district,Mumbai,Suburbs,400058,Andheri West,Azad Nagar,863,Private Constructed
Maharashtra,Mumbai Suburban,Area not under any Sub-district,Mumbai,Suburbs,400050,Bandra West,Patkar Blocks,254,Villas
Maharashtra,Mumbai Suburban,Area not under any Sub-district,Mumbai,Suburbs,400050,Bandra West,Reclamation,1077,More then 5 years old
Maharashtra,Mumbai Suburban,Area not under any Sub-district,Mumbai,Suburbs,400050,Bandra West,Patkar Blocks,254,Apartment
Maharashtra,Mumbai Suburban,Area not under any Sub-district,Mumbai,Suburbs,400050,Bandra West,Bandra rAILWAY STATION,1468,More then 5 years old
Maharashtra,Mumbai Suburban,Area not under any Sub-district,Mumbai,Suburbs,400050,Bandra West,Patkar Blocks,254,More then 5 years old
Maharashtra,Mumbai Suburban,Area not under any Sub-district,Mumbai,Suburbs,400102,Jogeshwari West,Shastri Nagar,1112,Villas
Maharashtra,Mumbai Suburban,Area not under any Sub-district,Mumbai,Suburbs,400053,Andheri West,Veer Desai   Industrial Estate,1281,Private Constructed
Maharashtra,Mumbai Suburban,Area not under any Sub-district,Mumbai,Suburbs,400053,Andheri West,Industrial   Area,1087,Private Constructed
Maharashtra,Mumbai Suburban,Area not under any Sub-district,Mumbai,Suburbs,400053,Andheri West,"Mhada Colony,   Azad Nagar",287,Less than 5 years old
Maharashtra,Mumbai Suburban,Area not under any Sub-district,Mumbai,Suburbs,400053,Andheri West,Veer Desai   Industrial Estate,1281,Villas
Maharashtra,Mumbai Suburban,Area not under any Sub-district,Mumbai,Suburbs,400053,Andheri West,Industrial   Area,1087,Less than 5 years old
Maharashtra,Mumbai Suburban,Area not under any Sub-district,Mumbai,Suburbs,400050,Bandra West,Suburbia Mall,1467,Less than 5 years old
Maharashtra,Mumbai Suburban,Area not under any Sub-district,Mumbai,Suburbs,400050,Bandra West,Bandra Talao,1446,More then 5 years old
Maharashtra,Mumbai Suburban,Area not under any Sub-district,Mumbai,Suburbs,400050,Bandra West,Bandra rAILWAY STATION,1468,Less than 5 years old
Maharashtra,Mumbai Suburban,Area not under any Sub-district,Mumbai,Suburbs,400050,Bandra West,Bandra rAILWAY STATION,1468,More then 5 years old
Maharashtra,Mumbai Suburban,Area not under any Sub-district,Mumbai,Suburbs,400050,Bandra West,Bandra rAILWAY STATION,1468,Govt Constructed
Maharashtra,Mumbai Suburban,Area not under any Sub-district,Mumbai,Suburbs,400053,Andheri West,Milat Nagar,991,Govt Constructed
Maharashtra,Mumbai Suburban,Area not under any Sub-district,Mumbai,Suburbs,400053,Andheri West,Lokhandwala   Complex,1351,More then 5 years old
Maharashtra,Mumbai Suburban,Area not under any Sub-district,Mumbai,Suburbs,400053,Andheri West,"Indira Nagar,   Four Bungalows",662,Less than 5 years old
Maharashtra,Mumbai Suburban,Area not under any Sub-district,Mumbai,Suburbs,400053,Andheri West,"New DN Nagar,   D N Nagar",269,Private Constructed
Maharashtra,Mumbai Suburban,Area not under any Sub-district,Mumbai,Suburbs,400049,Andheri West,Kapaswadi,621,Apartment
Maharashtra,Mumbai Suburban,Area not under any Sub-district,Mumbai,Suburbs,400052,Khar West,Ambedkar   Colony,268,Less than 5 years old
Maharashtra,Mumbai Suburban,Area not under any Sub-district,Mumbai,Suburbs,400050,Pali Hills,Union Park,894,More then 5 years old
Maharashtra,Mumbai Suburban,Area not under any Sub-district,Mumbai,Suburbs,400050,Khar West,Rizvi Complex area,1443,Apartment
Maharashtra,Mumbai Suburban,Area not under any Sub-district,Mumbai,Suburbs,400050,Khar West,Rizvi Complex area,1443,Villas
Maharashtra,Mumbai Suburban,Area not under any Sub-district,Mumbai,Suburbs,400050,Bandra West,Ranwar,1285,Apartment
Maharashtra,Mumbai Suburban,Area not under any Sub-district,Mumbai,Suburbs,400053,Andheri West,Mhada Colony,1177,More then 5 years old
Maharashtra,Mumbai Suburban,Area not under any Sub-district,Mumbai,Suburbs,400053,Andheri West,Milat Nagar,991,Less than 5 years old
Maharashtra,Mumbai Suburban,Area not under any Sub-district,Mumbai,Suburbs,400053,Andheri West,"Indian Oil   Nagar, D N Nagar",72,Villas
Maharashtra,Mumbai Suburban,Area not under any Sub-district,Mumbai,Suburbs,400050,Bandra West,Mithun Garden,1449,Private Constructed
Maharashtra,Mumbai Suburban,Area not under any Sub-district,Mumbai,Suburbs,400053,Andheri West,Mhada Colony,1177,Govt Constructed
Maharashtra,Mumbai Suburban,Area not under any Sub-district,Mumbai,Suburbs,400053,Andheri West,Mhada Colony,1177,Private Constructed
Maharashtra,Mumbai Suburban,Area not under any Sub-district,Mumbai,Suburbs,400058,Andheri West,Azad Nagar,863,Private Constructed
Maharashtra,Mumbai Suburban,Area not under any Sub-district,Mumbai,Suburbs,400053,Andheri West,"Shitladevi   Chawl, D N Nagar",99,More then 5 years old
Maharashtra,Mumbai Suburban,Area not under any Sub-district,Mumbai,Suburbs,400053,Andheri West,"Shanti Nagar,   D N Nagar",570,Private Constructed
Maharashtra,Mumbai Suburban,Area not under any Sub-district,Mumbai,Suburbs,400050,Bandra West,Mithun Garden,1449,Villas
Maharashtra,Mumbai Suburban,Area not under any Sub-district,Mumbai,Suburbs,400053,Andheri West,Anand Nagar,1019,Private Constructed
Maharashtra,Mumbai Suburban,Area not under any Sub-district,Mumbai,Suburbs,400053,Andheri West,Anand Nagar,1019,Villas
Maharashtra,Mumbai Suburban,Area not under any Sub-district,Mumbai,Suburbs,400102,Jogeshwari West,Kadam Nagar,61,Apartment
Maharashtra,Mumbai Suburban,Area not under any Sub-district,Mumbai,Suburbs,400050,Bandra West,Bandra Talao,1446,Apartment
Maharashtra,Mumbai Suburban,Area not under any Sub-district,Mumbai,Suburbs,400050,Bandra West,Bhabh Hospital area,1450,Villas
Maharashtra,Mumbai Suburban,Area not under any Sub-district,Mumbai,Suburbs,400050,Bandra West,Bandra Talao,1446,Less than 5 years old
Maharashtra,Mumbai Suburban,Area not under any Sub-district,Mumbai,Suburbs,400050,Bandra West,Santosh Nagar,993,Private Constructed
Maharashtra,Mumbai Suburban,Area not under any Sub-district,Mumbai,Suburbs,400050,Bandra West,Suburbia Mall,1467,More then 5 years old
Maharashtra,Mumbai Suburban,Area not under any Sub-district,Mumbai,Suburbs,400050,Bandra West,Bandra Talao,1446,Govt Constructed
Maharashtra,Mumbai Suburban,Area not under any Sub-district,Mumbai,Suburbs,400052,Khar West,Jaibharat   Society,784,Villas
Maharashtra,Mumbai Suburban,Area not under any Sub-district,Mumbai,Suburbs,400104,Goregaon West,Bhagat   Singh Nagar,959,Private Constructed
Maharashtra,Mumbai Suburban,Area not under any Sub-district,Mumbai,Suburbs,400053,Andheri West,"Jeevan Nagar,   Azad Nagar",244,Govt Constructed
Maharashtra,Mumbai Suburban,Area not under any Sub-district,Mumbai,Suburbs,400050,Bandra West,Mithun Garden,1449,More then 5 years old
Maharashtra,Mumbai Suburban,Area not under any Sub-district,Mumbai,Suburbs,400050,Pali Hills,Auxilium Convent,1466,More then 5 years old
Maharashtra,Mumbai Suburban,Area not under any Sub-district,Mumbai,Suburbs,400050,Bandra West,Mount Mary,1392,More then 5 years old
Maharashtra,Mumbai Suburban,Area not under any Sub-district,Mumbai,Suburbs,400050,Bandra West,Mount Mary,1392,Govt Constructed
Maharashtra,Mumbai Suburban,Area not under any Sub-district,Mumbai,Suburbs,400053,Andheri West,"Phase D,   Shastri Nagar",656,Private Constructed
Maharashtra,Mumbai Suburban,Area not under any Sub-district,Mumbai,Suburbs,400053,Andheri West,Industrial   Area,1183,Apartment
Maharashtra,Mumbai Suburban,Area not under any Sub-district,Mumbai,Suburbs,400053,Andheri West,Bhudargarh Colony,1064,More then 5 years old
Maharashtra,Mumbai Suburban,Area not under any Sub-district,Mumbai,Suburbs,400053,Andheri West,"Manish Nagar,   Four Bungalows",636,Apartment
Maharashtra,Mumbai Suburban,Area not under any Sub-district,Mumbai,Suburbs,400053,Andheri West,"Madhuban Colony,   D N Nagar",257,Less than 5 years old
Maharashtra,Mumbai Suburban,Area not under any Sub-district,Mumbai,Suburbs,400053,Andheri West,"ESIC Nagar,   D N Nagar",123,Less than 5 years old
Maharashtra,Mumbai Suburban,Area not under any Sub-district,Mumbai,Suburbs,400053,Andheri West,"Ganesh Nagar,   D N Nagar",3,Apartment
Maharashtra,Mumbai Suburban,Area not under any Sub-district,Mumbai,Suburbs,400050,Khar West,Rizvi Complex area,1443,Villas
Maharashtra,Mumbai Suburban,Area not under any Sub-district,Mumbai,Suburbs,400050,Bandra West,D Monte Park,1452,Villas
Maharashtra,Mumbai Suburban,Area not under any Sub-district,Mumbai,Suburbs,400050,Bandra West,Mount Mary,1392,More then 5 years old
Maharashtra,Mumbai Suburban,Area not under any Sub-district,Mumbai,Suburbs,400053,Andheri West,Milat Nagar,991,Private Constructed
Maharashtra,Mumbai Suburban,Area not under any Sub-district,Mumbai,Suburbs,400053,Andheri West,Milat Nagar,991,Less than 5 years old
Maharashtra,Mumbai Suburban,Area not under any Sub-district,Mumbai,Suburbs,400053,Andheri West,"New LIC Colony,   D N Nagar",43,Govt Constructed
Maharashtra,Mumbai Suburban,Area not under any Sub-district,Mumbai,Suburbs,400053,Andheri West,D N Nagar,410,Less than 5 years old
Maharashtra,Mumbai Suburban,Area not under any Sub-district,Mumbai,Suburbs,400053,Andheri West,"Shanti Nagar,   D N Nagar",570,Villas
Maharashtra,Mumbai Suburban,Area not under any Sub-district,Mumbai,Suburbs,400050,Bandra West,Almeida Park,1448,Villas
Maharashtra,Mumbai Suburban,Area not under any Sub-district,Mumbai,Suburbs,400050,Pali Hills,Auxilium Convent,1466,Villas
Maharashtra,Mumbai Suburban,Area not under any Sub-district,Mumbai,Suburbs,400050,Bandra West,D Monte Park,1452,Villas
Maharashtra,Mumbai Suburban,Area not under any Sub-district,Mumbai,Suburbs,400053,Andheri West,Shastri Nagar,1057,Private Constructed
Maharashtra,Mumbai Suburban,Area not under any Sub-district,Mumbai,Suburbs,400058,Andheri West,Munshi Nagar,1242,Apartment
Maharashtra,Mumbai Suburban,Area not under any Sub-district,Mumbai,Suburbs,400050,Bandra West,Bhabh Hospital area,1450,Govt Constructed
Maharashtra,Mumbai Suburban,Area not under any Sub-district,Mumbai,Suburbs,400050,Bandra West,Almeida Park,1448,Less than 5 years old
Maharashtra,Mumbai Suburban,Area not under any Sub-district,Mumbai,Suburbs,400050,Bandra West,Reclamation,1077,Apartment
Maharashtra,Mumbai Suburban,Area not under any Sub-district,Mumbai,Suburbs,400061,Andheri West,"Jeet Nagar,   Versova",1056,Govt Constructed
Maharashtra,Mumbai Suburban,Area not under any Sub-district,Mumbai,Suburbs,400061,Andheri West,"Joseph Patel   Wadi, Versova",1150,Less than 5 years old
Maharashtra,Mumbai Suburban,Area not under any Sub-district,Mumbai,Suburbs,400061,Andheri West,"Joseph Patel   Wadi, Versova",1150,Private Constructed
Maharashtra,Mumbai Suburban,Area not under any Sub-district,Mumbai,Suburbs,400053,Andheri West,"Aram Nagar,   Versova",1346,Private Constructed
Maharashtra,Mumbai Suburban,Area not under any Sub-district,Mumbai,Suburbs,400053,Andheri West,Seven Bunglow,875,Private Constructed
Maharashtra,Mumbai Suburban,Area not under any Sub-district,Mumbai,Suburbs,400053,Andheri West,"Bharat Nagar,   Versova",1162,Private Constructed
Maharashtra,Mumbai Suburban,Area not under any Sub-district,Mumbai,Suburbs,400050,Bandra West,Mount Mary,1392,Villas
Maharashtra,Mumbai Suburban,Area not under any Sub-district,Mumbai,Suburbs,400053,Andheri West,SV Patel Nagar,1427,Private Constructed
Maharashtra,Mumbai Suburban,Area not under any Sub-district,Mumbai,Suburbs,400050,Bandra West,D Monte Park,1452,Govt Constructed
Maharashtra,Mumbai Suburban,Area not under any Sub-district,Mumbai,Suburbs,400050,Bandra West,D Monte Park,1452,Govt Constructed
Maharashtra,Mumbai Suburban,Area not under any Sub-district,Mumbai,Suburbs,400053,Andheri West,Shastri Nagar,1057,Private Constructed
Maharashtra,Mumbai Suburban,Area not under any Sub-district,Mumbai,Suburbs,400053,Andheri West,Shastri Nagar,1057,Govt Constructed
Maharashtra,Mumbai Suburban,Area not under any Sub-district,Mumbai,Suburbs,400053,Andheri West,SV Patel Nagar,1427,Govt Constructed
Maharashtra,Mumbai Suburban,Area not under any Sub-district,Mumbai,Suburbs,400053,Andheri West,Bhudargarh Colony,1064,Apartment
Maharashtra,Mumbai Suburban,Area not under any Sub-district,Mumbai,Suburbs,400053,Andheri West,"Ratan Nagar,   Four Bungalows",939,Less than 5 years old
Maharashtra,Mumbai Suburban,Area not under any Sub-district,Mumbai,Suburbs,400053,Andheri West,"Bharat Nagar,   Versova",1162,More then 5 years old
Maharashtra,Mumbai Suburban,Area not under any Sub-district,Mumbai,Suburbs,400052,Pali Hills,Danda,309,Villas
Maharashtra,Mumbai Suburban,Area not under any Sub-district,Mumbai,Suburbs,400050,Pali Hills,Hanuman Nagar,749,More then 5 years old
Maharashtra,Mumbai Suburban,Area not under any Sub-district,Mumbai,Suburbs,400050,Pali Hills,Chuim,306,Apartment
Maharashtra,Mumbai Suburban,Area not under any Sub-district,Mumbai,Suburbs,400050,Pali Hills,"Railway Colony,   Shirley",169,More then 5 years old
Maharashtra,Mumbai Suburban,Area not under any Sub-district,Mumbai,Suburbs,400053,Andheri West,Yamuna Nagar,617,More then 5 years old
Maharashtra,Mumbai Suburban,Area not under any Sub-district,Mumbai,Suburbs,400053,Andheri West,Lokhandwala   Complex,1351,More then 5 years old
Maharashtra,Mumbai Suburban,Area not under any Sub-district,Mumbai,Suburbs,400053,Andheri West,SV Patel Nagar,1427,Private Constructed
Maharashtra,Mumbai Suburban,Area not under any Sub-district,Mumbai,Suburbs,400053,Andheri West,Mudran Press   Colony,872,Govt Constructed
Maharashtra,Mumbai Suburban,Area not under any Sub-district,Mumbai,Suburbs,400053,Andheri West,"Indira Nagar,   Four Bungalows",662,Villas
Maharashtra,Mumbai Suburban,Area not under any Sub-district,Mumbai,Suburbs,400053,Andheri West,"Ratan Nagar,   Four Bungalows",939,Private Constructed
Maharashtra,Mumbai Suburban,Area not under any Sub-district,Mumbai,Suburbs,400053,Andheri West,Kapaswadi,621,Less than 5 years old
Maharashtra,Mumbai Suburban,Area not under any Sub-district,Mumbai,Suburbs,400050,Pali Hills,Hanuman Nagar,749,More then 5 years old
Maharashtra,Mumbai Suburban,Area not under any Sub-district,Mumbai,Suburbs,400050,Pali Hills,Chuim,306,Apartment
Maharashtra,Mumbai Suburban,Area not under any Sub-district,Mumbai,Suburbs,400050,Khar West,Rizvi Complex area,1443,Private Constructed
Maharashtra,Mumbai Suburban,Area not under any Sub-district,Mumbai,Suburbs,400050,Bandra West,D Monte Park,1452,Govt Constructed
Maharashtra,Mumbai Suburban,Area not under any Sub-district,Mumbai,Suburbs,400053,Andheri West,Highland Park,885,More then 5 years old
Maharashtra,Mumbai Suburban,Area not under any Sub-district,Mumbai,Suburbs,400053,Andheri West,Lokhandwala   Complex,1351,Apartment
Maharashtra,Mumbai Suburban,Area not under any Sub-district,Mumbai,Suburbs,400053,Andheri West,Shastri Nagar,1057,More then 5 years old
Maharashtra,Mumbai Suburban,Area not under any Sub-district,Mumbai,Suburbs,400053,Andheri West,Industrial   Area,1183,Villas
Maharashtra,Mumbai Suburban,Area not under any Sub-district,Mumbai,Suburbs,400053,Andheri West,Bhudargarh Colony,1064,More then 5 years old
Maharashtra,Mumbai Suburban,Area not under any Sub-district,Mumbai,Suburbs,400053,Andheri West,"New DN Nagar,   D N Nagar",269,Private Constructed
Maharashtra,Mumbai Suburban,Area not under any Sub-district,Mumbai,Suburbs,400050,Khar West,Rizvi Complex area,1443,Apartment
Maharashtra,Mumbai Suburban,Area not under any Sub-district,Mumbai,Suburbs,400053,Andheri West,Milat Nagar,991,Apartment
Maharashtra,Mumbai Suburban,Area not under any Sub-district,Mumbai,Suburbs,400053,Andheri West,Mhada Colony,1177,Govt Constructed
Maharashtra,Mumbai Suburban,Area not under any Sub-district,Mumbai,Suburbs,400053,Andheri West,Shastri Nagar,1057,More then 5 years old
Maharashtra,Mumbai Suburban,Area not under any Sub-district,Mumbai,Suburbs,400053,Andheri West,Industrial   Area,1183,Govt Constructed
Maharashtra,Mumbai Suburban,Area not under any Sub-district,Mumbai,Suburbs,400053,Andheri West,"New DN Nagar,   D N Nagar",269,Villas
Maharashtra,Mumbai Suburban,Area not under any Sub-district,Mumbai,Suburbs,400053,Andheri West,"New DN Nagar,   D N Nagar",269,Private Constructed
Maharashtra,Mumbai Suburban,Area not under any Sub-district,Mumbai,Suburbs,400050,Khar West,Rizvi Complex area,1443,Apartment
Maharashtra,Mumbai Suburban,Area not under any Sub-district,Mumbai,Suburbs,400050,Khar West,Rizvi Complex area,1443,Less than 5 years old
Maharashtra,Mumbai Suburban,Area not under any Sub-district,Mumbai,Suburbs,400050,Bandra West,Almeida Park,1448,Private Constructed
Maharashtra,Mumbai Suburban,Area not under any Sub-district,Mumbai,Suburbs,400050,Bandra West,ONGC Colony,608,Less than 5 years old
Maharashtra,Mumbai Suburban,Area not under any Sub-district,Mumbai,Suburbs,400104,Goregaon West,Bhagat   Singh Nagar,959,Villas
Maharashtra,Mumbai Suburban,Area not under any Sub-district,Mumbai,Suburbs,400053,Andheri West,Anand Nagar,1019,Private Constructed
Maharashtra,Mumbai Suburban,Area not under any Sub-district,Mumbai,Suburbs,400102,Jogeshwari West,Adarsh Nagar,1082,Less than 5 years old
Maharashtra,Mumbai Suburban,Area not under any Sub-district,Mumbai,Suburbs,400053,Andheri West,D N Nagar,410,Less than 5 years old
Maharashtra,Mumbai Suburban,Area not under any Sub-district,Mumbai,Suburbs,400050,Bandra West,Bhabh Hospital area,1450,Villas
Maharashtra,Mumbai Suburban,Area not under any Sub-district,Mumbai,Suburbs,400050,Bandra West,Santosh Nagar,993,Private Constructed
Maharashtra,Mumbai Suburban,Area not under any Sub-district,Mumbai,Suburbs,400050,Pali Hills,Shirley,431,Govt Constructed
Maharashtra,Mumbai Suburban,Area not under any Sub-district,Mumbai,Suburbs,400050,Khar West,Chimbai village,1451,More then 5 years old
Maharashtra,Mumbai Suburban,Area not under any Sub-district,Mumbai,Suburbs,400050,Bandra West,Ranwar,1285,Apartment
Maharashtra,Mumbai Suburban,Area not under any Sub-district,Mumbai,Suburbs,400050,Bandra West,Mount Mary,1392,Private Constructed
Maharashtra,Mumbai Suburban,Area not under any Sub-district,Mumbai,Suburbs,400053,Andheri West,Milat Nagar,991,Apartment
Maharashtra,Mumbai Suburban,Area not under any Sub-district,Mumbai,Suburbs,400053,Andheri West,Yamuna Nagar,617,Private Constructed
Maharashtra,Mumbai Suburban,Area not under any Sub-district,Mumbai,Suburbs,400053,Andheri West,Highland Park,885,Govt Constructed
Maharashtra,Mumbai Suburban,Area not under any Sub-district,Mumbai,Suburbs,400050,Pali Hills,Union Park,894,Private Constructed
Maharashtra,Mumbai Suburban,Area not under any Sub-district,Mumbai,Suburbs,400050,Khar West,Rizvi Complex area,1443,Govt Constructed
Maharashtra,Mumbai Suburban,Area not under any Sub-district,Mumbai,Suburbs,400050,Bandra West,D Monte Park,1452,Private Constructed
Maharashtra,Mumbai Suburban,Area not under any Sub-district,Mumbai,Suburbs,400050,Bandra West,D Monte Park,1452,Less than 5 years old
Maharashtra,Mumbai Suburban,Area not under any Sub-district,Mumbai,Suburbs,400050,Bandra West,ONGC Colony,608,Less than 5 years old
Maharashtra,Mumbai Suburban,Area not under any Sub-district,Mumbai,Suburbs,400053,Andheri West,"Phase D,   Shastri Nagar",656,Less than 5 years old
Maharashtra,Mumbai Suburban,Area not under any Sub-district,Mumbai,Suburbs,400053,Andheri West,"Shitladevi   Chawl, D N Nagar",99,Villas
Maharashtra,Mumbai Suburban,Area not under any Sub-district,Mumbai,Suburbs,400053,Andheri West,"Shanti Nagar,   D N Nagar",570,Villas
Maharashtra,Mumbai Suburban,Area not under any Sub-district,Mumbai,Suburbs,400052,Khar West,Ambedkar Nagar,128,Villas
Maharashtra,Mumbai Suburban,Area not under any Sub-district,Mumbai,Suburbs,400050,Bandra West,Vaidya Nagar,112,Private Constructed
Maharashtra,Mumbai Suburban,Area not under any Sub-district,Mumbai,Suburbs,400053,Andheri West,Mhada Colony,1177,More then 5 years old
Maharashtra,Mumbai Suburban,Area not under any Sub-district,Mumbai,Suburbs,400102,Jogeshwari West,Adarsh Nagar,1082,Villas
Maharashtra,Mumbai Suburban,Area not under any Sub-district,Mumbai,Suburbs,400053,Andheri West,D N Nagar,410,Villas
Maharashtra,Mumbai Suburban,Area not under any Sub-district,Mumbai,Suburbs,400052,Khar West,Pali Village,1325,Govt Constructed
Maharashtra,Mumbai Suburban,Area not under any Sub-district,Mumbai,Suburbs,400050,Bandra West,Bhabh Hospital area,1450,More then 5 years old
Maharashtra,Mumbai Suburban,Area not under any Sub-district,Mumbai,Suburbs,400050,Bandra West,Ranwar,1285,Less than 5 years old
Maharashtra,Mumbai Suburban,Area not under any Sub-district,Mumbai,Suburbs,400050,Bandra West,Santosh Nagar,993,Less than 5 years old
Maharashtra,Mumbai Suburban,Area not under any Sub-district,Mumbai,Suburbs,400050,Bandra West,Ranwar,1285,Apartment
Maharashtra,Mumbai Suburban,Area not under any Sub-district,Mumbai,Suburbs,400050,Bandra West,ONGC Colony,608,Less than 5 years old
Maharashtra,Mumbai Suburban,Area not under any Sub-district,Mumbai,Suburbs,400050,Bandra West,Bandra Talao,1446,Villas
Maharashtra,Mumbai Suburban,Area not under any Sub-district,Mumbai,Suburbs,400052,Khar West,Jaibharat   Society,784,Govt Constructed
Maharashtra,Mumbai Suburban,Area not under any Sub-district,Mumbai,Suburbs,400061,Andheri West,"Joseph Patel   Wadi, Versova",1150,Private Constructed
Maharashtra,Mumbai Suburban,Area not under any Sub-district,Mumbai,Suburbs,400061,Andheri West,"Joseph Patel   Wadi, Versova",1150,Villas
Maharashtra,Mumbai Suburban,Area not under any Sub-district,Mumbai,Suburbs,400053,Andheri West,Seven Bunglow,875,Villas
Maharashtra,Mumbai Suburban,Area not under any Sub-district,Mumbai,Suburbs,400053,Juhu,Mora Gaon,1164,Villas
Maharashtra,Mumbai Suburban,Area not under any Sub-district,Mumbai,Suburbs,400050,Bandra West,Mount Mary,1392,Private Constructed
Maharashtra,Mumbai Suburban,Area not under any Sub-district,Mumbai,Suburbs,400050,Bandra West,Mount Mary,1392,Govt Constructed
Maharashtra,Mumbai Suburban,Area not under any Sub-district,Mumbai,Suburbs,400053,Andheri West,Lokhandwala   Complex,1351,Villas
Maharashtra,Mumbai Suburban,Area not under any Sub-district,Mumbai,Suburbs,400053,Andheri West,Mudran Press   Colony,872,Private Constructed
Maharashtra,Mumbai Suburban,Area not under any Sub-district,Mumbai,Suburbs,400053,Juhu,Mora Gaon,1164,Private Constructed
Maharashtra,Mumbai Suburban,Area not under any Sub-district,Mumbai,Suburbs,400052,Pali Hills,Danda,309,Villas
Maharashtra,Mumbai Suburban,Area not under any Sub-district,Mumbai,Suburbs,400050,Pali Hills,Hanuman Nagar,749,Govt Constructed
Maharashtra,Mumbai Suburban,Area not under any Sub-district,Mumbai,Suburbs,400050,Pali Hills,"Railway Colony,   Shirley",169,Less than 5 years old
Maharashtra,Mumbai Suburban,Area not under any Sub-district,Mumbai,Suburbs,400050,Bandra West,Mount Mary,1392,Private Constructed
Maharashtra,Mumbai Suburban,Area not under any Sub-district,Mumbai,Suburbs,400053,Andheri West,Lokhandwala   Complex,1351,More then 5 years old
Maharashtra,Mumbai Suburban,Area not under any Sub-district,Mumbai,Suburbs,400053,Andheri West,Yamuna Nagar,617,Apartment
Maharashtra,Mumbai Suburban,Area not under any Sub-district,Mumbai,Suburbs,400053,Andheri West,Shastri Nagar,1057,Villas
Maharashtra,Mumbai Suburban,Area not under any Sub-district,Mumbai,Suburbs,400053,Andheri West,SV Patel Nagar,1427,Apartment
Maharashtra,Mumbai Suburban,Area not under any Sub-district,Mumbai,Suburbs,400061,Andheri West,"Jeet Nagar,   Versova",1056,Villas
Maharashtra,Mumbai Suburban,Area not under any Sub-district,Mumbai,Suburbs,400053,Andheri West,"Aram Nagar,   Versova",1346,Apartment
Maharashtra,Mumbai Suburban,Area not under any Sub-district,Mumbai,Suburbs,400061,Andheri West,"Joseph Patel   Wadi, Versova",1150,Apartment
Maharashtra,Mumbai Suburban,Area not under any Sub-district,Mumbai,Suburbs,400053,Andheri West,"Aram Nagar,   Versova",1346,More then 5 years old
Maharashtra,Mumbai Suburban,Area not under any Sub-district,Mumbai,Suburbs,400053,Andheri West,Seven Bunglow,875,Apartment
Maharashtra,Mumbai Suburban,Area not under any Sub-district,Mumbai,Suburbs,400053,Andheri West,Model Town,1084,Villas
Maharashtra,Mumbai Suburban,Area not under any Sub-district,Mumbai,Suburbs,400050,Bandra West,Mount Mary,1392,Apartment
Maharashtra,Mumbai Suburban,Area not under any Sub-district,Mumbai,Suburbs,400053,Andheri West,Mudran Press   Colony,872,Govt Constructed
Maharashtra,Mumbai Suburban,Area not under any Sub-district,Mumbai,Suburbs,400053,Andheri West,"Ratan Nagar,   Four Bungalows",939,Private Constructed
Maharashtra,Mumbai Suburban,Area not under any Sub-district,Mumbai,Suburbs,400053,Andheri West,"Bharat Nagar,   Versova",1162,Apartment
Maharashtra,Mumbai Suburban,Area not under any Sub-district,Mumbai,Suburbs,400050,Pali Hills,Hanuman Nagar,749,Govt Constructed
Maharashtra,Mumbai Suburban,Area not under any Sub-district,Mumbai,Suburbs,400050,Pali Hills,Auxilium Convent,1466,Private Constructed
Maharashtra,Mumbai Suburban,Area not under any Sub-district,Mumbai,Suburbs,400050,Pali Hills,Auxilium Convent,1466,Villas
Maharashtra,Mumbai Suburban,Area not under any Sub-district,Mumbai,Suburbs,400050,Bandra West,Joggers Park,1447,Apartment
Maharashtra,Mumbai Suburban,Area not under any Sub-district,Mumbai,Suburbs,400053,Andheri West,Model Town,1084,Less than 5 years old
Maharashtra,Mumbai Suburban,Area not under any Sub-district,Mumbai,Suburbs,400053,Andheri West,Industrial   Area,1183,Less than 5 years old
Maharashtra,Mumbai Suburban,Area not under any Sub-district,Mumbai,Suburbs,400053,Andheri West,Bhudargarh Colony,1064,Govt Constructed
Maharashtra,Mumbai Suburban,Area not under any Sub-district,Mumbai,Suburbs,400053,Andheri West,"Manish Nagar,   Four Bungalows",636,Villas
Maharashtra,Mumbai Suburban,Area not under any Sub-district,Mumbai,Suburbs,400053,Andheri West,"Manish Nagar,   Four Bungalows",636,Apartment
Maharashtra,Mumbai Suburban,Area not under any Sub-district,Mumbai,Suburbs,400050,Pali Hills,Union Park,894,Private Constructed
Maharashtra,Mumbai Suburban,Area not under any Sub-district,Mumbai,Suburbs,400050,Pali Hills,Auxilium Convent,1466,More then 5 years old
Maharashtra,Mumbai Suburban,Area not under any Sub-district,Mumbai,Suburbs,400050,Bandra West,D Monte Park,1452,More then 5 years old
Maharashtra,Mumbai Suburban,Area not under any Sub-district,Mumbai,Suburbs,400050,Bandra West,D Monte Park,1452,Less than 5 years old
Maharashtra,Mumbai Suburban,Area not under any Sub-district,Mumbai,Suburbs,400053,Andheri West,Milat Nagar,991,More then 5 years old
Maharashtra,Mumbai Suburban,Area not under any Sub-district,Mumbai,Suburbs,400053,Andheri West,Yamuna Nagar,617,Less than 5 years old
Maharashtra,Mumbai Suburban,Area not under any Sub-district,Mumbai,Suburbs,400053,Andheri West,Milat Nagar,991,More then 5 years old
Maharashtra,Mumbai Suburban,Area not under any Sub-district,Mumbai,Suburbs,400053,Andheri West,Highland Park,885,Govt Constructed
Maharashtra,Mumbai Suburban,Area not under any Sub-district,Mumbai,Suburbs,400053,Andheri West,Lokhandwala   Complex,1351,Private Constructed
Maharashtra,Mumbai Suburban,Area not under any Sub-district,Mumbai,Suburbs,400053,Andheri West,"Manish Nagar,   Four Bungalows",636,Villas
Maharashtra,Mumbai Suburban,Area not under any Sub-district,Mumbai,Suburbs,400053,Andheri West,"Indira Nagar,   Four Bungalows",662,Govt Constructed
Maharashtra,Mumbai Suburban,Area not under any Sub-district,Mumbai,Suburbs,400053,Andheri West,"Shiv Nagar,   D N Nagar",119,Less than 5 years old
Maharashtra,Mumbai Suburban,Area not under any Sub-district,Mumbai,Suburbs,400053,Andheri West,Mhada Colony,1177,More then 5 years old
Maharashtra,Mumbai Suburban,Area not under any Sub-district,Mumbai,Suburbs,400053,Andheri West,"Phase D,   Shastri Nagar",656,Private Constructed
Maharashtra,Mumbai Suburban,Area not under any Sub-district,Mumbai,Suburbs,400053,Andheri West,"Shitladevi   Chawl, D N Nagar",99,Villas
Maharashtra,Mumbai Suburban,Area not under any Sub-district,Mumbai,Suburbs,400053,Andheri West,"Shiv Nagar,   D N Nagar",119,Private Constructed
Maharashtra,Mumbai Suburban,Area not under any Sub-district,Mumbai,Suburbs,400053,Andheri West,"ESIC Nagar,   D N Nagar",123,More then 5 years old
Maharashtra,Mumbai Suburban,Area not under any Sub-district,Mumbai,Suburbs,400050,Bandra West,Mithun Garden,1449,More then 5 years old
Maharashtra,Mumbai Suburban,Area not under any Sub-district,Mumbai,Suburbs,400053,Andheri West,Anand Nagar,1019,Private Constructed
Maharashtra,Mumbai Suburban,Area not under any Sub-district,Mumbai,Suburbs,400102,Jogeshwari West,Adarsh Nagar,1082,Govt Constructed
Maharashtra,Mumbai Suburban,Area not under any Sub-district,Mumbai,Suburbs,400053,Andheri West,"Aram Nagar,   Versova",1346,Private Constructed
Maharashtra,Mumbai Suburban,Area not under any Sub-district,Mumbai,Suburbs,400050,Pali Hills,Chuim,306,More then 5 years old
Maharashtra,Mumbai Suburban,Area not under any Sub-district,Mumbai,Suburbs,400050,Khar West,Carter Road,1445,Govt Constructed
Maharashtra,Mumbai Suburban,Area not under any Sub-district,Mumbai,Suburbs,400050,Khar West,Chimbai village,1451,Villas
Maharashtra,Mumbai Suburban,Area not under any Sub-district,Mumbai,Suburbs,400050,Khar West,Chimbai village,1451,Villas
Maharashtra,Mumbai Suburban,Area not under any Sub-district,Mumbai,Suburbs,400050,Bandra West,Mount Mary,1392,Less than 5 years old
Maharashtra,Mumbai Suburban,Area not under any Sub-district,Mumbai,Suburbs,400053,Andheri West,Milat Nagar,991,More then 5 years old
Maharashtra,Mumbai Suburban,Area not under any Sub-district,Mumbai,Suburbs,400053,Andheri West,Milat Nagar,991,More then 5 years old
Maharashtra,Mumbai Suburban,Area not under any Sub-district,Mumbai,Suburbs,400053,Andheri West,Lokhandwala   Complex,1351,Govt Constructed
Maharashtra,Mumbai Suburban,Area not under any Sub-district,Mumbai,Suburbs,400053,Andheri West,Four Bungalows,449,Villas
Maharashtra,Mumbai Suburban,Area not under any Sub-district,Mumbai,Suburbs,400050,Bandra West,Ranwar,1285,Apartment
Maharashtra,Mumbai Suburban,Area not under any Sub-district,Mumbai,Suburbs,400053,Andheri West,"Aram Nagar,   Versova",1346,Less than 5 years old
Maharashtra,Mumbai Suburban,Area not under any Sub-district,Mumbai,Suburbs,400053,Andheri West,"Aram Nagar,   Versova",1346,Villas
Maharashtra,Mumbai Suburban,Area not under any Sub-district,Mumbai,Suburbs,400053,Andheri West,SV Patel Nagar,1427,Private Constructed
Maharashtra,Mumbai Suburban,Area not under any Sub-district,Mumbai,Suburbs,400050,Bandra West,Mount Mary,1392,Villas
Maharashtra,Mumbai Suburban,Area not under any Sub-district,Mumbai,Suburbs,400050,Bandra West,Joggers Park,1447,Villas
Maharashtra,Mumbai Suburban,Area not under any Sub-district,Mumbai,Suburbs,400053,Andheri West,SV Patel Nagar,1427,Apartment
Maharashtra,Mumbai Suburban,Area not under any Sub-district,Mumbai,Suburbs,400053,Andheri West,SV Patel Nagar,1427,Less than 5 years old
Maharashtra,Mumbai Suburban,Area not under any Sub-district,Mumbai,Suburbs,400053,Andheri West,"Bharat Nagar,   Versova",1162,Apartment
Maharashtra,Mumbai Suburban,Area not under any Sub-district,Mumbai,Suburbs,400053,Andheri West,"Bharat Nagar,   Versova",1162,Villas
Maharashtra,Mumbai Suburban,Area not under any Sub-district,Mumbai,Suburbs,400050,Pali Hills,Shirley,431,Apartment
Maharashtra,Mumbai Suburban,Area not under any Sub-district,Mumbai,Suburbs,400050,Bandra West,Joggers Park,1447,Private Constructed
Maharashtra,Mumbai Suburban,Area not under any Sub-district,Mumbai,Suburbs,400053,Andheri West,"Aram Nagar,   Versova",1346,Apartment
Maharashtra,Mumbai Suburban,Area not under any Sub-district,Mumbai,Suburbs,400053,Andheri West,Model Town,1084,More then 5 years old
Maharashtra,Mumbai Suburban,Area not under any Sub-district,Mumbai,Suburbs,400053,Andheri West,"Bharat Nagar,   Versova",1162,Private Constructed
Maharashtra,Mumbai Suburban,Area not under any Sub-district,Mumbai,Suburbs,400053,Andheri West,Model Town,1084,Villas
Maharashtra,Mumbai Suburban,Area not under any Sub-district,Mumbai,Suburbs,400053,Andheri West,"Ratan Nagar,   Four Bungalows",939,More then 5 years old
Maharashtra,Mumbai Suburban,Area not under any Sub-district,Mumbai,Suburbs,400049,Juhu,Mora Gaon,1164,Less than 5 years old
Maharashtra,Mumbai Suburban,Area not under any Sub-district,Mumbai,Suburbs,400050,Pali Hills,Union Park,894,Less than 5 years old
Maharashtra,Mumbai Suburban,Area not under any Sub-district,Mumbai,Suburbs,400050,Bandra West,Mount Mary,1392,More then 5 years old
Maharashtra,Mumbai Suburban,Area not under any Sub-district,Mumbai,Suburbs,400053,Andheri West,"Ratan Nagar,   Four Bungalows",939,Less than 5 years old
Maharashtra,Mumbai Suburban,Area not under any Sub-district,Mumbai,Suburbs,400053,Andheri West,"Bharat Nagar,   Versova",1162,Govt Constructed
Maharashtra,Mumbai Suburban,Area not under any Sub-district,Mumbai,Suburbs,400052,Pali Hills,Danda,309,Apartment
Maharashtra,Mumbai Suburban,Area not under any Sub-district,Mumbai,Suburbs,400050,Pali Hills,Union Park,894,Less than 5 years old
Maharashtra,Mumbai Suburban,Area not under any Sub-district,Mumbai,Suburbs,400053,Andheri West,SV Patel Nagar,1427,Apartment
Maharashtra,Mumbai Suburban,Area not under any Sub-district,Mumbai,Suburbs,400053,Andheri West,SV Patel Nagar,1427,Less than 5 years old
Maharashtra,Mumbai Suburban,Area not under any Sub-district,Mumbai,Suburbs,400053,Andheri West,Mudran Press   Colony,872,Govt Constructed
Maharashtra,Mumbai Suburban,Area not under any Sub-district,Mumbai,Suburbs,400052,Old Khar West,Koliwada,743,Apartment
Maharashtra,Mumbai Suburban,Area not under any Sub-district,Mumbai,Suburbs,400050,Pali Hills,Union Park,894,Govt Constructed
Maharashtra,Mumbai Suburban,Area not under any Sub-district,Mumbai,Suburbs,400050,Bandra West,Ranwar,1285,Villas
Maharashtra,Mumbai Suburban,Area not under any Sub-district,Mumbai,Suburbs,400053,Andheri West,SV Patel Nagar,1427,Apartment
Maharashtra,Mumbai Suburban,Area not under any Sub-district,Mumbai,Suburbs,400053,Andheri West,"Aram Nagar,   Versova",1346,More then 5 years old
Maharashtra,Mumbai Suburban,Area not under any Sub-district,Mumbai,Suburbs,400053,Andheri West,Lokhandwala   Complex,1351,Villas
Maharashtra,Mumbai Suburban,Area not under any Sub-district,Mumbai,Suburbs,400053,Andheri West,Lokhandwala   Complex,1351,Villas
Maharashtra,Mumbai Suburban,Area not under any Sub-district,Mumbai,Suburbs,400053,Andheri West,"Ratan Nagar,   Four Bungalows",939,Apartment
Maharashtra,Mumbai Suburban,Area not under any Sub-district,Mumbai,Suburbs,400053,Andheri West,"Bharat Nagar,   Versova",1162,Private Constructed
Maharashtra,Mumbai Suburban,Area not under any Sub-district,Mumbai,Suburbs,400049,Juhu,Mora Gaon,1164,More then 5 years old
Maharashtra,Mumbai Suburban,Area not under any Sub-district,Mumbai,Suburbs,400053,Andheri West,Lokhandwala   Complex,1351,Govt Constructed
Maharashtra,Mumbai Suburban,Area not under any Sub-district,Mumbai,Suburbs,400053,Andheri West,Lokhandwala   Complex,1351,Private Constructed
Maharashtra,Mumbai Suburban,Area not under any Sub-district,Mumbai,Suburbs,400053,Andheri West,Lokhandwala   Complex,1351,Apartment
Maharashtra,Mumbai Suburban,Area not under any Sub-district,Mumbai,Suburbs,400053,Andheri West,"Ratan Nagar,   Four Bungalows",939,Less than 5 years old
Maharashtra,Mumbai Suburban,Area not under any Sub-district,Mumbai,Suburbs,400052,Old Khar West,Danda Village,679,Private Constructed
Maharashtra,Mumbai Suburban,Area not under any Sub-district,Mumbai,Suburbs,400050,Pali Hills,Hanuman Nagar,749,Villas
Maharashtra,Mumbai Suburban,Area not under any Sub-district,Mumbai,Suburbs,400050,Pali Hills,Shirley,431,Govt Constructed
Maharashtra,Mumbai Suburban,Area not under any Sub-district,Mumbai,Suburbs,400050,Bandra West,Mount Mary,1392,Less than 5 years old
Maharashtra,Mumbai Suburban,Area not under any Sub-district,Mumbai,Suburbs,400053,Andheri West,Lokhandwala   Complex,1351,Govt Constructed
Maharashtra,Mumbai Suburban,Area not under any Sub-district,Mumbai,Suburbs,400050,Khar West,Rizvi Complex area,1443,Less than 5 years old
Maharashtra,Mumbai Suburban,Area not under any Sub-district,Mumbai,Suburbs,400053,Andheri West,Four Bungalows,449,Villas
Maharashtra,Mumbai Suburban,Area not under any Sub-district,Mumbai,Suburbs,400050,Khar West,Rizvi Complex area,1443,Apartment
Maharashtra,Mumbai Suburban,Area not under any Sub-district,Mumbai,Suburbs,400053,Andheri West,Shastri Nagar,1057,Private Constructed
Maharashtra,Mumbai Suburban,Area not under any Sub-district,Mumbai,Suburbs,400053,Andheri West,"ESIC Nagar,   D N Nagar",123,Apartment
Maharashtra,Mumbai Suburban,Area not under any Sub-district,Mumbai,Suburbs,400053,Andheri West,Four Bungalows,449,Govt Constructed
Maharashtra,Mumbai Suburban,Area not under any Sub-district,Mumbai,Suburbs,400050,Pali Hills,Auxilium Convent,1466,More then 5 years old
Maharashtra,Mumbai Suburban,Area not under any Sub-district,Mumbai,Suburbs,400050,Pali Hills,Auxilium Convent,1466,Less than 5 years old
Maharashtra,Mumbai Suburban,Area not under any Sub-district,Mumbai,Suburbs,400050,Bandra West,Mount Mary,1392,More then 5 years old
Maharashtra,Mumbai Suburban,Area not under any Sub-district,Mumbai,Suburbs,400050,Bandra West,ONGC Colony,608,Less than 5 years old
Maharashtra,Mumbai Suburban,Area not under any Sub-district,Mumbai,Suburbs,400102,Jogeshwari West,Adarsh Nagar,1082,Apartment
Maharashtra,Mumbai Suburban,Area not under any Sub-district,Mumbai,Suburbs,400053,Andheri West,Mhada Colony,1177,Less than 5 years old
Maharashtra,Mumbai Suburban,Area not under any Sub-district,Mumbai,Suburbs,400053,Andheri West,"Shanti Nagar,   D N Nagar",570,More then 5 years old
Maharashtra,Mumbai Suburban,Area not under any Sub-district,Mumbai,Suburbs,400050,Khar West,Rizvi Complex area,1443,Villas
Maharashtra,Mumbai Suburban,Area not under any Sub-district,Mumbai,Suburbs,400050,Bandra West,D Monte Park,1452,More then 5 years old
Maharashtra,Mumbai Suburban,Area not under any Sub-district,Mumbai,Suburbs,400050,Bandra West,Vaidya Nagar,112,Less than 5 years old
Maharashtra,Mumbai Suburban,Area not under any Sub-district,Mumbai,Suburbs,400050,Bandra West,Ranwar,1285,Less than 5 years old
Maharashtra,Mumbai Suburban,Area not under any Sub-district,Mumbai,Suburbs,400053,Andheri West,Anand Nagar,1019,Less than 5 years old
Maharashtra,Mumbai Suburban,Area not under any Sub-district,Mumbai,Suburbs,400053,Andheri West,Shastri Nagar,1057,Private Constructed
Maharashtra,Mumbai Suburban,Area not under any Sub-district,Mumbai,Suburbs,400050,Bandra West,Ranwar,1285,Villas
Maharashtra,Mumbai Suburban,Area not under any Sub-district,Mumbai,Suburbs,400050,Bandra West,Mount Mary,1392,Villas
Maharashtra,Mumbai Suburban,Area not under any Sub-district,Mumbai,Suburbs,400053,Andheri West,Highland Park,885,Private Constructed
Maharashtra,Mumbai Suburban,Area not under any Sub-district,Mumbai,Suburbs,400053,Andheri West,Highland Park,885,Villas
Maharashtra,Mumbai Suburban,Area not under any Sub-district,Mumbai,Suburbs,400053,Andheri West,Shastri Nagar,1057,More then 5 years old
Maharashtra,Mumbai Suburban,Area not under any Sub-district,Mumbai,Suburbs,400053,Andheri West,"Madhuban Colony,   D N Nagar",257,Villas
Maharashtra,Mumbai Suburban,Area not under any Sub-district,Mumbai,Suburbs,400053,Andheri West,"New LIC Colony,   D N Nagar",43,Apartment
Maharashtra,Mumbai Suburban,Area not under any Sub-district,Mumbai,Suburbs,400052,Khar West,Pali Village,1325,Less than 5 years old
Maharashtra,Mumbai Suburban,Area not under any Sub-district,Mumbai,Suburbs,400050,Bandra West,Ranwar,1285,Less than 5 years old
Maharashtra,Mumbai Suburban,Area not under any Sub-district,Mumbai,Suburbs,400050,Bandra West,Almeida Park,1448,Less than 5 years old
Maharashtra,Mumbai Suburban,Area not under any Sub-district,Mumbai,Suburbs,400053,Andheri West,Anand Nagar,1019,Govt Constructed
Maharashtra,Mumbai Suburban,Area not under any Sub-district,Mumbai,Suburbs,400053,Andheri West,"Phase D,   Shastri Nagar",656,More then 5 years old
Maharashtra,Mumbai Suburban,Area not under any Sub-district,Mumbai,Suburbs,400058,Andheri West,"Sahakar Nagar,   Azad Nagar",181,Less than 5 years old
Maharashtra,Mumbai Suburban,Area not under any Sub-district,Mumbai,Suburbs,400050,Bandra West,Vaidya Nagar,112,More then 5 years old
Maharashtra,Mumbai Suburban,Area not under any Sub-district,Mumbai,Suburbs,400050,Bandra West,Santosh Nagar,993,Villas
Maharashtra,Mumbai Suburban,Area not under any Sub-district,Mumbai,Suburbs,400102,Jogeshwari West,Shastri Nagar,1112,Apartment
Maharashtra,Mumbai Suburban,Area not under any Sub-district,Mumbai,Suburbs,400050,Pali Hills,Shirley,431,Less than 5 years old
Maharashtra,Mumbai Suburban,Area not under any Sub-district,Mumbai,Suburbs,400050,Bandra West,Ranwar,1285,Less than 5 years old
Maharashtra,Mumbai Suburban,Area not under any Sub-district,Mumbai,Suburbs,400053,Andheri West,Mhada Colony,1177,Apartment
Maharashtra,Mumbai Suburban,Area not under any Sub-district,Mumbai,Suburbs,400053,Andheri West,Industrial   Area,1183,Govt Constructed
Maharashtra,Mumbai Suburban,Area not under any Sub-district,Mumbai,Suburbs,400053,Andheri West,"Madhuban Colony,   D N Nagar",257,Private Constructed
Maharashtra,Mumbai Suburban,Area not under any Sub-district,Mumbai,Suburbs,400050,Pali Hills,Auxilium Convent,1466,Apartment
Maharashtra,Mumbai Suburban,Area not under any Sub-district,Mumbai,Suburbs,400050,Bandra West,D Monte Park,1452,More then 5 years old
Maharashtra,Mumbai Suburban,Area not under any Sub-district,Mumbai,Suburbs,400053,Andheri West,Mhada Colony,1177,Villas
Maharashtra,Mumbai Suburban,Area not under any Sub-district,Mumbai,Suburbs,400053,Andheri West,"Jeevan Nagar,   Azad Nagar",244,Apartment
Maharashtra,Mumbai Suburban,Area not under any Sub-district,Mumbai,Suburbs,400058,Andheri West,"Sahakar Nagar,   Azad Nagar",181,Less than 5 years old
Maharashtra,Mumbai Suburban,Area not under any Sub-district,Mumbai,Suburbs,400053,Andheri West,"Shanti Nagar,   D N Nagar",570,Apartment
Maharashtra,Mumbai Suburban,Area not under any Sub-district,Mumbai,Suburbs,400053,Andheri West,"Shitladevi   Chawl, D N Nagar",99,Apartment
Maharashtra,Mumbai Suburban,Area not under any Sub-district,Mumbai,Suburbs,400050,Bandra West,Almeida Park,1448,More then 5 years old
Maharashtra,Mumbai Suburban,Area not under any Sub-district,Mumbai,Suburbs,400050,Bandra West,Mithun Garden,1449,More then 5 years old
Maharashtra,Mumbai Suburban,Area not under any Sub-district,Mumbai,Suburbs,400050,Bandra West,Almeida Park,1448,Apartment
Maharashtra,Mumbai Suburban,Area not under any Sub-district,Mumbai,Suburbs,400053,Andheri West,Veer Desai   Industrial Estate,1281,Govt Constructed
Maharashtra,Mumbai Suburban,Area not under any Sub-district,Mumbai,Suburbs,400053,Andheri West,"Mhada Colony,   Azad Nagar",287,Less than 5 years old
Maharashtra,Mumbai Suburban,Area not under any Sub-district,Mumbai,Suburbs,400050,Bandra West,Mithun Garden,1449,Less than 5 years old
Maharashtra,Mumbai Suburban,Area not under any Sub-district,Mumbai,Suburbs,400050,Bandra West,Bandra Talao,1446,Govt Constructed
Maharashtra,Mumbai Suburban,Area not under any Sub-district,Mumbai,Suburbs,400050,Bandra West,Bhabh Hospital area,1450,More then 5 years old
Maharashtra,Mumbai Suburban,Area not under any Sub-district,Mumbai,Suburbs,400050,Bandra West,Reclamation,1077,More then 5 years old
Maharashtra,Mumbai Suburban,Area not under any Sub-district,Mumbai,Suburbs,400053,Andheri West,Veer Desai   Industrial Estate,1281,More then 5 years old
Maharashtra,Mumbai Suburban,Area not under any Sub-district,Mumbai,Suburbs,400053,Andheri West,"Mhada Colony,   Azad Nagar",287,Private Constructed
Maharashtra,Mumbai Suburban,Area not under any Sub-district,Mumbai,Suburbs,400050,Bandra West,Patkar Blocks,254,More then 5 years old
Maharashtra,Mumbai Suburban,Area not under any Sub-district,Mumbai,Suburbs,400050,Bandra West,Santosh Nagar,993,Apartment
Maharashtra,Mumbai Suburban,Area not under any Sub-district,Mumbai,Suburbs,400050,Bandra West,Patkar Blocks,254,More then 5 years old
Maharashtra,Mumbai Suburban,Area not under any Sub-district,Mumbai,Suburbs,400050,Bandra West,Bandra rAILWAY STATION,1468,Govt Constructed
Maharashtra,Mumbai Suburban,Area not under any Sub-district,Mumbai,Suburbs,400053,Andheri West,Veer Desai   Industrial Estate,1281,More then 5 years old
Maharashtra,Mumbai Suburban,Area not under any Sub-district,Mumbai,Suburbs,400058,Andheri West,Azad Nagar,863,More then 5 years old
Maharashtra,Mumbai Suburban,Area not under any Sub-district,Mumbai,Suburbs,400052,Khar West,Pali Village,1325,Villas
Maharashtra,Mumbai Suburban,Area not under any Sub-district,Mumbai,Suburbs,400058,Jogeshwari West,Prathmesh   Complex,1139,Less than 5 years old
Maharashtra,Mumbai Suburban,Area not under any Sub-district,Mumbai,Suburbs,400050,Bandra West,Santosh Nagar,993,Villas
Maharashtra,Mumbai Suburban,Area not under any Sub-district,Mumbai,Suburbs,400050,Bandra West,Bandra rAILWAY STATION,1468,Villas