State,District,Subdistrict,City,City_Regiotype,Pincode,Locality,Sublocality,Sublocality_ID,Competition_Store,Key_Categories,Key_Brands
Gujarat,Ahmadabad,Ahmadabad City,Ahmadabad,Suburbs,380054,Vikram Nagar,Vikram Nagar,430,Competition3,Personal Accessories,BLACKBERRYS
Gujarat,Ahmadabad,Ahmadabad City,Ahmadabad,Second City,380054,Thaltej,Hebatpur Village,79,Competition2,Mens  Formals,TITAN
Gujarat,Ahmadabad,Ahmadabad City,Ahmadabad,Suburbs,380054,Ashok Vatika,Ashok Vatika,287,Competition5,BTL Fashion & Active Sports,ALLEN SOLLY
Gujarat,Ahmadabad,Ahmadabad City,Ahmadabad,Second City,380054,Ashok Vatika,Ashok Vatika,287,Competition2,E-Com Brands,MEXX
Gujarat,Ahmadabad,Ahmadabad City,Ahmadabad,Second City,380054,Bodakdev,Bodakdev,293,Competition3,Personal Accessories,VAN HEUSEN
Gujarat,Ahmadabad,Ahmadabad City,Ahmadabad,Second City,380054,Thaltej,Shangrila,233,Competition4,Mens  Formals,PIERRE CARDIN
Gujarat,Ahmadabad,Ahmadabad City,Ahmadabad,Second City,380054,Thaltej,Panchamrut Bunglows II,155,Competition1,E-Com Brands,TITAN
Gujarat,Ahmadabad,Ahmadabad City,Ahmadabad,Suburbs,380054,Bodakdev,Bodakdev,293,Competition4,Mens  Formals,MEXX
Gujarat,Ahmadabad,Ahmadabad City,Ahmadabad,Second City,380054,Thaltej,Shangrila,233,Competition1,E-Com Brands,VAN HEUSEN
Gujarat,Ahmadabad,Ahmadabad City,Ahmadabad,Suburbs,380054,Gurukul,Sunrise Park,254,Competition5,BTL Fashion & Active Sports,VAN HEUSEN
Gujarat,Ahmadabad,Ahmadabad City,Ahmadabad,Second City,380054,Thaltej,PRL Colony,185,Competition5,BTL Fashion & Active Sports,VAN HEUSEN
Gujarat,Ahmadabad,Ahmadabad City,Ahmadabad,Second City,380054,Thaltej,Jai Ambe Nagar,93,Competition3,E-Com Brands,TITAN
Gujarat,Ahmadabad,Ahmadabad City,Ahmadabad,Suburbs,380054,Bodakdev,Bodakdev,293,Competition1,Personal Accessories,BEING HUMAN
Gujarat,Ahmadabad,Ahmadabad City,Ahmadabad,Second City,380054,Thaltej,PRL Colony,185,Competition3,BTL Fashion & Active Sports,PIERRE CARDIN
Gujarat,Ahmadabad,Ahmadabad City,Ahmadabad,Suburbs,380054,Vikram Nagar,Vikram Nagar,430,Competition4,Personal Accessories,ALLEN SOLLY
Gujarat,Ahmadabad,Ahmadabad City,Ahmadabad,Second City,380054,Bodakdev,Bodakdev,293,Competition5,E-Com Brands,VAN HEUSEN
Gujarat,Ahmadabad,Ahmadabad City,Ahmadabad,Second City,380054,Thaltej,Shangrila,233,Competition4,Mens  Formals,PIERRE CARDIN
Gujarat,Ahmadabad,Ahmadabad City,Ahmadabad,Second City,380059,Thaltej,Shangrila,233,Competition2,Personal Accessories,ALLEN SOLLY
Gujarat,Ahmadabad,Ahmadabad City,Ahmadabad,Second City,380054,Thaltej,PRL Colony,185,Competition5,BTL Fashion & Active Sports,TITAN
Gujarat,Ahmadabad,Ahmadabad City,Ahmadabad,Second City,380054,Thaltej,PRL Colony,185,Competition4,BTL Fashion & Active Sports,ALLEN SOLLY
Gujarat,Ahmadabad,Ahmadabad City,Ahmadabad,Second City,380054,Thaltej,PRL Colony,185,Competition2,E-Com Brands,TITAN
Gujarat,Ahmadabad,Ahmadabad City,Ahmadabad,Second City,380054,Thaltej,Panchamrut Bunglows II,155,Competition2,Mens  Formals,PIERRE CARDIN
Gujarat,Ahmadabad,Ahmadabad City,Ahmadabad,Suburbs,380054,Bodakdev,Bodakdev,293,Competition4,Personal Accessories,ALLEN SOLLY
Gujarat,Ahmadabad,Ahmadabad City,Ahmadabad,Second City,380054,Thaltej,PRL Colony,185,Competition4,E-Com Brands,TITAN
Gujarat,Ahmadabad,Ahmadabad City,Ahmadabad,Second City,380054,Bodakdev,Bodakdev,293,Competition1,BTL Fashion & Active Sports,VAN HEUSEN
Gujarat,Ahmadabad,Ahmadabad City,Ahmadabad,Second City,380054,Thaltej,Shangrila,233,Competition3,E-Com Brands,BEING HUMAN
Gujarat,Ahmadabad,Ahmadabad City,Ahmadabad,Second City,380054,Mem Nagar,Nilmani Society,147,Competition4,BTL Fashion & Active Sports,ALLEN SOLLY
Gujarat,Ahmadabad,Ahmadabad City,Ahmadabad,Second City,380054,Thaltej,Shangrila,233,Competition2,BTL Fashion & Active Sports,TITAN
Gujarat,Ahmadabad,Ahmadabad City,Ahmadabad,Second City,380054,Thaltej,Shangrila,233,Competition5,E-Com Brands,BLACKBERRYS
Gujarat,Ahmadabad,Ahmadabad City,Ahmadabad,Second City,380054,Thaltej,PRL Colony,185,Competition2,Personal Accessories,TITAN
Gujarat,Ahmadabad,Ahmadabad City,Ahmadabad,Second City,380054,Thaltej,Bhaikakanagar,19,Competition2,Personal Accessories,ALLEN SOLLY
Gujarat,Ahmadabad,Ahmadabad City,Ahmadabad,Second City,380054,Mem Nagar,Sarathi Co-operative Housing Society,213,Competition2,BTL Fashion & Active Sports,PIERRE CARDIN
Gujarat,Ahmadabad,Ahmadabad City,Ahmadabad,Second City,380054,Thaltej,Someshwar Park III,245,Competition5,Mens  Formals,MEXX
Gujarat,Ahmadabad,Ahmadabad City,Ahmadabad,Suburbs,380054,Satellite,Premchand Nagar,182,Competition4,Mens  Formals,PIERRE CARDIN
Gujarat,Ahmadabad,Ahmadabad City,Ahmadabad,Second City,380054,Thaltej,Shangrila,233,Competition2,BTL Fashion & Active Sports,TITAN
Gujarat,Ahmadabad,Ahmadabad City,Ahmadabad,Second City,380054,Thaltej,Shangrila,233,Competition3,Personal Accessories,VAN HEUSEN
Gujarat,Ahmadabad,Ahmadabad City,Ahmadabad,Second City,380054,Thaltej,Shangrila,233,Competition3,Mens  Formals,BLACKBERRYS
Gujarat,Ahmadabad,Ahmadabad City,Ahmadabad,Suburbs,380054,Vikram Nagar,Vikram Nagar,430,Competition5,BTL Fashion & Active Sports,ALLEN SOLLY
Gujarat,Ahmadabad,Ahmadabad City,Ahmadabad,Suburbs,380054,Bodakdev,Bodakdev,293,Competition3,Mens  Formals,VAN HEUSEN
Gujarat,Ahmadabad,Ahmadabad City,Ahmadabad,Suburbs,380054,Mem Nagar,Mem Nagar,348,Competition2,Personal Accessories,MEXX
Gujarat,Ahmadabad,Ahmadabad City,Ahmadabad,Second City,380054,Bodakdev,Bodakdev,293,Competition1,E-Com Brands,TITAN
Gujarat,Ahmadabad,Ahmadabad City,Ahmadabad,Second City,380054,Thaltej,PRL Colony,185,Competition1,E-Com Brands,PIERRE CARDIN
Gujarat,Ahmadabad,Ahmadabad City,Ahmadabad,Second City,380054,Bodakdev,Sumeru,251,Competition1,BTL Fashion & Active Sports,ALLEN SOLLY
Gujarat,Ahmadabad,Ahmadabad City,Ahmadabad,Second City,380058,Thaltej,PRL Colony,185,Competition1,BTL Fashion & Active Sports,PIERRE CARDIN
Gujarat,Ahmadabad,Ahmadabad City,Ahmadabad,Second City,380054,Thaltej,PRL Colony,185,Competition4,Mens  Formals,VAN HEUSEN
Gujarat,Ahmadabad,Ahmadabad City,Ahmadabad,Second City,380054,Thaltej,Shangrila,233,Competition2,Mens  Formals,BEING HUMAN
Gujarat,Ahmadabad,Ahmadabad City,Ahmadabad,Second City,380054,Bodakdev,Sumeru,251,Competition2,BTL Fashion & Active Sports,PIERRE CARDIN
Gujarat,Ahmadabad,Ahmadabad City,Ahmadabad,Second City,380054,Thaltej,Hebatpur Village,79,Competition3,Mens  Formals,ALLEN SOLLY
Gujarat,Ahmadabad,Ahmadabad City,Ahmadabad,Second City,380054,Gurukul,Sunrise Park,254,Competition1,E-Com Brands,MEXX
Gujarat,Ahmadabad,Ahmadabad City,Ahmadabad,Second City,380054,Bodakdev,Bodakdev,293,Competition3,E-Com Brands,ALLEN SOLLY
Gujarat,Ahmadabad,Ahmadabad City,Ahmadabad,Second City,380054,Bodakdev,Bodakdev,293,Competition3,BTL Fashion & Active Sports,VAN HEUSEN
Gujarat,Ahmadabad,Ahmadabad City,Ahmadabad,Second City,380054,Thaltej,PRL Colony,185,Competition2,BTL Fashion & Active Sports,TITAN
Gujarat,Ahmadabad,Ahmadabad City,Ahmadabad,Suburbs,380054,Thaltej,Someshwar Park III,245,Competition1,E-Com Brands,MEXX
Gujarat,Ahmadabad,Ahmadabad City,Ahmadabad,Suburbs,380054,Thaltej,Nirant Park Society Part 1,148,Competition3,Mens  Formals,BLACKBERRYS
Gujarat,Ahmadabad,Ahmadabad City,Ahmadabad,Second City,380054,Gurukul,Sunrise Park,254,Competition4,BTL Fashion & Active Sports,BEING HUMAN
Gujarat,Ahmadabad,Ahmadabad City,Ahmadabad,Suburbs,380054,Mem Nagar,Mem Nagar,348,Competition4,Personal Accessories,TITAN
Gujarat,Ahmadabad,Ahmadabad City,Ahmadabad,Suburbs,380051,Bodakdev,Bodakdev,293,Competition3,Personal Accessories,TITAN
Gujarat,Ahmadabad,Ahmadabad City,Ahmadabad,Second City,380054,Thaltej,Jai Ambe Nagar,93,Competition2,Personal Accessories,VAN HEUSEN
Gujarat,Ahmadabad,Ahmadabad City,Ahmadabad,Second City,380054,Thaltej,Shangrila,233,Competition4,Personal Accessories,PIERRE CARDIN
Gujarat,Ahmadabad,Ahmadabad City,Ahmadabad,Second City,380054,Thaltej,Someshwar Park III,245,Competition5,Personal Accessories,TITAN
Gujarat,Ahmadabad,Ahmadabad City,Ahmadabad,Second City,380054,Bodakdev,Bodakdev,293,Competition1,Mens  Formals,BEING HUMAN
Gujarat,Ahmadabad,Ahmadabad City,Ahmadabad,Suburbs,380054,Thaltej,Nirant Park Society Part 2,149,Competition2,Personal Accessories,BLACKBERRYS
Gujarat,Ahmadabad,Ahmadabad City,Ahmadabad,Second City,380054,Bodakdev,Sumeru,251,Competition5,BTL Fashion & Active Sports,ALLEN SOLLY
Gujarat,Ahmadabad,Ahmadabad City,Ahmadabad,Second City,380054,Thaltej,PRL Colony,185,Competition2,BTL Fashion & Active Sports,VAN HEUSEN
Gujarat,Ahmadabad,Ahmadabad City,Ahmadabad,Suburbs,380054,Ghatlodia,Shenbhai Nagar,239,Competition5,E-Com Brands,TITAN
Gujarat,Ahmadabad,Ahmadabad City,Ahmadabad,Second City,380054,Thaltej,Shangrila,233,Competition1,BTL Fashion & Active Sports,VAN HEUSEN
Gujarat,Ahmadabad,Ahmadabad City,Ahmadabad,Suburbs,380054,Bodakdev,Bodakdev,293,Competition1,Mens  Formals,BEING HUMAN
Gujarat,Ahmadabad,Ahmadabad City,Ahmadabad,Suburbs,380054,Gurukul,Sunrise Park,254,Competition2,Personal Accessories,MEXX
Gujarat,Ahmadabad,Ahmadabad City,Ahmadabad,Suburbs,380054,Mem Nagar,Nilmani Society,147,Competition4,Mens  Formals,BLACKBERRYS
Gujarat,Ahmadabad,Ahmadabad City,Ahmadabad,Suburbs,380054,Bodakdev,Bodakdev,293,Competition4,Mens  Formals,ALLEN SOLLY
Gujarat,Ahmadabad,Ahmadabad City,Ahmadabad,Second City,380054,Thaltej,Panchamrut Bunglows II,155,Competition2,Personal Accessories,TITAN
Gujarat,Ahmadabad,Ahmadabad City,Ahmadabad,Second City,380054,Thaltej,PRL Colony,185,Competition1,Personal Accessories,ALLEN SOLLY
Gujarat,Ahmadabad,Ahmadabad City,Ahmadabad,Second City,380054,Thaltej,Shangrila,233,Competition1,BTL Fashion & Active Sports,VAN HEUSEN
Gujarat,Ahmadabad,Ahmadabad City,Ahmadabad,Suburbs,380054,Vikram Nagar,Vikram Nagar,430,Competition2,E-Com Brands,TITAN
Gujarat,Ahmadabad,Ahmadabad City,Ahmadabad,Second City,380054,Thaltej,Bhaikakanagar,19,Competition1,Mens  Formals,PIERRE CARDIN
Gujarat,Ahmadabad,Ahmadabad City,Ahmadabad,Second City,380054,Bodakdev,Sumeru,251,Competition5,Mens  Formals,TITAN
Gujarat,Ahmadabad,Ahmadabad City,Ahmadabad,Second City,380054,Thaltej,Jai Ambe Nagar,93,Competition3,BTL Fashion & Active Sports,VAN HEUSEN
Gujarat,Ahmadabad,Ahmadabad City,Ahmadabad,Second City,380054,Thaltej,Shangrila,233,Competition5,E-Com Brands,PIERRE CARDIN
Gujarat,Ahmadabad,Ahmadabad City,Ahmadabad,Second City,380054,Thaltej,Shangrila,233,Competition1,E-Com Brands,TITAN
Gujarat,Ahmadabad,Ahmadabad City,Ahmadabad,Second City,380054,Thaltej,Hebatpur Village,79,Competition3,Personal Accessories,BLACKBERRYS
Gujarat,Ahmadabad,Ahmadabad City,Ahmadabad,Suburbs,380054,Ashok Vatika,Ashok Vatika,287,Competition3,Mens  Formals,PIERRE CARDIN
Gujarat,Ahmadabad,Ahmadabad City,Ahmadabad,Second City,380054,Thaltej,PRL Colony,185,Competition1,Mens  Formals,TITAN
Gujarat,Ahmadabad,Ahmadabad City,Ahmadabad,Second City,380054,Thaltej,Someshwar Park III,245,Competition4,Personal Accessories,TITAN
Gujarat,Ahmadabad,Ahmadabad City,Ahmadabad,Second City,380054,Thaltej,Panchamrut Bunglows II,155,Competition1,BTL Fashion & Active Sports,BEING HUMAN
Gujarat,Ahmadabad,Ahmadabad City,Ahmadabad,Suburbs,380054,Bodakdev,Bodakdev,293,Competition2,Mens  Formals,PIERRE CARDIN
Gujarat,Ahmadabad,Ahmadabad City,Ahmadabad,Second City,380054,Thaltej,PRL Colony,185,Competition1,Mens  Formals,BLACKBERRYS
Gujarat,Ahmadabad,Ahmadabad City,Ahmadabad,Suburbs,380054,Vikram Nagar,Vikram Nagar,430,Competition5,E-Com Brands,MEXX
Gujarat,Ahmadabad,Ahmadabad City,Ahmadabad,Second City,380054,Thaltej,Shangrila,233,Competition2,E-Com Brands,TITAN
Gujarat,Ahmadabad,Ahmadabad City,Ahmadabad,Second City,380054,Thaltej,Shangrila,233,Competition3,E-Com Brands,TITAN
Gujarat,Ahmadabad,Ahmadabad City,Ahmadabad,Second City,380054,Thaltej,Shangrila,233,Competition4,BTL Fashion & Active Sports,BLACKBERRYS
Gujarat,Ahmadabad,Ahmadabad City,Ahmadabad,Second City,380054,Thaltej,Bhaikakanagar,19,Competition3,E-Com Brands,PIERRE CARDIN
Gujarat,Ahmadabad,Ahmadabad City,Ahmadabad,Second City,380054,Bodakdev,Bodakdev,293,Competition5,BTL Fashion & Active Sports,BLACKBERRYS
Gujarat,Ahmadabad,Ahmadabad City,Ahmadabad,Second City,380054,Gurukul,Sunrise Park,254,Competition1,Personal Accessories,TITAN
Gujarat,Ahmadabad,Ahmadabad City,Ahmadabad,Second City,380054,Thaltej,PRL Colony,185,Competition2,E-Com Brands,MEXX
Gujarat,Ahmadabad,Ahmadabad City,Ahmadabad,Second City,380054,Thaltej,Shangrila,233,Competition2,BTL Fashion & Active Sports,PIERRE CARDIN
Gujarat,Ahmadabad,Ahmadabad City,Ahmadabad,Second City,380054,Thaltej,PRL Colony,185,Competition3,Personal Accessories,ALLEN SOLLY
Gujarat,Ahmadabad,Ahmadabad City,Ahmadabad,Suburbs,380061,Ghatlodia,Shenbhai Nagar,239,Competition3,BTL Fashion & Active Sports,BLACKBERRYS
Gujarat,Ahmadabad,Ahmadabad City,Ahmadabad,Second City,380054,Thaltej,PRL Colony,185,Competition5,BTL Fashion & Active Sports,TITAN
Gujarat,Ahmadabad,Ahmadabad City,Ahmadabad,Suburbs,380054,Ashok Vatika,Ashok Vatika,287,Competition3,Mens  Formals,ALLEN SOLLY
Gujarat,Ahmadabad,Ahmadabad City,Ahmadabad,Second City,380054,Bodakdev,Bodakdev,293,Competition1,E-Com Brands,TITAN
Gujarat,Ahmadabad,Ahmadabad City,Ahmadabad,Second City,380058,Thaltej,PRL Colony,185,Competition2,Mens  Formals,VAN HEUSEN
Gujarat,Ahmadabad,Ahmadabad City,Ahmadabad,Second City,380054,Thaltej,PRL Colony,185,Competition4,Mens  Formals,MEXX
Gujarat,Ahmadabad,Ahmadabad City,Ahmadabad,Second City,380054,Thaltej,Bhaikakanagar,19,Competition4,Mens  Formals,TITAN
Gujarat,Ahmadabad,Ahmadabad City,Ahmadabad,Second City,380054,Thaltej,Shangrila,233,Competition4,Mens  Formals,ALLEN SOLLY
Gujarat,Ahmadabad,Ahmadabad City,Ahmadabad,Suburbs,380054,Mem Nagar,Nilmani Society,147,Competition4,Mens  Formals,BEING HUMAN
Gujarat,Ahmadabad,Ahmadabad City,Ahmadabad,Second City,380054,Bodakdev,Sumeru,251,Competition4,BTL Fashion & Active Sports,TITAN
Gujarat,Ahmadabad,Ahmadabad City,Ahmadabad,Second City,380054,Thaltej,Bhaikakanagar,19,Competition2,Mens  Formals,PIERRE CARDIN
Gujarat,Ahmadabad,Ahmadabad City,Ahmadabad,Second City,380054,Thaltej,Shangrila,233,Competition4,Mens  Formals,ALLEN SOLLY
Gujarat,Ahmadabad,Ahmadabad City,Ahmadabad,Suburbs,380015,Vastrapur,Vastrapur,426,Competition1,E-Com Brands,BEING HUMAN
Gujarat,Ahmadabad,Ahmadabad City,Ahmadabad,Second City,380054,Bodakdev,Bodakdev,293,Competition3,BTL Fashion & Active Sports,BLACKBERRYS
Gujarat,Ahmadabad,Ahmadabad City,Ahmadabad,Second City,380054,Thaltej,Shangrila,233,Competition4,Personal Accessories,BLACKBERRYS
Gujarat,Ahmadabad,Ahmadabad City,Ahmadabad,Second City,380054,Vastrapur,Vastrapur,426,Competition2,E-Com Brands,PIERRE CARDIN
Gujarat,Ahmadabad,Ahmadabad City,Ahmadabad,Second City,380054,Thaltej,Shangrila,233,Competition2,Mens  Formals,PIERRE CARDIN
Gujarat,Ahmadabad,Ahmadabad City,Ahmadabad,Second City,380054,Thaltej,Shangrila,233,Competition5,Mens  Formals,PIERRE CARDIN
Gujarat,Ahmadabad,Ahmadabad City,Ahmadabad,Second City,380054,Thaltej,Shangrila,233,Competition2,Personal Accessories,BEING HUMAN
Gujarat,Ahmadabad,Ahmadabad City,Ahmadabad,Second City,380054,Thaltej,Shangrila,233,Competition2,Mens  Formals,MEXX
Gujarat,Ahmadabad,Ahmadabad City,Ahmadabad,Second City,380054,Thaltej,Shangrila,233,Competition2,BTL Fashion & Active Sports,MEXX
Gujarat,Ahmadabad,Ahmadabad City,Ahmadabad,Second City,380054,Thaltej,Shangrila,233,Competition4,BTL Fashion & Active Sports,TITAN
Gujarat,Ahmadabad,Ahmadabad City,Ahmadabad,Suburbs,380058,Ashok Vatika,Ashok Vatika,287,Competition1,BTL Fashion & Active Sports,BLACKBERRYS
Gujarat,Ahmadabad,Ahmadabad City,Ahmadabad,Second City,380054,Ashok Vatika,Ashok Vatika,287,Competition2,BTL Fashion & Active Sports,TITAN
Gujarat,Ahmadabad,Ahmadabad City,Ahmadabad,Suburbs,380054,Bodakdev,Bodakdev,293,Competition3,Mens  Formals,BEING HUMAN
Gujarat,Ahmadabad,Ahmadabad City,Ahmadabad,Second City,380054,Thaltej,Shangrila,233,Competition5,Mens  Formals,MEXX
Gujarat,Ahmadabad,Ahmadabad City,Ahmadabad,Second City,380054,Thaltej,Jai Ambe Nagar,93,Competition4,Personal Accessories,BLACKBERRYS
Gujarat,Ahmadabad,Ahmadabad City,Ahmadabad,Second City,380054,Bodakdev,Bodakdev,293,Competition2,E-Com Brands,PIERRE CARDIN
Gujarat,Ahmadabad,Ahmadabad City,Ahmadabad,Second City,380054,Thaltej,Jai Ambe Nagar,93,Competition1,E-Com Brands,BEING HUMAN
Gujarat,Ahmadabad,Ahmadabad City,Ahmadabad,Second City,380054,Thaltej,Shangrila,233,Competition5,BTL Fashion & Active Sports,ALLEN SOLLY
Gujarat,Ahmadabad,Ahmadabad City,Ahmadabad,Second City,380058,Thaltej,PRL Colony,185,Competition5,Mens  Formals,BEING HUMAN
Gujarat,Ahmadabad,Ahmadabad City,Ahmadabad,Second City,380054,Thaltej,Shangrila,233,Competition4,BTL Fashion & Active Sports,BEING HUMAN
Gujarat,Ahmadabad,Ahmadabad City,Ahmadabad,Second City,380054,Bodakdev,Sumeru,251,Competition1,Mens  Formals,MEXX
Gujarat,Ahmadabad,Ahmadabad City,Ahmadabad,Second City,380054,Thaltej,Shangrila,233,Competition2,Mens  Formals,BLACKBERRYS
Gujarat,Ahmadabad,Ahmadabad City,Ahmadabad,Suburbs,380054,Satellite,Premchand Nagar,182,Competition1,Mens  Formals,PIERRE CARDIN
Gujarat,Ahmadabad,Ahmadabad City,Ahmadabad,Suburbs,380054,Bodakdev,Bodakdev,293,Competition4,E-Com Brands,VAN HEUSEN
Gujarat,Ahmadabad,Ahmadabad City,Ahmadabad,Second City,380054,Thaltej,Shangrila,233,Competition5,BTL Fashion & Active Sports,BEING HUMAN
Gujarat,Ahmadabad,Ahmadabad City,Ahmadabad,Second City,380054,Thaltej,Shangrila,233,Competition3,E-Com Brands,MEXX
Gujarat,Ahmadabad,Ahmadabad City,Ahmadabad,Second City,380054,Thaltej,PRL Colony,185,Competition3,E-Com Brands,PIERRE CARDIN
Gujarat,Ahmadabad,Ahmadabad City,Ahmadabad,Second City,380054,Thaltej,Shangrila,233,Competition4,Personal Accessories,BLACKBERRYS
Gujarat,Ahmadabad,Ahmadabad City,Ahmadabad,Second City,380054,Thaltej,Shangrila,233,Competition3,Personal Accessories,BEING HUMAN
Gujarat,Ahmadabad,Ahmadabad City,Ahmadabad,Second City,380054,Thaltej,Shangrila,233,Competition4,Personal Accessories,PIERRE CARDIN
Gujarat,Ahmadabad,Ahmadabad City,Ahmadabad,Second City,380054,Ashok Vatika,Ashok Vatika,287,Competition5,BTL Fashion & Active Sports,VAN HEUSEN
Gujarat,Ahmadabad,Ahmadabad City,Ahmadabad,Second City,380054,Thaltej,Shangrila,233,Competition5,Personal Accessories,PIERRE CARDIN
Gujarat,Ahmadabad,Ahmadabad City,Ahmadabad,Second City,380054,Thaltej,Bhaikakanagar,19,Competition3,BTL Fashion & Active Sports,PIERRE CARDIN
Gujarat,Ahmadabad,Ahmadabad City,Ahmadabad,Second City,380054,Thaltej,Shangrila,233,Competition4,E-Com Brands,MEXX
Gujarat,Ahmadabad,Ahmadabad City,Ahmadabad,Second City,380054,Bodakdev,Bodakdev,293,Competition1,Personal Accessories,MEXX
Gujarat,Ahmadabad,Ahmadabad City,Ahmadabad,Second City,380054,Thaltej,Shangrila,233,Competition4,Mens  Formals,TITAN
Gujarat,Ahmadabad,Ahmadabad City,Ahmadabad,Second City,380054,Thaltej,Jai Ambe Nagar,93,Competition3,BTL Fashion & Active Sports,PIERRE CARDIN
Gujarat,Ahmadabad,Ahmadabad City,Ahmadabad,Second City,380054,Thaltej,Panchamrut Bunglows II,155,Competition5,Mens  Formals,BEING HUMAN
Gujarat,Ahmadabad,Ahmadabad City,Ahmadabad,Second City,380054,Thaltej,Shangrila,233,Competition2,E-Com Brands,ALLEN SOLLY
Gujarat,Ahmadabad,Ahmadabad City,Ahmadabad,Second City,380054,Thaltej,Jai Ambe Nagar,93,Competition2,Personal Accessories,ALLEN SOLLY
Gujarat,Ahmadabad,Ahmadabad City,Ahmadabad,Second City,380054,Thaltej,Shangrila,233,Competition3,Personal Accessories,TITAN
Gujarat,Ahmadabad,Ahmadabad City,Ahmadabad,Second City,380054,Thaltej,Shangrila,233,Competition4,BTL Fashion & Active Sports,PIERRE CARDIN
Gujarat,Ahmadabad,Ahmadabad City,Ahmadabad,Second City,380054,Thaltej,Shangrila,233,Competition2,E-Com Brands,PIERRE CARDIN
Gujarat,Ahmadabad,Ahmadabad City,Ahmadabad,Second City,380054,Bodakdev,Bodakdev,293,Competition3,Mens  Formals,PIERRE CARDIN
Gujarat,Ahmadabad,Ahmadabad City,Ahmadabad,Second City,380054,Thaltej,Shangrila,233,Competition3,BTL Fashion & Active Sports,PIERRE CARDIN
Gujarat,Ahmadabad,Ahmadabad City,Ahmadabad,Second City,380054,Bodakdev,Bodakdev,293,Competition3,Mens  Formals,BLACKBERRYS
Gujarat,Ahmadabad,Ahmadabad City,Ahmadabad,Second City,380054,Thaltej,Shangrila,233,Competition1,Mens  Formals,BLACKBERRYS
Gujarat,Ahmadabad,Ahmadabad City,Ahmadabad,Second City,380054,Thaltej,Shangrila,233,Competition4,Mens  Formals,BLACKBERRYS
Gujarat,Ahmadabad,Ahmadabad City,Ahmadabad,Second City,380054,Thaltej,Shangrila,233,Competition5,E-Com Brands,BEING HUMAN
Gujarat,Ahmadabad,Ahmadabad City,Ahmadabad,Second City,380054,Thaltej,Shangrila,233,Competition1,E-Com Brands,PIERRE CARDIN
Gujarat,Ahmadabad,Ahmadabad City,Ahmadabad,Second City,380054,Thaltej,Shangrila,233,Competition2,Personal Accessories,MEXX
Gujarat,Ahmadabad,Ahmadabad City,Ahmadabad,Second City,380054,Thaltej,Shangrila,233,Competition1,Personal Accessories,TITAN
Gujarat,Ahmadabad,Ahmadabad City,Ahmadabad,Second City,380054,Thaltej,Shangrila,233,Competition1,Mens  Formals,PIERRE CARDIN
Gujarat,Ahmadabad,Ahmadabad City,Ahmadabad,Second City,380054,Thaltej,Jai Ambe Nagar,93,Competition1,Personal Accessories,ALLEN SOLLY
Gujarat,Ahmadabad,Ahmadabad City,Ahmadabad,Second City,380054,Thaltej,PRL Colony,185,Competition2,BTL Fashion & Active Sports,VAN HEUSEN
Gujarat,Ahmadabad,Ahmadabad City,Ahmadabad,Second City,380054,Thaltej,Bhaikakanagar,19,Competition3,BTL Fashion & Active Sports,MEXX
Gujarat,Ahmadabad,Ahmadabad City,Ahmadabad,Suburbs,380054,Ashok Vatika,Ashok Vatika,287,Competition2,BTL Fashion & Active Sports,PIERRE CARDIN
Gujarat,Ahmadabad,Ahmadabad City,Ahmadabad,Suburbs,380054,Satellite,Premchand Nagar,182,Competition3,Mens  Formals,PIERRE CARDIN
Gujarat,Ahmadabad,Ahmadabad City,Ahmadabad,Suburbs,380054,Vastrapur,Vastrapur,426,Competition1,E-Com Brands,PIERRE CARDIN
Gujarat,Ahmadabad,Ahmadabad City,Ahmadabad,Second City,380054,Thaltej,Shangrila,233,Competition1,Mens  Formals,PIERRE CARDIN
Gujarat,Ahmadabad,Ahmadabad City,Ahmadabad,Second City,380054,Thaltej,Shangrila,233,Competition2,Personal Accessories,MEXX
Gujarat,Ahmadabad,Ahmadabad City,Ahmadabad,Second City,380054,Thaltej,Shangrila,233,Competition4,E-Com Brands,ALLEN SOLLY
Gujarat,Ahmadabad,Ahmadabad City,Ahmadabad,Suburbs,380054,Mem Nagar,Mem Nagar,348,Competition5,Personal Accessories,ALLEN SOLLY
Gujarat,Ahmadabad,Ahmadabad City,Ahmadabad,Second City,380054,Thaltej,Shangrila,233,Competition2,Personal Accessories,VAN HEUSEN
Gujarat,Ahmadabad,Ahmadabad City,Ahmadabad,Second City,380054,Thaltej,Shangrila,233,Competition1,BTL Fashion & Active Sports,VAN HEUSEN
Gujarat,Ahmadabad,Ahmadabad City,Ahmadabad,Second City,380054,Thaltej,Shangrila,233,Competition4,E-Com Brands,ALLEN SOLLY
Gujarat,Ahmadabad,Ahmadabad City,Ahmadabad,Second City,380054,Thaltej,Shangrila,233,Competition2,Personal Accessories,BLACKBERRYS
Gujarat,Ahmadabad,Ahmadabad City,Ahmadabad,Second City,380054,Thaltej,Shangrila,233,Competition5,BTL Fashion & Active Sports,BLACKBERRYS
Gujarat,Ahmadabad,Ahmadabad City,Ahmadabad,Second City,380054,Thaltej,Shangrila,233,Competition5,Personal Accessories,ALLEN SOLLY
Gujarat,Ahmadabad,Ahmadabad City,Ahmadabad,Second City,380054,Bodakdev,Bodakdev,293,Competition2,E-Com Brands,PIERRE CARDIN
Gujarat,Ahmadabad,Ahmadabad City,Ahmadabad,Suburbs,380054,Ashok Vatika,Ashok Vatika,287,Competition1,BTL Fashion & Active Sports,BLACKBERRYS
Gujarat,Ahmadabad,Ahmadabad City,Ahmadabad,Suburbs,380015,Satellite,Premchand Nagar,182,Competition2,Personal Accessories,BLACKBERRYS
Gujarat,Ahmadabad,Ahmadabad City,Ahmadabad,Second City,380054,Thaltej,Shangrila,233,Competition4,Mens  Formals,BEING HUMAN
Gujarat,Ahmadabad,Ahmadabad City,Ahmadabad,Suburbs,380054,Vastrapur,Vastrapur,426,Competition5,BTL Fashion & Active Sports,BLACKBERRYS
Gujarat,Ahmadabad,Ahmadabad City,Ahmadabad,Second City,380054,Thaltej,PRL Colony,185,Competition4,Mens  Formals,BEING HUMAN
Gujarat,Ahmadabad,Ahmadabad City,Ahmadabad,Suburbs,380054,Ashok Vatika,Ashok Vatika,287,Competition2,E-Com Brands,ALLEN SOLLY
Gujarat,Ahmadabad,Ahmadabad City,Ahmadabad,Second City,380054,Thaltej,PRL Colony,185,Competition5,Mens  Formals,ALLEN SOLLY
Gujarat,Ahmadabad,Ahmadabad City,Ahmadabad,Second City,380054,Mem Nagar,Nilmani Society,147,Competition4,Personal Accessories,VAN HEUSEN
Gujarat,Ahmadabad,Ahmadabad City,Ahmadabad,Second City,380054,Thaltej,Shangrila,233,Competition4,Mens  Formals,VAN HEUSEN
Gujarat,Ahmadabad,Ahmadabad City,Ahmadabad,Second City,380054,Bodakdev,Bodakdev,293,Competition3,E-Com Brands,BEING HUMAN
Gujarat,Ahmadabad,Ahmadabad City,Ahmadabad,Second City,380054,Bodakdev,Sumeru,251,Competition2,E-Com Brands,ALLEN SOLLY
Gujarat,Ahmadabad,Ahmadabad City,Ahmadabad,Second City,380054,Thaltej,Shangrila,233,Competition5,Mens  Formals,MEXX
Gujarat,Ahmadabad,Ahmadabad City,Ahmadabad,Second City,380054,Bodakdev,Bodakdev,293,Competition3,BTL Fashion & Active Sports,PIERRE CARDIN
Gujarat,Ahmadabad,Ahmadabad City,Ahmadabad,Second City,380054,Thaltej,Jai Ambe Nagar,93,Competition4,BTL Fashion & Active Sports,TITAN
Gujarat,Ahmadabad,Ahmadabad City,Ahmadabad,Second City,380054,Thaltej,Shangrila,233,Competition4,Mens  Formals,TITAN
Gujarat,Ahmadabad,Ahmadabad City,Ahmadabad,Second City,380054,Thaltej,Someshwar Park III,245,Competition5,Personal Accessories,BEING HUMAN
Gujarat,Ahmadabad,Ahmadabad City,Ahmadabad,Second City,380054,Bodakdev,Bodakdev,293,Competition1,Personal Accessories,VAN HEUSEN
Gujarat,Ahmadabad,Ahmadabad City,Ahmadabad,Suburbs,380054,Thaltej,Nirant Park Society Part 2,149,Competition5,BTL Fashion & Active Sports,MEXX
Gujarat,Ahmadabad,Ahmadabad City,Ahmadabad,Suburbs,380054,Gurukul,Sunrise Park,254,Competition2,BTL Fashion & Active Sports,VAN HEUSEN
Gujarat,Ahmadabad,Ahmadabad City,Ahmadabad,Suburbs,380054,Ashok Vatika,Ashok Vatika,287,Competition1,Personal Accessories,VAN HEUSEN
Gujarat,Ahmadabad,Ahmadabad City,Ahmadabad,Suburbs,380063,Thaltej,Someshwar Park III,245,Competition2,Personal Accessories,TITAN
Gujarat,Ahmadabad,Ahmadabad City,Ahmadabad,Suburbs,380054,Bodakdev,Bodakdev,293,Competition2,E-Com Brands,TITAN
Gujarat,Ahmadabad,Ahmadabad City,Ahmadabad,Suburbs,380051,Vikram Nagar,Vikram Nagar,430,Competition4,E-Com Brands,TITAN
Gujarat,Ahmadabad,Ahmadabad City,Ahmadabad,Suburbs,380052,Mem Nagar,Mem Nagar,348,Competition3,Mens  Formals,PIERRE CARDIN
Gujarat,Ahmadabad,Ahmadabad City,Ahmadabad,Suburbs,380054,Satellite,Premchand Nagar,182,Competition5,Mens  Formals,VAN HEUSEN
Gujarat,Ahmadabad,Ahmadabad City,Ahmadabad,Suburbs,380054,Gurukul,Sunrise Park,254,Competition3,BTL Fashion & Active Sports,BEING HUMAN
Gujarat,Ahmadabad,Ahmadabad City,Ahmadabad,Second City,380059,Thaltej,Panchamrut Bunglows II,155,Competition1,Personal Accessories,VAN HEUSEN
Gujarat,Ahmadabad,Ahmadabad City,Ahmadabad,Suburbs,380054,Gurukul,Sunrise Park,254,Competition1,Mens  Formals,TITAN
Gujarat,Ahmadabad,Ahmadabad City,Ahmadabad,Second City,380054,Thaltej,Shangrila,233,Competition3,BTL Fashion & Active Sports,BEING HUMAN
Gujarat,Ahmadabad,Ahmadabad City,Ahmadabad,Suburbs,380051,Satellite,Premchand Nagar,182,Competition3,BTL Fashion & Active Sports,MEXX
Gujarat,Ahmadabad,Ahmadabad City,Ahmadabad,Suburbs,380054,Gurukul,Sunrise Park,254,Competition2,Mens  Formals,BEING HUMAN
Gujarat,Ahmadabad,Ahmadabad City,Ahmadabad,Suburbs,380054,Bodakdev,Bodakdev,293,Competition2,Mens  Formals,TITAN
Gujarat,Ahmadabad,Ahmadabad City,Ahmadabad,Suburbs,380054,Bodakdev,Bodakdev,293,Competition1,E-Com Brands,BEING HUMAN
Gujarat,Ahmadabad,Ahmadabad City,Ahmadabad,Suburbs,380054,Thaltej,Nirant Park Society Part 1,148,Competition3,Personal Accessories,VAN HEUSEN
Gujarat,Ahmadabad,Ahmadabad City,Ahmadabad,Suburbs,380054,Vikram Nagar,Vikram Nagar,430,Competition4,BTL Fashion & Active Sports,MEXX
Gujarat,Ahmadabad,Ahmadabad City,Ahmadabad,Suburbs,380054,Thaltej,Someshwar Park III,245,Competition2,E-Com Brands,TITAN
Gujarat,Ahmadabad,Ahmadabad City,Ahmadabad,Second City,380054,Vastrapur,Vastrapur,426,Competition3,Mens  Formals,ALLEN SOLLY
Gujarat,Ahmadabad,Ahmadabad City,Ahmadabad,Suburbs,380063,Mem Nagar,Mem Nagar,348,Competition1,BTL Fashion & Active Sports,BLACKBERRYS
Gujarat,Ahmadabad,Ahmadabad City,Ahmadabad,Suburbs,380054,Thaltej,Someshwar Park III,245,Competition4,E-Com Brands,VAN HEUSEN
Gujarat,Ahmadabad,Ahmadabad City,Ahmadabad,Suburbs,380054,Satellite,Premchand Nagar,182,Competition1,Personal Accessories,TITAN
Gujarat,Ahmadabad,Ahmadabad City,Ahmadabad,Suburbs,380015,Bodakdev,Bodakdev,293,Competition2,BTL Fashion & Active Sports,MEXX
Gujarat,Ahmadabad,Ahmadabad City,Ahmadabad,Suburbs,380054,Thaltej,Nirant Park Society Part 2,149,Competition5,E-Com Brands,TITAN
Gujarat,Ahmadabad,Ahmadabad City,Ahmadabad,Suburbs,380054,Mem Nagar,Nilmani Society,147,Competition2,Personal Accessories,MEXX
Gujarat,Ahmadabad,Ahmadabad City,Ahmadabad,Suburbs,380054,Satellite,Premchand Nagar,182,Competition1,BTL Fashion & Active Sports,BLACKBERRYS
Gujarat,Ahmadabad,Ahmadabad City,Ahmadabad,Suburbs,380054,Thaltej,Someshwar Park III,245,Competition2,Mens  Formals,TITAN
Gujarat,Ahmadabad,Ahmadabad City,Ahmadabad,Suburbs,380051,Satellite,Premchand Nagar,182,Competition1,Mens  Formals,BLACKBERRYS
Gujarat,Ahmadabad,Ahmadabad City,Ahmadabad,Suburbs,380054,Mem Nagar,Mem Nagar,348,Competition1,E-Com Brands,PIERRE CARDIN
Gujarat,Ahmadabad,Ahmadabad City,Ahmadabad,Suburbs,380054,Gurukul,Sunrise Park,254,Competition1,Personal Accessories,PIERRE CARDIN
Gujarat,Ahmadabad,Ahmadabad City,Ahmadabad,Suburbs,380054,Satellite,Premchand Nagar,182,Competition5,Personal Accessories,BEING HUMAN
Gujarat,Ahmadabad,Ahmadabad City,Ahmadabad,Suburbs,380052,Mem Nagar,Sarathi Co-operative Housing Society,213,Competition5,BTL Fashion & Active Sports,TITAN
Gujarat,Ahmadabad,Ahmadabad City,Ahmadabad,Suburbs,380054,Mem Nagar,Sarathi Co-operative Housing Society,213,Competition2,E-Com Brands,ALLEN SOLLY
Gujarat,Ahmadabad,Ahmadabad City,Ahmadabad,Suburbs,380052,Mem Nagar,Nilmani Society,147,Competition1,E-Com Brands,TITAN
Gujarat,Ahmadabad,Ahmadabad City,Ahmadabad,Suburbs,380054,Thaltej,Someshwar Park III,245,Competition3,E-Com Brands,TITAN
Gujarat,Ahmadabad,Ahmadabad City,Ahmadabad,Suburbs,380054,Gurukul,Sunrise Park,254,Competition5,E-Com Brands,PIERRE CARDIN
Gujarat,Ahmadabad,Ahmadabad City,Ahmadabad,Suburbs,380052,Mem Nagar,Mem Nagar,348,Competition3,BTL Fashion & Active Sports,BEING HUMAN
Gujarat,Ahmadabad,Ahmadabad City,Ahmadabad,Suburbs,380054,Gurukul,Gurukul,315,Competition3,E-Com Brands,TITAN
Gujarat,Ahmadabad,Ahmadabad City,Ahmadabad,Suburbs,380054,Mem Nagar,Nilmani Society,147,Competition4,Personal Accessories,BLACKBERRYS
Gujarat,Ahmadabad,Ahmadabad City,Ahmadabad,Suburbs,380063,Mem Nagar,Vishram Nagar,277,Competition1,BTL Fashion & Active Sports,BLACKBERRYS
Gujarat,Ahmadabad,Ahmadabad City,Ahmadabad,Suburbs,380054,Thaltej,Someshwar Park III,245,Competition1,BTL Fashion & Active Sports,BEING HUMAN
Gujarat,Ahmadabad,Ahmadabad City,Ahmadabad,Suburbs,380052,Mem Nagar,Mem Nagar,348,Competition1,Mens  Formals,BLACKBERRYS
Gujarat,Ahmadabad,Ahmadabad City,Ahmadabad,Suburbs,380054,Thaltej,Someshwar Park III,245,Competition3,Personal Accessories,TITAN
Gujarat,Ahmadabad,Ahmadabad City,Ahmadabad,Suburbs,380054,Thaltej,Nirant Park Society Part 1,148,Competition4,BTL Fashion & Active Sports,VAN HEUSEN
Gujarat,Ahmadabad,Ahmadabad City,Ahmadabad,Suburbs,380052,Mem Nagar,Mem Nagar,348,Competition5,E-Com Brands,PIERRE CARDIN
Gujarat,Ahmadabad,Ahmadabad City,Ahmadabad,Suburbs,380054,Thaltej,Someshwar Park III,245,Competition4,Personal Accessories,MEXX
Gujarat,Ahmadabad,Ahmadabad City,Ahmadabad,Suburbs,380054,Thaltej,Someshwar Park III,245,Competition2,Mens  Formals,BEING HUMAN
Gujarat,Ahmadabad,Ahmadabad City,Ahmadabad,Suburbs,380054,Thaltej,Someshwar Park III,245,Competition2,BTL Fashion & Active Sports,PIERRE CARDIN
Gujarat,Ahmadabad,Ahmadabad City,Ahmadabad,Suburbs,380054,Thaltej,Someshwar Park III,245,Competition3,E-Com Brands,TITAN
Gujarat,Ahmadabad,Ahmadabad City,Ahmadabad,Suburbs,380059,Ghatlodia,Shenbhai Nagar,239,Competition2,Personal Accessories,MEXX
Gujarat,Ahmadabad,Ahmadabad City,Ahmadabad,Suburbs,380054,Thaltej,Someshwar Park III,245,Competition5,BTL Fashion & Active Sports,TITAN
Gujarat,Ahmadabad,Ahmadabad City,Ahmadabad,Suburbs,380061,Ghatlodia,Shenbhai Nagar,239,Competition3,Personal Accessories,MEXX
Gujarat,Ahmadabad,Ahmadabad City,Ahmadabad,Suburbs,380054,Thaltej,Someshwar Park III,245,Competition3,Personal Accessories,TITAN
Gujarat,Ahmadabad,Ahmadabad City,Ahmadabad,Suburbs,380063,Mem Nagar,Mem Nagar,348,Competition1,Personal Accessories,MEXX
Gujarat,Ahmadabad,Ahmadabad City,Ahmadabad,Suburbs,380054,Thaltej,Someshwar Park III,245,Competition5,Mens  Formals,BLACKBERRYS
Gujarat,Ahmadabad,Ahmadabad City,Ahmadabad,Suburbs,380054,Thaltej,Someshwar Park III,245,Competition5,Personal Accessories,PIERRE CARDIN
TAMILNADU,Chennai,Area not under any Sub-district,Chennai,Suburbs,600018,Teynampet,Kasturi Estate,372,Competition3,Mens  Formals,PIERRE CARDIN
TAMILNADU,Chennai,Area not under any Sub-district,Chennai,Suburbs,600018,Teynampet,Thiru Vi Ka Kudiyiruppu,366,Competition3,BTL Fashion & Active Sports,TITAN
TAMILNADU,Chennai,Area not under any Sub-district,Chennai,Suburbs,600018,Teynampet,Thiru Vi Ka Kudiyiruppu,366,Competition4,Mens  Formals,VAN HEUSEN
TAMILNADU,Chennai,Area not under any Sub-district,Chennai,Suburbs,600017,Thyagaraya Nagar,Thyagaraya Nagar,982,Competition1,Mens  Formals,TITAN
TAMILNADU,Chennai,Area not under any Sub-district,Chennai,Suburbs,600017,Thyagaraya Nagar,Thyagaraya Nagar,982,Competition2,BTL Fashion & Active Sports,BEING HUMAN
TAMILNADU,Chennai,Area not under any Sub-district,Chennai,Suburbs,600018,Teynampet,Teynampet,360,Competition5,Mens  Formals,MEXX
TAMILNADU,Chennai,Area not under any Sub-district,Chennai,Suburbs,600018,Teynampet,Subbarayan Nagar,367,Competition4,BTL Fashion & Active Sports,TITAN
TAMILNADU,Chennai,Area not under any Sub-district,Chennai,Suburbs,600017,Thyagaraya Nagar,Drivers Colony,983,Competition4,E-Com Brands,TITAN
TAMILNADU,Chennai,Area not under any Sub-district,Chennai,Suburbs,600018,Teynampet,Teynampet,360,Competition2,Personal Accessories,BLACKBERRYS
TAMILNADU,Chennai,Area not under any Sub-district,Chennai,Suburbs,600018,Teynampet,Subbarayan Nagar,367,Competition4,Personal Accessories,TITAN
TAMILNADU,Chennai,Area not under any Sub-district,Chennai,Suburbs,600018,Teynampet,Teynampet,360,Competition5,Personal Accessories,PIERRE CARDIN
TAMILNADU,Chennai,Area not under any Sub-district,Chennai,Suburbs,600018,Teynampet,Seethammal Extension,364,Competition4,BTL Fashion & Active Sports,VAN HEUSEN
TAMILNADU,Chennai,Area not under any Sub-district,Chennai,Suburbs,600018,Alwarpet,Sri Ram Nagar,78,Competition3,Personal Accessories,VAN HEUSEN
TAMILNADU,Chennai,Area not under any Sub-district,Chennai,Suburbs,600018,Alwarpet,Austin Nagar,79,Competition4,Personal Accessories,TITAN
TAMILNADU,Chennai,Area not under any Sub-district,Chennai,Suburbs,600028,Nandanam,Nandanam,1083,Competition3,Mens  Formals,PIERRE CARDIN
TAMILNADU,Chennai,Area not under any Sub-district,Chennai,Suburbs,600018,Alwarpet,Austin Nagar,79,Competition1,Personal Accessories,ALLEN SOLLY
TAMILNADU,Chennai,Area not under any Sub-district,Chennai,Suburbs,600028,Nandanam,Nandanam,1083,Competition4,BTL Fashion & Active Sports,BEING HUMAN
TAMILNADU,Chennai,Area not under any Sub-district,Chennai,Suburbs,600028,Nandanam,Nandanam,1083,Competition4,Mens  Formals,BEING HUMAN
TAMILNADU,Chennai,Area not under any Sub-district,Chennai,Suburbs,600028,Nandanam,Nandanam,1083,Competition4,BTL Fashion & Active Sports,TITAN
TAMILNADU,Chennai,Area not under any Sub-district,Chennai,Suburbs,600017,Teynampet,Satya Murthy Nagar,361,Competition4,E-Com Brands,VAN HEUSEN
TAMILNADU,Chennai,Area not under any Sub-district,Chennai,Suburbs,600035,Alwarpet,Rathna Nagar,80,Competition2,BTL Fashion & Active Sports,TITAN
TAMILNADU,Chennai,Area not under any Sub-district,Chennai,Suburbs,600035,Alwarpet,Rathna Nagar,80,Competition5,BTL Fashion & Active Sports,TITAN
TAMILNADU,Chennai,Area not under any Sub-district,Chennai,Suburbs,600028,Nandanam,Nandanam,1083,Competition2,BTL Fashion & Active Sports,PIERRE CARDIN
TAMILNADU,Chennai,Area not under any Sub-district,Chennai,Suburbs,600035,Nandanam,Nandanam Extension,1088,Competition5,BTL Fashion & Active Sports,VAN HEUSEN
TAMILNADU,Chennai,Area not under any Sub-district,Chennai,Suburbs,600035,Alwarpet,Rathna Nagar,80,Competition3,E-Com Brands,MEXX
TAMILNADU,Chennai,Area not under any Sub-district,Chennai,Suburbs,600028,Nandanam,Nandanam,1083,Competition2,E-Com Brands,TITAN
TAMILNADU,Chennai,Area not under any Sub-district,Chennai,Suburbs,600028,Raja Annamalai Puram,Thideer Nagar,415,Competition1,BTL Fashion & Active Sports,MEXX
TAMILNADU,Chennai,Area not under any Sub-district,Chennai,Suburbs,600028,Raja Annamalai Puram,South Kesavaperumalpuram,417,Competition5,BTL Fashion & Active Sports,BEING HUMAN
TAMILNADU,Chennai,Area not under any Sub-district,Chennai,Suburbs,600028,Raja Annamalai Puram,South Kesavaperumalpuram,417,Competition3,BTL Fashion & Active Sports,ALLEN SOLLY
TAMILNADU,Chennai,Area not under any Sub-district,Chennai,Suburbs,600017,Thyagaraya Nagar,Drivers Colony,983,Competition5,Mens  Formals,TITAN
TAMILNADU,Chennai,Area not under any Sub-district,Chennai,Suburbs,600017,Thyagaraya Nagar,JJ Nagar,984,Competition3,Personal Accessories,MEXX
TAMILNADU,Chennai,Area not under any Sub-district,Chennai,Suburbs,600018,Teynampet,Teynampet,360,Competition3,BTL Fashion & Active Sports,BLACKBERRYS
TAMILNADU,Chennai,Area not under any Sub-district,Chennai,Suburbs,600017,Thyagaraya Nagar,JJ Nagar,984,Competition3,BTL Fashion & Active Sports,BEING HUMAN
TAMILNADU,Chennai,Area not under any Sub-district,Chennai,Suburbs,600018,Teynampet,Teynampet,360,Competition5,E-Com Brands,MEXX
TAMILNADU,Chennai,Area not under any Sub-district,Chennai,Suburbs,600018,Teynampet,Poes Garden,362,Competition1,E-Com Brands,BEING HUMAN
TAMILNADU,Chennai,Area not under any Sub-district,Chennai,Suburbs,600018,Teynampet,Kasturi Estate,372,Competition4,BTL Fashion & Active Sports,BEING HUMAN
TAMILNADU,Chennai,Area not under any Sub-district,Chennai,Suburbs,600018,Teynampet,Poes Garden,362,Competition2,BTL Fashion & Active Sports,BLACKBERRYS
TAMILNADU,Chennai,Area not under any Sub-district,Chennai,Suburbs,600018,Teynampet,Kasturi Estate,372,Competition1,BTL Fashion & Active Sports,VAN HEUSEN
TAMILNADU,Chennai,Area not under any Sub-district,Chennai,Suburbs,600018,Teynampet,Venus Colony,363,Competition2,BTL Fashion & Active Sports,ALLEN SOLLY
TAMILNADU,Chennai,Area not under any Sub-district,Chennai,Suburbs,600018,Teynampet,Venus Colony,363,Competition2,BTL Fashion & Active Sports,BEING HUMAN
TAMILNADU,Chennai,Area not under any Sub-district,Chennai,Suburbs,600018,Teynampet,Lubdhi Colony,371,Competition5,Personal Accessories,VAN HEUSEN
TAMILNADU,Chennai,Area not under any Sub-district,Chennai,Suburbs,600018,Teynampet,Lubdhi Colony,371,Competition3,Mens  Formals,ALLEN SOLLY
TAMILNADU,Chennai,Area not under any Sub-district,Chennai,Suburbs,600004,Abhiramapuram,Sriram Colony,667,Competition3,BTL Fashion & Active Sports,MEXX
TAMILNADU,Chennai,Area not under any Sub-district,Chennai,Suburbs,600018,Alwarpet,MIG Colony,77,Competition5,BTL Fashion & Active Sports,BLACKBERRYS
TAMILNADU,Chennai,Area not under any Sub-district,Chennai,Suburbs,600018,Abhiramapuram,Sriram Colony,667,Competition1,Mens  Formals,TITAN
TAMILNADU,Chennai,Area not under any Sub-district,Chennai,Suburbs,600018,Alwarpet,Alwarpet,76,Competition1,E-Com Brands,ALLEN SOLLY
TAMILNADU,Chennai,Area not under any Sub-district,Chennai,Suburbs,600018,Abhiramapuram,Vidya Thirtha Nagar,666,Competition5,BTL Fashion & Active Sports,VAN HEUSEN
TAMILNADU,Chennai,Area not under any Sub-district,Chennai,Suburbs,600018,Abhiramapuram,Demonte Colony,672,Competition2,Personal Accessories,BEING HUMAN
TAMILNADU,Chennai,Area not under any Sub-district,Chennai,Suburbs,600018,Alwarpet,Alwarpet,76,Competition2,E-Com Brands,BLACKBERRYS
TAMILNADU,Chennai,Area not under any Sub-district,Chennai,Suburbs,600028,Abhiramapuram,SBI Colony,665,Competition5,Personal Accessories,PIERRE CARDIN
TAMILNADU,Chennai,Area not under any Sub-district,Chennai,Suburbs,600028,Abhiramapuram,SBI Colony,665,Competition3,Personal Accessories,ALLEN SOLLY
TAMILNADU,Chennai,Area not under any Sub-district,Chennai,Suburbs,600018,Abhiramapuram,Vidya Thirtha Nagar,666,Competition2,Personal Accessories,VAN HEUSEN
TAMILNADU,Chennai,Area not under any Sub-district,Chennai,Suburbs,600018,Abhiramapuram,Vidya Thirtha Nagar,666,Competition2,Personal Accessories,PIERRE CARDIN
TAMILNADU,Chennai,Area not under any Sub-district,Chennai,Suburbs,600018,Abhiramapuram,Demonte Colony,672,Competition5,E-Com Brands,BEING HUMAN
TAMILNADU,Chennai,Area not under any Sub-district,Chennai,Suburbs,600018,Abhiramapuram,Demonte Colony,672,Competition1,E-Com Brands,VAN HEUSEN
TAMILNADU,Chennai,Area not under any Sub-district,Chennai,Suburbs,600028,Raja Annamalai Puram,Govindaswamy Nagar,419,Competition1,Personal Accessories,ALLEN SOLLY
TAMILNADU,Chennai,Area not under any Sub-district,Chennai,Suburbs,600028,Abhiramapuram,SBI Colony,665,Competition3,E-Com Brands,VAN HEUSEN
TAMILNADU,Chennai,Area not under any Sub-district,Chennai,Suburbs,600028,Abhiramapuram,SBI Colony,665,Competition1,Personal Accessories,VAN HEUSEN
TAMILNADU,Chennai,Area not under any Sub-district,Chennai,Suburbs,600028,Raja Annamalai Puram,Govindaswamy Nagar,419,Competition1,E-Com Brands,BLACKBERRYS
TAMILNADU,Chennai,Area not under any Sub-district,Chennai,Suburbs,600028,Raja Annamalai Puram,Kesavaperumalpuram,409,Competition3,E-Com Brands,TITAN
TAMILNADU,Chennai,Area not under any Sub-district,Chennai,Suburbs,600028,Raja Annamalai Puram,Krisknapuri,411,Competition3,BTL Fashion & Active Sports,MEXX
TAMILNADU,Chennai,Area not under any Sub-district,Chennai,Suburbs,600028,Raja Annamalai Puram,Govindaswamy Nagar,419,Competition1,E-Com Brands,BEING HUMAN
TAMILNADU,Chennai,Area not under any Sub-district,Chennai,Suburbs,600028,Raja Annamalai Puram,Kesavaperumalpuram,409,Competition5,Personal Accessories,VAN HEUSEN
TAMILNADU,Chennai,Area not under any Sub-district,Chennai,Suburbs,600028,Raja Annamalai Puram,South Kesavaperumalpuram,417,Competition1,Personal Accessories,TITAN
TAMILNADU,Chennai,Area not under any Sub-district,Chennai,Suburbs,600028,Raja Annamalai Puram,Annai Sathya Nagar,420,Competition2,BTL Fashion & Active Sports,TITAN
TAMILNADU,Chennai,Area not under any Sub-district,Chennai,Suburbs,600028,Raja Annamalai Puram,South Kesavaperumalpuram,417,Competition5,Mens  Formals,PIERRE CARDIN
TAMILNADU,Chennai,Area not under any Sub-district,Chennai,Suburbs,600028,Raja Annamalai Puram,Annai Sathya Nagar,420,Competition2,BTL Fashion & Active Sports,PIERRE CARDIN
TAMILNADU,Chennai,Area not under any Sub-district,Chennai,Suburbs,600028,Raja Annamalai Puram,Annai Sathya Nagar,420,Competition4,BTL Fashion & Active Sports,PIERRE CARDIN
TAMILNADU,Chennai,Area not under any Sub-district,Chennai,Suburbs,600028,Mandavelli,Mandavelli,109,Competition1,BTL Fashion & Active Sports,TITAN
TAMILNADU,Chennai,Area not under any Sub-district,Chennai,Suburbs,600028,Mandavelli,Mandavelli,109,Competition1,Personal Accessories,ALLEN SOLLY
TAMILNADU,Chennai,Area not under any Sub-district,Chennai,Suburbs,600028,Raja Annamalai Puram,Ramakrishna Nagar,408,Competition3,BTL Fashion & Active Sports,ALLEN SOLLY
TAMILNADU,Chennai,Area not under any Sub-district,Chennai,Suburbs,600028,Raja Annamalai Puram,Ramakrishna Nagar,408,Competition5,Mens  Formals,BLACKBERRYS
TAMILNADU,Chennai,Area not under any Sub-district,Chennai,Suburbs,600028,Raja Annamalai Puram,Raja Annamalai Puram,405,Competition1,BTL Fashion & Active Sports,ALLEN SOLLY
TAMILNADU,Chennai,Area not under any Sub-district,Chennai,Suburbs,600028,Raja Annamalai Puram,Ramakrishna Nagar,408,Competition3,E-Com Brands,ALLEN SOLLY
TAMILNADU,Chennai,Area not under any Sub-district,Chennai,Suburbs,600028,Raja Annamalai Puram,Karpagam Avenue,413,Competition4,E-Com Brands,PIERRE CARDIN
TAMILNADU,Chennai,Area not under any Sub-district,Chennai,Suburbs,600028,Raja Annamalai Puram,May Flower Garden,407,Competition5,BTL Fashion & Active Sports,PIERRE CARDIN
TAMILNADU,Chennai,Area not under any Sub-district,Chennai,Suburbs,600028,Raja Annamalai Puram,State Bank of India Colony,416,Competition4,Mens  Formals,PIERRE CARDIN
TAMILNADU,Chennai,Area not under any Sub-district,Chennai,Suburbs,600028,Raja Annamalai Puram,State Bank of India Colony,416,Competition3,Personal Accessories,ALLEN SOLLY
TAMILNADU,Chennai,Area not under any Sub-district,Chennai,Suburbs,600028,Mandavelli,Trustpakkam,110,Competition5,Mens  Formals,PIERRE CARDIN
TAMILNADU,Chennai,Area not under any Sub-district,Chennai,Suburbs,600028,Raja Annamalai Puram,Govindaswamy Nagar,419,Competition5,BTL Fashion & Active Sports,ALLEN SOLLY
TAMILNADU,Chennai,Area not under any Sub-district,Chennai,Suburbs,600028,Raja Annamalai Puram,Krisknapuri,411,Competition2,Personal Accessories,VAN HEUSEN
TAMILNADU,Chennai,Area not under any Sub-district,Chennai,Suburbs,600028,Raja Annamalai Puram,Govindaswamy Nagar,419,Competition3,E-Com Brands,MEXX
TAMILNADU,Chennai,Area not under any Sub-district,Chennai,Suburbs,600028,Raja Annamalai Puram,Bishop Garden,406,Competition2,BTL Fashion & Active Sports,BEING HUMAN
TAMILNADU,Chennai,Area not under any Sub-district,Chennai,Suburbs,600028,Raja Annamalai Puram,Kesavaperumalpuram,409,Competition1,E-Com Brands,VAN HEUSEN
TAMILNADU,Chennai,Area not under any Sub-district,Chennai,Suburbs,600028,Raja Annamalai Puram,Krisknapuri,411,Competition4,Mens  Formals,ALLEN SOLLY
TAMILNADU,Chennai,Area not under any Sub-district,Chennai,Suburbs,600028,Raja Annamalai Puram,Bishop Garden,406,Competition5,Personal Accessories,PIERRE CARDIN
TAMILNADU,Chennai,Area not under any Sub-district,Chennai,Suburbs,600028,Raja Annamalai Puram,Kesavaperumalpuram,409,Competition2,Personal Accessories,VAN HEUSEN
TAMILNADU,Chennai,Area not under any Sub-district,Chennai,Suburbs,600028,Raja Annamalai Puram,Annai Sathya Nagar,420,Competition5,BTL Fashion & Active Sports,TITAN
TAMILNADU,Chennai,Area not under any Sub-district,Chennai,Suburbs,600028,Raja Annamalai Puram,Annai Sathya Nagar,420,Competition3,Mens  Formals,TITAN
TAMILNADU,Chennai,Area not under any Sub-district,Chennai,Suburbs,600028,Raja Annamalai Puram,Annai Sathya Nagar,420,Competition4,BTL Fashion & Active Sports,BEING HUMAN
TAMILNADU,Chennai,Area not under any Sub-district,Chennai,Suburbs,600028,Mandavelli,Mandavelli,109,Competition3,E-Com Brands,VAN HEUSEN
TAMILNADU,Chennai,Area not under any Sub-district,Chennai,Suburbs,600028,Raja Annamalai Puram,Mandavelipakkam,418,Competition4,Personal Accessories,TITAN
TAMILNADU,Chennai,Area not under any Sub-district,Chennai,Suburbs,600004,Mylapore,Saradapuram,832,Competition2,Personal Accessories,TITAN
TAMILNADU,Chennai,Area not under any Sub-district,Chennai,Suburbs,600028,Mandavelli,Mandavelli,109,Competition4,Mens  Formals,ALLEN SOLLY
TAMILNADU,Chennai,Area not under any Sub-district,Chennai,Suburbs,600028,Raja Annamalai Puram,Ramakrishna Nagar,408,Competition2,BTL Fashion & Active Sports,BLACKBERRYS
TAMILNADU,Chennai,Area not under any Sub-district,Chennai,Suburbs,600028,Raja Annamalai Puram,Raja Annamalai Puram,405,Competition5,E-Com Brands,TITAN
TAMILNADU,Chennai,Area not under any Sub-district,Chennai,Suburbs,600028,Raja Annamalai Puram,Raja Annamalai Puram,405,Competition4,Personal Accessories,PIERRE CARDIN
TAMILNADU,Chennai,Area not under any Sub-district,Chennai,Suburbs,600028,Raja Annamalai Puram,Karpagam Avenue,413,Competition3,Personal Accessories,VAN HEUSEN
TAMILNADU,Chennai,Area not under any Sub-district,Chennai,Suburbs,600028,Raja Annamalai Puram,Karpagam Avenue,413,Competition4,E-Com Brands,PIERRE CARDIN
TAMILNADU,Chennai,Area not under any Sub-district,Chennai,Suburbs,600028,Raja Annamalai Puram,State Bank of India Colony,416,Competition3,Mens  Formals,ALLEN SOLLY
TAMILNADU,Chennai,Area not under any Sub-district,Chennai,Suburbs,600018,Teynampet,Poes Garden,362,Competition5,E-Com Brands,ALLEN SOLLY
TAMILNADU,Chennai,Area not under any Sub-district,Chennai,Suburbs,600018,Teynampet,Rostrevor Garden,368,Competition2,BTL Fashion & Active Sports,VAN HEUSEN
TAMILNADU,Chennai,Area not under any Sub-district,Chennai,Suburbs,600018,Teynampet,Poes Garden,362,Competition3,Personal Accessories,PIERRE CARDIN
TAMILNADU,Chennai,Area not under any Sub-district,Chennai,Suburbs,600018,Teynampet,Rostrevor Garden,368,Competition1,Mens  Formals,BEING HUMAN
TAMILNADU,Chennai,Area not under any Sub-district,Chennai,Suburbs,600018,Teynampet,Venus Colony,363,Competition3,Mens  Formals,BLACKBERRYS
TAMILNADU,Chennai,Area not under any Sub-district,Chennai,Suburbs,600018,Teynampet,Subbarayan Nagar,367,Competition3,Personal Accessories,TITAN
TAMILNADU,Chennai,Area not under any Sub-district,Chennai,Suburbs,600018,Teynampet,Teynampet,360,Competition5,Personal Accessories,MEXX
TAMILNADU,Chennai,Area not under any Sub-district,Chennai,Suburbs,600018,Teynampet,Lubdhi Colony,371,Competition1,Mens  Formals,BLACKBERRYS
TAMILNADU,Chennai,Area not under any Sub-district,Chennai,Suburbs,600018,Teynampet,Lubdhi Colony,371,Competition4,BTL Fashion & Active Sports,MEXX
TAMILNADU,Chennai,Area not under any Sub-district,Chennai,Suburbs,600018,Alwarpet,MIG Colony,77,Competition5,Personal Accessories,VAN HEUSEN
TAMILNADU,Chennai,Area not under any Sub-district,Chennai,Suburbs,600018,Alwarpet,MIG Colony,77,Competition3,E-Com Brands,TITAN
TAMILNADU,Chennai,Area not under any Sub-district,Chennai,Suburbs,600018,Alwarpet,Sri Ram Nagar,78,Competition1,Mens  Formals,MEXX
TAMILNADU,Chennai,Area not under any Sub-district,Chennai,Suburbs,600018,Abhiramapuram,Demonte Colony,672,Competition4,BTL Fashion & Active Sports,PIERRE CARDIN
TAMILNADU,Chennai,Area not under any Sub-district,Chennai,Suburbs,600018,Alwarpet,Sri Ram Nagar,78,Competition4,E-Com Brands,VAN HEUSEN
TAMILNADU,Chennai,Area not under any Sub-district,Chennai,Suburbs,600028,Nandanam,Nandanam,1083,Competition4,Personal Accessories,ALLEN SOLLY
TAMILNADU,Chennai,Area not under any Sub-district,Chennai,Suburbs,600018,Abhiramapuram,Demonte Colony,672,Competition1,E-Com Brands,VAN HEUSEN
TAMILNADU,Chennai,Area not under any Sub-district,Chennai,Suburbs,600018,Alwarpet,Austin Nagar,79,Competition3,E-Com Brands,VAN HEUSEN
TAMILNADU,Chennai,Area not under any Sub-district,Chennai,Suburbs,600028,Nandanam,Nandanam,1083,Competition1,E-Com Brands,MEXX
TAMILNADU,Chennai,Area not under any Sub-district,Chennai,Suburbs,600028,Nandanam,Nandanam,1083,Competition5,Personal Accessories,BLACKBERRYS
TAMILNADU,Chennai,Area not under any Sub-district,Chennai,Suburbs,600028,Raja Annamalai Puram,Thideer Nagar,415,Competition4,Mens  Formals,BEING HUMAN
TAMILNADU,Chennai,Area not under any Sub-district,Chennai,Suburbs,600028,Nandanam,Nandanam,1083,Competition1,E-Com Brands,BEING HUMAN
TAMILNADU,Chennai,Area not under any Sub-district,Chennai,Suburbs,600028,Raja Annamalai Puram,Thideer Nagar,415,Competition2,E-Com Brands,BLACKBERRYS
TAMILNADU,Chennai,Area not under any Sub-district,Chennai,Suburbs,600028,Raja Annamalai Puram,Govindaswamy Nagar,419,Competition1,BTL Fashion & Active Sports,BEING HUMAN
TAMILNADU,Chennai,Area not under any Sub-district,Chennai,Suburbs,600028,Raja Annamalai Puram,Mandavelipakkam,418,Competition4,BTL Fashion & Active Sports,BLACKBERRYS
TAMILNADU,Chennai,Area not under any Sub-district,Chennai,Suburbs,600004,Mylapore,Sankarapuram,838,Competition2,BTL Fashion & Active Sports,PIERRE CARDIN
TAMILNADU,Chennai,Area not under any Sub-district,Chennai,Suburbs,600028,Raja Annamalai Puram,Mandavelipakkam,418,Competition1,Personal Accessories,TITAN
TAMILNADU,Chennai,Area not under any Sub-district,Chennai,Suburbs,600028,Raja Annamalai Puram,Karpagam Avenue,413,Competition1,Personal Accessories,BLACKBERRYS
TAMILNADU,Chennai,Area not under any Sub-district,Chennai,Suburbs,600028,Raja Annamalai Puram,Mandavelipakkam,418,Competition5,BTL Fashion & Active Sports,PIERRE CARDIN
TAMILNADU,Chennai,Area not under any Sub-district,Chennai,Suburbs,600028,Raja Annamalai Puram,Karpagam Avenue,413,Competition2,Personal Accessories,PIERRE CARDIN
TAMILNADU,Chennai,Area not under any Sub-district,Chennai,Suburbs,600028,Raja Annamalai Puram,Karpagam Avenue,413,Competition5,Mens  Formals,BLACKBERRYS
TAMILNADU,Chennai,Area not under any Sub-district,Chennai,Suburbs,600028,Raja Annamalai Puram,MRC Nagar,414,Competition3,Mens  Formals,MEXX
TAMILNADU,Chennai,Area not under any Sub-district,Chennai,Suburbs,600028,Raja Annamalai Puram,MRC Nagar,414,Competition4,Mens  Formals,BEING HUMAN
TAMILNADU,Chennai,Area not under any Sub-district,Chennai,Suburbs,600028,Raja Annamalai Puram,MRC Nagar,414,Competition4,Mens  Formals,TITAN
TAMILNADU,Chennai,Area not under any Sub-district,Chennai,Suburbs,600018,Teynampet,Kasturi Estate,372,Competition2,Mens  Formals,BLACKBERRYS
TAMILNADU,Chennai,Area not under any Sub-district,Chennai,Suburbs,600018,Teynampet,Parthasarathypuram,365,Competition2,Mens  Formals,BEING HUMAN
TAMILNADU,Chennai,Area not under any Sub-district,Chennai,Suburbs,600018,Teynampet,Kasturi Estate,372,Competition1,Personal Accessories,VAN HEUSEN
TAMILNADU,Chennai,Area not under any Sub-district,Chennai,Suburbs,600018,Teynampet,Parthasarathypuram,365,Competition4,Personal Accessories,MEXX
TAMILNADU,Chennai,Area not under any Sub-district,Chennai,Suburbs,600018,Teynampet,Kasturi Estate,372,Competition3,Mens  Formals,ALLEN SOLLY
TAMILNADU,Chennai,Area not under any Sub-district,Chennai,Suburbs,600018,Teynampet,Venus Colony,363,Competition1,BTL Fashion & Active Sports,VAN HEUSEN
TAMILNADU,Chennai,Area not under any Sub-district,Chennai,Suburbs,600018,Teynampet,Parthasarathypuram,365,Competition4,E-Com Brands,BEING HUMAN
TAMILNADU,Chennai,Area not under any Sub-district,Chennai,Suburbs,600018,Teynampet,Lubdhi Colony,371,Competition1,Personal Accessories,VAN HEUSEN
TAMILNADU,Chennai,Area not under any Sub-district,Chennai,Suburbs,600004,Abhiramapuram,Sriram Colony,667,Competition1,E-Com Brands,BLACKBERRYS
TAMILNADU,Chennai,Area not under any Sub-district,Chennai,Suburbs,600004,Mylapore,CIT Colony,852,Competition3,BTL Fashion & Active Sports,BEING HUMAN
TAMILNADU,Chennai,Area not under any Sub-district,Chennai,Suburbs,600004,Abhiramapuram,Sriram Colony,667,Competition5,BTL Fashion & Active Sports,MEXX
TAMILNADU,Chennai,Area not under any Sub-district,Chennai,Suburbs,600018,Abhiramapuram,Abhiramapuram,664,Competition3,E-Com Brands,MEXX
TAMILNADU,Chennai,Area not under any Sub-district,Chennai,Suburbs,600018,Abhiramapuram,Sriram Colony,667,Competition4,Personal Accessories,MEXX
TAMILNADU,Chennai,Area not under any Sub-district,Chennai,Suburbs,600018,Abhiramapuram,Abhiramapuram,664,Competition4,Mens  Formals,BLACKBERRYS
TAMILNADU,Chennai,Area not under any Sub-district,Chennai,Suburbs,600018,Abhiramapuram,Vidya Thirtha Nagar,666,Competition5,BTL Fashion & Active Sports,BLACKBERRYS
TAMILNADU,Chennai,Area not under any Sub-district,Chennai,Suburbs,600018,Abhiramapuram,Sriram Colony,667,Competition5,E-Com Brands,VAN HEUSEN
TAMILNADU,Chennai,Area not under any Sub-district,Chennai,Suburbs,600028,Mandavelli,Trustpakkam,110,Competition4,Personal Accessories,TITAN
TAMILNADU,Chennai,Area not under any Sub-district,Chennai,Suburbs,600028,Mandavelli,Trustpakkam,110,Competition3,Mens  Formals,PIERRE CARDIN
TAMILNADU,Chennai,Area not under any Sub-district,Chennai,Suburbs,600018,Abhiramapuram,Abhiramapuram,664,Competition5,Mens  Formals,ALLEN SOLLY
TAMILNADU,Chennai,Area not under any Sub-district,Chennai,Suburbs,600018,Abhiramapuram,Abhiramapuram,664,Competition1,BTL Fashion & Active Sports,VAN HEUSEN
TAMILNADU,Chennai,Area not under any Sub-district,Chennai,Suburbs,600028,Abhiramapuram,SBI Colony,665,Competition2,Personal Accessories,BEING HUMAN
TAMILNADU,Chennai,Area not under any Sub-district,Chennai,Suburbs,600028,Abhiramapuram,SBI Colony,665,Competition5,Mens  Formals,BEING HUMAN
TAMILNADU,Chennai,Area not under any Sub-district,Chennai,Suburbs,600018,Abhiramapuram,Vidya Thirtha Nagar,666,Competition5,BTL Fashion & Active Sports,BLACKBERRYS
TAMILNADU,Chennai,Area not under any Sub-district,Chennai,Suburbs,600018,Abhiramapuram,Vidya Thirtha Nagar,666,Competition4,Personal Accessories,VAN HEUSEN
TAMILNADU,Chennai,Area not under any Sub-district,Chennai,Suburbs,600028,Raja Annamalai Puram,Mandavelipakkam,418,Competition5,E-Com Brands,ALLEN SOLLY
TAMILNADU,Chennai,Area not under any Sub-district,Chennai,Suburbs,600028,Raja Annamalai Puram,Mandavelipakkam,418,Competition4,E-Com Brands,BLACKBERRYS
TAMILNADU,Chennai,Area not under any Sub-district,Chennai,Suburbs,600004,Mylapore,Quil Thoppu,848,Competition2,E-Com Brands,BEING HUMAN
TAMILNADU,Chennai,Area not under any Sub-district,Chennai,Suburbs,600028,Raja Annamalai Puram,Mandavelipakkam,418,Competition1,Personal Accessories,PIERRE CARDIN
TAMILNADU,Chennai,Area not under any Sub-district,Chennai,Suburbs,600028,Foreshore Estate,Santhome,725,Competition3,Personal Accessories,BEING HUMAN
TAMILNADU,Chennai,Area not under any Sub-district,Chennai,Suburbs,600028,Foreshore Estate,Block C,728,Competition1,Personal Accessories,ALLEN SOLLY
TAMILNADU,Chennai,Area not under any Sub-district,Chennai,Suburbs,600028,Raja Annamalai Puram,Mandavelipakkam,418,Competition2,Personal Accessories,ALLEN SOLLY
TAMILNADU,Chennai,Area not under any Sub-district,Chennai,Suburbs,600028,Foreshore Estate,Block L,727,Competition1,Mens  Formals,MEXX
TAMILNADU,Chennai,Area not under any Sub-district,Chennai,Suburbs,600028,Srinivasa Puram,Srinivasa Puram,113,Competition1,E-Com Brands,MEXX
TAMILNADU,Chennai,Area not under any Sub-district,Chennai,Suburbs,600028,Srinivasa Puram,Srinivasa Puram,113,Competition4,BTL Fashion & Active Sports,BLACKBERRYS
TAMILNADU,Chennai,Area not under any Sub-district,Chennai,Suburbs,600018,Teynampet,Thiru Vi Ka Kudiyiruppu,366,Competition1,Mens  Formals,TITAN
TAMILNADU,Chennai,Area not under any Sub-district,Chennai,Suburbs,600018,Teynampet,Thiru Vi Ka Kudiyiruppu,366,Competition4,Personal Accessories,ALLEN SOLLY
TAMILNADU,Chennai,Area not under any Sub-district,Chennai,Suburbs,600018,Teynampet,Rostrevor Garden,368,Competition4,E-Com Brands,PIERRE CARDIN
TAMILNADU,Chennai,Area not under any Sub-district,Chennai,Suburbs,600018,Teynampet,Subbarayan Nagar,367,Competition4,BTL Fashion & Active Sports,TITAN
TAMILNADU,Chennai,Area not under any Sub-district,Chennai,Suburbs,600018,Teynampet,Rostrevor Garden,368,Competition3,Personal Accessories,TITAN
TAMILNADU,Chennai,Area not under any Sub-district,Chennai,Suburbs,600018,Teynampet,Subbarayan Nagar,367,Competition4,Mens  Formals,BLACKBERRYS
TAMILNADU,Chennai,Area not under any Sub-district,Chennai,Suburbs,600018,Teynampet,Teynampet,360,Competition1,E-Com Brands,PIERRE CARDIN
TAMILNADU,Chennai,Area not under any Sub-district,Chennai,Suburbs,600018,Teynampet,Teynampet,360,Competition4,BTL Fashion & Active Sports,MEXX
TAMILNADU,Chennai,Area not under any Sub-district,Chennai,Suburbs,600018,Teynampet,Seethammal Extension,364,Competition1,E-Com Brands,PIERRE CARDIN
TAMILNADU,Chennai,Area not under any Sub-district,Chennai,Suburbs,600018,Teynampet,Seethammal Extension,364,Competition4,BTL Fashion & Active Sports,MEXX
TAMILNADU,Chennai,Area not under any Sub-district,Chennai,Suburbs,600018,Alwarpet,Sri Ram Nagar,78,Competition2,E-Com Brands,BEING HUMAN
TAMILNADU,Chennai,Area not under any Sub-district,Chennai,Suburbs,600018,Alwarpet,Sri Ram Nagar,78,Competition2,Mens  Formals,TITAN
TAMILNADU,Chennai,Area not under any Sub-district,Chennai,Suburbs,600018,Alwarpet,Austin Nagar,79,Competition5,BTL Fashion & Active Sports,TITAN
TAMILNADU,Chennai,Area not under any Sub-district,Chennai,Suburbs,600028,Nandanam,Nandanam,1083,Competition5,Mens  Formals,VAN HEUSEN
TAMILNADU,Chennai,Area not under any Sub-district,Chennai,Suburbs,600018,Alwarpet,Austin Nagar,79,Competition1,Mens  Formals,MEXX
TAMILNADU,Chennai,Area not under any Sub-district,Chennai,Suburbs,600028,Nandanam,Nandanam,1083,Competition4,BTL Fashion & Active Sports,TITAN
TAMILNADU,Chennai,Area not under any Sub-district,Chennai,Suburbs,600028,Nandanam,Nandanam,1083,Competition2,Personal Accessories,TITAN
TAMILNADU,Chennai,Area not under any Sub-district,Chennai,Suburbs,600028,Nandanam,Nandanam,1083,Competition4,E-Com Brands,ALLEN SOLLY
TAMILNADU,Chennai,Area not under any Sub-district,Chennai,Suburbs,600028,Raja Annamalai Puram,Thideer Nagar,415,Competition1,BTL Fashion & Active Sports,ALLEN SOLLY
TAMILNADU,Chennai,Area not under any Sub-district,Chennai,Suburbs,600028,Raja Annamalai Puram,South Kesavaperumalpuram,417,Competition5,E-Com Brands,PIERRE CARDIN
TAMILNADU,Chennai,Area not under any Sub-district,Chennai,Suburbs,600028,Raja Annamalai Puram,South Kesavaperumalpuram,417,Competition4,Mens  Formals,VAN HEUSEN
TAMILNADU,Chennai,Area not under any Sub-district,Chennai,Suburbs,600018,Teynampet,Parthasarathypuram,365,Competition1,BTL Fashion & Active Sports,BEING HUMAN
TAMILNADU,Chennai,Area not under any Sub-district,Chennai,Suburbs,600018,Teynampet,Parthasarathypuram,365,Competition2,BTL Fashion & Active Sports,TITAN
TAMILNADU,Chennai,Area not under any Sub-district,Chennai,Suburbs,600004,Mylapore,CIT Colony,852,Competition2,BTL Fashion & Active Sports,PIERRE CARDIN
TAMILNADU,Chennai,Area not under any Sub-district,Chennai,Suburbs,600004,Mylapore,CIT Colony,852,Competition2,Personal Accessories,ALLEN SOLLY
TAMILNADU,Chennai,Area not under any Sub-district,Chennai,Suburbs,600018,Abhiramapuram,Abhiramapuram,664,Competition5,Personal Accessories,VAN HEUSEN
TAMILNADU,Chennai,Area not under any Sub-district,Chennai,Suburbs,600004,Abhiramapuram,Anandapuram Puram,668,Competition4,BTL Fashion & Active Sports,TITAN
TAMILNADU,Chennai,Area not under any Sub-district,Chennai,Suburbs,600018,Abhiramapuram,Abhiramapuram,664,Competition3,BTL Fashion & Active Sports,BEING HUMAN
TAMILNADU,Chennai,Area not under any Sub-district,Chennai,Suburbs,600028,Mandavelli,Trustpakkam,110,Competition2,BTL Fashion & Active Sports,BEING HUMAN
TAMILNADU,Chennai,Area not under any Sub-district,Chennai,Suburbs,600028,Mandavelli,Trustpakkam,110,Competition1,E-Com Brands,VAN HEUSEN
TAMILNADU,Chennai,Area not under any Sub-district,Chennai,Suburbs,600018,Abhiramapuram,Abhiramapuram,664,Competition2,BTL Fashion & Active Sports,MEXX
TAMILNADU,Chennai,Area not under any Sub-district,Chennai,Suburbs,600018,Abhiramapuram,Abhiramapuram,664,Competition5,BTL Fashion & Active Sports,ALLEN SOLLY
TAMILNADU,Chennai,Area not under any Sub-district,Chennai,Suburbs,600028,Mandavelli,Trustpakkam,110,Competition1,Personal Accessories,BLACKBERRYS
TAMILNADU,Chennai,Area not under any Sub-district,Chennai,Suburbs,600028,Raja Annamalai Puram,Ramakrishna Nagar,408,Competition5,E-Com Brands,BLACKBERRYS
TAMILNADU,Chennai,Area not under any Sub-district,Chennai,Suburbs,600028,Raja Annamalai Puram,Govindaswamy Nagar,419,Competition1,E-Com Brands,VAN HEUSEN
TAMILNADU,Chennai,Area not under any Sub-district,Chennai,Suburbs,600028,Raja Annamalai Puram,Ramakrishna Nagar,408,Competition5,BTL Fashion & Active Sports,TITAN
TAMILNADU,Chennai,Area not under any Sub-district,Chennai,Suburbs,600028,Raja Annamalai Puram,Krisknapuri,411,Competition1,E-Com Brands,PIERRE CARDIN
TAMILNADU,Chennai,Area not under any Sub-district,Chennai,Suburbs,600028,Raja Annamalai Puram,Govindaswamy Nagar,419,Competition1,BTL Fashion & Active Sports,BLACKBERRYS
TAMILNADU,Chennai,Area not under any Sub-district,Chennai,Suburbs,600028,Raja Annamalai Puram,Bishop Garden,406,Competition3,Personal Accessories,BEING HUMAN
TAMILNADU,Chennai,Area not under any Sub-district,Chennai,Suburbs,600028,Raja Annamalai Puram,May Flower Garden,407,Competition3,Mens  Formals,MEXX
TAMILNADU,Chennai,Area not under any Sub-district,Chennai,Suburbs,600028,Raja Annamalai Puram,Krisknapuri,411,Competition3,E-Com Brands,BEING HUMAN
TAMILNADU,Chennai,Area not under any Sub-district,Chennai,Suburbs,600028,Raja Annamalai Puram,Bishop Garden,406,Competition5,E-Com Brands,VAN HEUSEN
TAMILNADU,Chennai,Area not under any Sub-district,Chennai,Suburbs,600028,Raja Annamalai Puram,Annai Sathya Nagar,420,Competition4,BTL Fashion & Active Sports,BLACKBERRYS
TAMILNADU,Chennai,Area not under any Sub-district,Chennai,Suburbs,600028,Raja Annamalai Puram,Annai Sathya Nagar,420,Competition2,Personal Accessories,PIERRE CARDIN
TAMILNADU,Chennai,Area not under any Sub-district,Chennai,Suburbs,600004,Abhiramapuram,East Abhiramapuram,670,Competition4,Personal Accessories,VAN HEUSEN
TAMILNADU,Chennai,Area not under any Sub-district,Chennai,Suburbs,600004,Abhiramapuram,Narasimhapuram,671,Competition2,Mens  Formals,TITAN
TAMILNADU,Chennai,Area not under any Sub-district,Chennai,Suburbs,600004,Abhiramapuram,Narasimhapuram,671,Competition2,Mens  Formals,MEXX
TAMILNADU,Chennai,Area not under any Sub-district,Chennai,Suburbs,600028,Mandavelli,Mandavelli,109,Competition4,Personal Accessories,TITAN
TAMILNADU,Chennai,Area not under any Sub-district,Chennai,Suburbs,600028,Mandavelli,Trustpakkam,110,Competition5,Mens  Formals,VAN HEUSEN
TAMILNADU,Chennai,Area not under any Sub-district,Chennai,Suburbs,600028,Mandavelli,Trustpakkam,110,Competition2,E-Com Brands,ALLEN SOLLY
TAMILNADU,Chennai,Area not under any Sub-district,Chennai,Suburbs,600028,Mandavelli,Mandavelli,109,Competition1,BTL Fashion & Active Sports,ALLEN SOLLY
TAMILNADU,Chennai,Area not under any Sub-district,Chennai,Suburbs,600028,Raja Annamalai Puram,Ramakrishna Nagar,408,Competition4,BTL Fashion & Active Sports,PIERRE CARDIN
TAMILNADU,Chennai,Area not under any Sub-district,Chennai,Suburbs,600028,Raja Annamalai Puram,Ramakrishna Nagar,408,Competition3,Mens  Formals,PIERRE CARDIN
TAMILNADU,Chennai,Area not under any Sub-district,Chennai,Suburbs,600028,Raja Annamalai Puram,May Flower Garden,407,Competition5,BTL Fashion & Active Sports,VAN HEUSEN
TAMILNADU,Chennai,Area not under any Sub-district,Chennai,Suburbs,600028,Raja Annamalai Puram,Ramakrishna Nagar,408,Competition3,BTL Fashion & Active Sports,MEXX
TAMILNADU,Chennai,Area not under any Sub-district,Chennai,Suburbs,600028,Raja Annamalai Puram,Kamaraj Nagar,410,Competition5,Personal Accessories,BLACKBERRYS
TAMILNADU,Chennai,Area not under any Sub-district,Chennai,Suburbs,600028,Raja Annamalai Puram,KVB Garden,412,Competition2,E-Com Brands,VAN HEUSEN
TAMILNADU,Chennai,Area not under any Sub-district,Chennai,Suburbs,600028,Raja Annamalai Puram,State Bank of India Colony,416,Competition3,Mens  Formals,PIERRE CARDIN
TAMILNADU,Chennai,Area not under any Sub-district,Chennai,Suburbs,600028,Raja Annamalai Puram,State Bank of India Colony,416,Competition4,BTL Fashion & Active Sports,BLACKBERRYS
TAMILNADU,Chennai,Area not under any Sub-district,Chennai,Suburbs,600028,Raja Annamalai Puram,Annai Sathya Nagar,420,Competition3,Personal Accessories,VAN HEUSEN
TAMILNADU,Chennai,Area not under any Sub-district,Chennai,Suburbs,600004,Santhome,Dummingkuppam,111,Competition1,Personal Accessories,TITAN
TAMILNADU,Chennai,Area not under any Sub-district,Chennai,Suburbs,600028,Foreshore Estate,Santhome,725,Competition5,Mens  Formals,BLACKBERRYS
TAMILNADU,Chennai,Area not under any Sub-district,Chennai,Suburbs,600004,Mylapore,Quil Thoppu,848,Competition5,Personal Accessories,VAN HEUSEN
TAMILNADU,Chennai,Area not under any Sub-district,Chennai,Suburbs,600028,Foreshore Estate,Santhome,725,Competition4,E-Com Brands,VAN HEUSEN
TAMILNADU,Chennai,Area not under any Sub-district,Chennai,Suburbs,600028,Foreshore Estate,Block AT,714,Competition5,E-Com Brands,TITAN
TAMILNADU,Chennai,Area not under any Sub-district,Chennai,Suburbs,600028,Srinivasa Puram,Srinivasa Puram,113,Competition4,Mens  Formals,BLACKBERRYS
TAMILNADU,Chennai,Area not under any Sub-district,Chennai,Suburbs,600028,Foreshore Estate,Block AT,714,Competition2,Mens  Formals,MEXX
TAMILNADU,Chennai,Area not under any Sub-district,Chennai,Suburbs,600028,Srinivasa Puram,Srinivasa Puram,113,Competition5,E-Com Brands,BLACKBERRYS
TAMILNADU,Chennai,Area not under any Sub-district,Chennai,Suburbs,600028,Srinivasa Puram,Srinivasa Puram,113,Competition3,Personal Accessories,TITAN
TAMILNADU,Chennai,Area not under any Sub-district,Chennai,Suburbs,600028,Srinivasa Puram,Srinivasa Puram,113,Competition1,Personal Accessories,MEXX
TAMILNADU,Chennai,Area not under any Sub-district,Chennai,Suburbs,600004,Mylapore,Sankarapuram,838,Competition1,E-Com Brands,PIERRE CARDIN
TAMILNADU,Chennai,Area not under any Sub-district,Chennai,Suburbs,600028,Raja Annamalai Puram,Mandavelipakkam,418,Competition5,E-Com Brands,ALLEN SOLLY
TAMILNADU,Chennai,Area not under any Sub-district,Chennai,Suburbs,600028,Raja Annamalai Puram,Raja Annamalai Puram,405,Competition2,BTL Fashion & Active Sports,BEING HUMAN
TAMILNADU,Chennai,Area not under any Sub-district,Chennai,Suburbs,600028,Raja Annamalai Puram,Karpagam Avenue,413,Competition1,BTL Fashion & Active Sports,BLACKBERRYS
TAMILNADU,Chennai,Area not under any Sub-district,Chennai,Suburbs,600028,Raja Annamalai Puram,Mandavelipakkam,418,Competition2,Mens  Formals,BLACKBERRYS
TAMILNADU,Chennai,Area not under any Sub-district,Chennai,Suburbs,600028,Raja Annamalai Puram,Karpagam Avenue,413,Competition1,BTL Fashion & Active Sports,BLACKBERRYS
TAMILNADU,Chennai,Area not under any Sub-district,Chennai,Suburbs,600028,Raja Annamalai Puram,Karpagam Avenue,413,Competition5,BTL Fashion & Active Sports,ALLEN SOLLY
TAMILNADU,Chennai,Area not under any Sub-district,Chennai,Suburbs,600028,Raja Annamalai Puram,MRC Nagar,414,Competition2,Personal Accessories,BLACKBERRYS
TAMILNADU,Chennai,Area not under any Sub-district,Chennai,Suburbs,600028,Raja Annamalai Puram,State Bank of India Colony,416,Competition2,Personal Accessories,BLACKBERRYS
TAMILNADU,Chennai,Area not under any Sub-district,Chennai,Suburbs,600004,Santhome,Dummingkuppam,111,Competition5,BTL Fashion & Active Sports,VAN HEUSEN
TAMILNADU,Chennai,Area not under any Sub-district,Chennai,Suburbs,600028,Foreshore Estate,Foreshore Estate,708,Competition3,Personal Accessories,VAN HEUSEN
TAMILNADU,Chennai,Area not under any Sub-district,Chennai,Suburbs,600028,Foreshore Estate,Foreshore Estate,708,Competition4,Personal Accessories,BLACKBERRYS
TAMILNADU,Chennai,Area not under any Sub-district,Chennai,Suburbs,600028,Raja Annamalai Puram,Mandavelipakkam,418,Competition2,BTL Fashion & Active Sports,MEXX
TAMILNADU,Chennai,Area not under any Sub-district,Chennai,Suburbs,600004,Mylapore,Sankarapuram,838,Competition4,Personal Accessories,VAN HEUSEN
TAMILNADU,Chennai,Area not under any Sub-district,Chennai,Suburbs,600028,Raja Annamalai Puram,Mandavelipakkam,418,Competition3,Mens  Formals,ALLEN SOLLY
TAMILNADU,Chennai,Area not under any Sub-district,Chennai,Suburbs,600028,Raja Annamalai Puram,Karpagam Avenue,413,Competition5,BTL Fashion & Active Sports,BEING HUMAN
TAMILNADU,Chennai,Area not under any Sub-district,Chennai,Suburbs,600028,Raja Annamalai Puram,MRC Nagar,414,Competition5,E-Com Brands,BLACKBERRYS
TAMILNADU,Chennai,Area not under any Sub-district,Chennai,Suburbs,600028,Raja Annamalai Puram,MRC Nagar,414,Competition5,Personal Accessories,TITAN
TAMILNADU,Chennai,Area not under any Sub-district,Chennai,Suburbs,600028,Raja Annamalai Puram,MRC Nagar,414,Competition2,Personal Accessories,MEXX
ANDHRA PRADESH,Hyderabad,Tirumalagiri,Secunderabad Cantt. Board,Outskirts,500011,Bowenpally,Parkview Enclave,3024,Competition4,Mens  Formals,PIERRE CARDIN
ANDHRA PRADESH,Hyderabad,Tirumalagiri,Secunderabad Cantt. Board,Outskirts,500011,Bowenpally,Parkview Enclave,3024,Competition2,Personal Accessories,BEING HUMAN
ANDHRA PRADESH,Hyderabad,Tirumalagiri,Secunderabad Cantt. Board,Outskirts,500011,Bowenpally,Anand Nagar,3133,Competition4,Personal Accessories,PIERRE CARDIN
ANDHRA PRADESH,Hyderabad,Tirumalagiri,Secunderabad Cantt. Board,Outskirts,500011,Bowenpally,Anand Nagar,3133,Competition4,Personal Accessories,MEXX
ANDHRA PRADESH,Hyderabad,Tirumalagiri,Secunderabad Cantt. Board,Outskirts,500011,Bowenpally,New Bowenpally,3136,Competition1,Personal Accessories,VAN HEUSEN
ANDHRA PRADESH,Hyderabad,Tirumalagiri,Secunderabad Cantt. Board,Outskirts,500009,Bowenpally,Napier Lines,3132,Competition1,Mens  Formals,BEING HUMAN
ANDHRA PRADESH,Hyderabad,Tirumalagiri,Secunderabad Cantt. Board,Outskirts,500009,Bowenpally,Napier Lines,3132,Competition1,BTL Fashion & Active Sports,TITAN
ANDHRA PRADESH,Hyderabad,Tirumalagiri,Secunderabad Cantt. Board,Outskirts,500009,Bowenpally,Napier Lines,3132,Competition2,Personal Accessories,MEXX
ANDHRA PRADESH,Hyderabad,Tirumalagiri,Secunderabad Cantt. Board,Outskirts,500009,Bowenpally,Tar Bund,3020,Competition5,Mens  Formals,BLACKBERRYS
ANDHRA PRADESH,Hyderabad,Tirumalagiri,Secunderabad Cantt. Board,Outskirts,500009,Bowenpally,Napier Lines,3132,Competition3,BTL Fashion & Active Sports,MEXX
ANDHRA PRADESH,Hyderabad,Tirumalagiri,Secunderabad Cantt. Board,Outskirts,500009,Bowenpally,Tar Bund,3020,Competition5,Mens  Formals,MEXX
ANDHRA PRADESH,Hyderabad,Tirumalagiri,Secunderabad Cantt. Board,Outskirts,500011,Bowenpally,Parkview Enclave,3024,Competition1,BTL Fashion & Active Sports,VAN HEUSEN
ANDHRA PRADESH,Hyderabad,Tirumalagiri,Secunderabad Cantt. Board,Outskirts,500011,Bowenpally,"SAIL Employees Colony, SAIL Colony",3053,Competition3,BTL Fashion & Active Sports,MEXX
ANDHRA PRADESH,Hyderabad,Tirumalagiri,Secunderabad Cantt. Board,Outskirts,500009,Bowenpally,Manovikas Nagar,3140,Competition5,BTL Fashion & Active Sports,TITAN
ANDHRA PRADESH,Hyderabad,Tirumalagiri,Secunderabad Cantt. Board,Outskirts,500011,Bowenpally,Icrisat Colony,3139,Competition4,E-Com Brands,MEXX
ANDHRA PRADESH,Hyderabad,Tirumalagiri,Secunderabad Cantt. Board,Outskirts,500009,Bowenpally,Kummu Gutta,3146,Competition4,Personal Accessories,MEXX
ANDHRA PRADESH,Hyderabad,Tirumalagiri,Secunderabad Cantt. Board,Outskirts,500009,Bowenpally,Tar Bund,3020,Competition1,E-Com Brands,MEXX
ANDHRA PRADESH,Hyderabad,Tirumalagiri,Secunderabad Cantt. Board,Outskirts,500009,Bowenpally,Kummu Gutta,3146,Competition3,Personal Accessories,VAN HEUSEN
ANDHRA PRADESH,Hyderabad,Tirumalagiri,Secunderabad Cantt. Board,Outskirts,500009,Bowenpally,Kummu Gutta,3146,Competition2,BTL Fashion & Active Sports,MEXX
ANDHRA PRADESH,Hyderabad,Tirumalagiri,Secunderabad Cantt. Board,Outskirts,500009,Bowenpally,Manovikas Nagar,3140,Competition2,E-Com Brands,VAN HEUSEN
ANDHRA PRADESH,Hyderabad,Tirumalagiri,Secunderabad Cantt. Board,Outskirts,500009,Bowenpally,"Madhupala Enclave, Manovikas Nagar",3055,Competition2,E-Com Brands,PIERRE CARDIN
ANDHRA PRADESH,Hyderabad,Tirumalagiri,Secunderabad Cantt. Board,Outskirts,500009,Bowenpally,Sikh Village,3191,Competition2,BTL Fashion & Active Sports,ALLEN SOLLY
ANDHRA PRADESH,Hyderabad,Tirumalagiri,Secunderabad Cantt. Board,Outskirts,500009,Bowenpally,Kummu Gutta,3146,Competition3,Personal Accessories,BLACKBERRYS
ANDHRA PRADESH,Hyderabad,Tirumalagiri,Secunderabad Cantt. Board,Outskirts,500009,Bowenpally,Sikh Village,3191,Competition2,Mens  Formals,ALLEN SOLLY
ANDHRA PRADESH,Hyderabad,Tirumalagiri,Secunderabad Cantt. Board,Outskirts,500009,Bowenpally,Kummu Gutta,3146,Competition4,Personal Accessories,TITAN
ANDHRA PRADESH,Hyderabad,Tirumalagiri,Secunderabad Cantt. Board,Outskirts,500009,Bowenpally,Kummu Gutta,3146,Competition2,BTL Fashion & Active Sports,ALLEN SOLLY
ANDHRA PRADESH,Hyderabad,Tirumalagiri,Secunderabad Cantt. Board,Outskirts,500009,Gun Rock Enclave,Mudfort,3148,Competition5,Mens  Formals,MEXX
ANDHRA PRADESH,Hyderabad,Tirumalagiri,Secunderabad Cantt. Board,Outskirts,500009,Gun Rock Enclave,Mudfort,3148,Competition1,E-Com Brands,BLACKBERRYS
ANDHRA PRADESH,Hyderabad,Tirumalagiri,Secunderabad Cantt. Board,Outskirts,500011,Bowenpally,"Sri Sai Apartment, SBI Colony",3051,Competition4,BTL Fashion & Active Sports,MEXX
ANDHRA PRADESH,Hyderabad,Tirumalagiri,Secunderabad Cantt. Board,Outskirts,500009,Bowenpally,"Jupiter Colony, Radha Swamy Colony",3048,Competition2,Personal Accessories,BLACKBERRYS
ANDHRA PRADESH,Hyderabad,Tirumalagiri,Secunderabad Cantt. Board,Outskirts,500009,Bowenpally,Manovikas Nagar,3140,Competition3,BTL Fashion & Active Sports,MEXX
ANDHRA PRADESH,Hyderabad,Tirumalagiri,Secunderabad Cantt. Board,Outskirts,500009,Bowenpally,Kiran Enclave,3138,Competition5,BTL Fashion & Active Sports,BEING HUMAN
ANDHRA PRADESH,Hyderabad,Tirumalagiri,Secunderabad Cantt. Board,Outskirts,500009,Bowenpally,Kiran Enclave,3138,Competition3,Mens  Formals,BLACKBERRYS
ANDHRA PRADESH,Hyderabad,Tirumalagiri,Secunderabad Cantt. Board,Outskirts,500009,Bowenpally,Sikh Village,3191,Competition4,BTL Fashion & Active Sports,ALLEN SOLLY
ANDHRA PRADESH,Hyderabad,Tirumalagiri,Secunderabad Cantt. Board,Outskirts,500009,Gun Rock Enclave,Wahab Nagar,3212,Competition3,E-Com Brands,BLACKBERRYS
ANDHRA PRADESH,Hyderabad,Tirumalagiri,Secunderabad Cantt. Board,Outskirts,500009,Bowenpally,Sikh Village,3191,Competition4,E-Com Brands,BEING HUMAN
ANDHRA PRADESH,Hyderabad,Tirumalagiri,Secunderabad Cantt. Board,Outskirts,500009,Gun Rock Enclave,Wahab Nagar,3212,Competition1,Mens  Formals,BLACKBERRYS
ANDHRA PRADESH,Hyderabad,Tirumalagiri,Secunderabad Cantt. Board,Outskirts,500009,Bowenpally,Kummu Gutta,3146,Competition4,BTL Fashion & Active Sports,ALLEN SOLLY
ANDHRA PRADESH,Hyderabad,Tirumalagiri,Secunderabad Cantt. Board,Outskirts,500009,Gun Rock Enclave,Mudfort,3148,Competition4,Mens  Formals,BLACKBERRYS
ANDHRA PRADESH,Hyderabad,Tirumalagiri,Secunderabad Cantt. Board,Outskirts,500009,Gun Rock Enclave,Mudfort,3148,Competition3,E-Com Brands,VAN HEUSEN
ANDHRA PRADESH,Hyderabad,Tirumalagiri,Secunderabad Cantt. Board,Outskirts,500009,Gun Rock Enclave,Mudfort,3148,Competition1,BTL Fashion & Active Sports,MEXX
ANDHRA PRADESH,Hyderabad,Tirumalagiri,Secunderabad Cantt. Board,Outskirts,500009,Gun Rock Enclave,Mudfort,3148,Competition1,E-Com Brands,TITAN
ANDHRA PRADESH,Hyderabad,Tirumalagiri,Secunderabad Cantt. Board,Outskirts,500009,Bowenpally,Radha Swamy Colony,3049,Competition2,Personal Accessories,ALLEN SOLLY
ANDHRA PRADESH,Hyderabad,Tirumalagiri,Secunderabad Cantt. Board,Outskirts,500009,Bowenpally,"Jupiter Colony, Radha Swamy Colony",3048,Competition2,BTL Fashion & Active Sports,MEXX
ANDHRA PRADESH,Hyderabad,Tirumalagiri,Secunderabad Cantt. Board,Outskirts,500009,Bowenpally,Radha Swamy Colony,3049,Competition4,Personal Accessories,MEXX
ANDHRA PRADESH,Hyderabad,Tirumalagiri,Secunderabad Cantt. Board,Outskirts,500009,Karkhana,Vahini nagar,3046,Competition4,E-Com Brands,VAN HEUSEN
ANDHRA PRADESH,Hyderabad,Tirumalagiri,Secunderabad Cantt. Board,Outskirts,500009,Karkhana,"AWHO Colony, Vahini nagar",3047,Competition5,E-Com Brands,BLACKBERRYS
ANDHRA PRADESH,Hyderabad,Tirumalagiri,Secunderabad Cantt. Board,Outskirts,500009,Bowenpally,"Jupiter Colony, Radha Swamy Colony",3048,Competition1,BTL Fashion & Active Sports,VAN HEUSEN
ANDHRA PRADESH,Hyderabad,Tirumalagiri,Secunderabad Cantt. Board,Outskirts,500009,Karkhana,"AWHO Colony, Vahini nagar",3047,Competition3,E-Com Brands,ALLEN SOLLY
ANDHRA PRADESH,Hyderabad,Tirumalagiri,Secunderabad Cantt. Board,Outskirts,500009,Gun Rock Enclave,Sitaram Nagar,3080,Competition4,Personal Accessories,BLACKBERRYS
ANDHRA PRADESH,Hyderabad,Tirumalagiri,Secunderabad Cantt. Board,Outskirts,500009,Gun Rock Enclave,Sitaram Nagar,3080,Competition2,BTL Fashion & Active Sports,ALLEN SOLLY
ANDHRA PRADESH,Hyderabad,Tirumalagiri,Secunderabad Cantt. Board,Outskirts,500009,Gun Rock Enclave,Wahab Nagar,3212,Competition4,E-Com Brands,VAN HEUSEN
ANDHRA PRADESH,Hyderabad,Tirumalagiri,Secunderabad Cantt. Board,Outskirts,500009,Gun Rock Enclave,Mudfort,3148,Competition1,Mens  Formals,ALLEN SOLLY
ANDHRA PRADESH,Hyderabad,Tirumalagiri,Secunderabad Cantt. Board,Outskirts,500009,Gun Rock Enclave,Wahab Nagar,3212,Competition5,BTL Fashion & Active Sports,BEING HUMAN
ANDHRA PRADESH,Hyderabad,Tirumalagiri,Secunderabad Cantt. Board,Outskirts,500009,Gun Rock Enclave,Mudfort,3148,Competition1,E-Com Brands,MEXX
ANDHRA PRADESH,Hyderabad,Tirumalagiri,Secunderabad Cantt. Board,Outskirts,500009,Gun Rock Enclave,Mudfort,3148,Competition3,Mens  Formals,VAN HEUSEN
ANDHRA PRADESH,Hyderabad,Tirumalagiri,Secunderabad Cantt. Board,Outskirts,500009,Gun Rock Enclave,Mudfort,3148,Competition3,Personal Accessories,BLACKBERRYS
ANDHRA PRADESH,Hyderabad,Tirumalagiri,Secunderabad Cantt. Board,Outskirts,500009,Gun Rock Enclave,Mudfort,3148,Competition3,BTL Fashion & Active Sports,PIERRE CARDIN
ANDHRA PRADESH,Hyderabad,Tirumalagiri,Secunderabad Cantt. Board,Outskirts,500009,Karkhana,Surya nagar,3045,Competition1,Mens  Formals,PIERRE CARDIN
ANDHRA PRADESH,Hyderabad,Tirumalagiri,Secunderabad Cantt. Board,Outskirts,500009,Bowenpally,"Rail Enclave, Radha Swamy Colony",3050,Competition2,BTL Fashion & Active Sports,MEXX
ANDHRA PRADESH,Hyderabad,Tirumalagiri,Secunderabad Cantt. Board,Outskirts,500009,Karkhana,Surya nagar,3045,Competition2,E-Com Brands,VAN HEUSEN
ANDHRA PRADESH,Hyderabad,Tirumalagiri,Secunderabad Cantt. Board,Outskirts,500009,Karkhana,Vahini nagar,3046,Competition3,BTL Fashion & Active Sports,BEING HUMAN
ANDHRA PRADESH,Hyderabad,Tirumalagiri,Secunderabad Cantt. Board,Outskirts,500009,Karkhana,Vahini nagar,3046,Competition3,Personal Accessories,VAN HEUSEN
ANDHRA PRADESH,Hyderabad,Tirumalagiri,Secunderabad Cantt. Board,Outskirts,500009,Karkhana,Vahini nagar,3046,Competition5,BTL Fashion & Active Sports,BEING HUMAN
ANDHRA PRADESH,Hyderabad,Tirumalagiri,Secunderabad Cantt. Board,Outskirts,500009,Karkhana,"AWHO Colony, Vahini nagar",3047,Competition4,BTL Fashion & Active Sports,TITAN
ANDHRA PRADESH,Hyderabad,Tirumalagiri,Secunderabad Cantt. Board,Outskirts,500009,Gun Rock Enclave,Sitaram Nagar,3080,Competition4,Mens  Formals,TITAN
ANDHRA PRADESH,Hyderabad,Tirumalagiri,Secunderabad Cantt. Board,Outskirts,500009,Gun Rock Enclave,Sitaram Nagar,3080,Competition1,Personal Accessories,BLACKBERRYS
ANDHRA PRADESH,Hyderabad,Tirumalagiri,Secunderabad Cantt. Board,Outskirts,500009,Gun Rock Enclave,Gun Rock Enclave,3192,Competition4,Personal Accessories,TITAN
ANDHRA PRADESH,Hyderabad,Tirumalagiri,Secunderabad Cantt. Board,Outskirts,500009,Gun Rock Enclave,Gun Rock Enclave,3192,Competition1,E-Com Brands,BEING HUMAN
ANDHRA PRADESH,Hyderabad,Tirumalagiri,Secunderabad Cantt. Board,Outskirts,500009,Gun Rock Enclave,Wahab Nagar,3212,Competition5,E-Com Brands,BEING HUMAN
ANDHRA PRADESH,Hyderabad,Tirumalagiri,Secunderabad Cantt. Board,Outskirts,500009,Gun Rock Enclave,Mudfort,3148,Competition2,Personal Accessories,MEXX
ANDHRA PRADESH,Hyderabad,Tirumalagiri,Secunderabad Cantt. Board,Outskirts,500009,Gun Rock Enclave,Mudfort,3148,Competition4,BTL Fashion & Active Sports,BEING HUMAN
ANDHRA PRADESH,Hyderabad,Tirumalagiri,Secunderabad Cantt. Board,Outskirts,500009,Gun Rock Enclave,Mudfort,3148,Competition2,Mens  Formals,BEING HUMAN
ANDHRA PRADESH,Hyderabad,Tirumalagiri,Secunderabad Cantt. Board,Outskirts,500009,Gun Rock Enclave,Mudfort,3148,Competition1,Mens  Formals,PIERRE CARDIN
ANDHRA PRADESH,Hyderabad,Tirumalagiri,Secunderabad Cantt. Board,Outskirts,500009,Karkhana,Surya nagar,3045,Competition2,Mens  Formals,VAN HEUSEN
ANDHRA PRADESH,Hyderabad,Tirumalagiri,Secunderabad Cantt. Board,Outskirts,500009,Karkhana,Surya nagar,3045,Competition1,Personal Accessories,BEING HUMAN
ANDHRA PRADESH,Hyderabad,Tirumalagiri,Secunderabad Cantt. Board,Outskirts,500009,Karkhana,Surya nagar,3045,Competition4,BTL Fashion & Active Sports,BEING HUMAN
ANDHRA PRADESH,Hyderabad,Tirumalagiri,Secunderabad Cantt. Board,Outskirts,500009,Karkhana,Surya nagar,3045,Competition1,Personal Accessories,TITAN
ANDHRA PRADESH,Hyderabad,Tirumalagiri,Secunderabad Cantt. Board,Outskirts,500009,Karkhana,Hyderabad Asbestos Staff Colony,3081,Competition1,Personal Accessories,MEXX
ANDHRA PRADESH,Hyderabad,Tirumalagiri,Secunderabad Cantt. Board,Outskirts,500009,Gun Rock Enclave,Gun Rock Enclave,3192,Competition5,Personal Accessories,BEING HUMAN
ANDHRA PRADESH,Hyderabad,Tirumalagiri,Secunderabad Cantt. Board,Outskirts,500009,Karkhana,Hyderabad Asbestos Staff Colony,3081,Competition2,E-Com Brands,VAN HEUSEN
ANDHRA PRADESH,Hyderabad,Tirumalagiri,Secunderabad Cantt. Board,Outskirts,500009,Gun Rock Enclave,Gun Rock Enclave,3192,Competition5,Mens  Formals,BEING HUMAN
ANDHRA PRADESH,Hyderabad,Tirumalagiri,Secunderabad Cantt. Board,Outskirts,500009,Karkhana,P & T Colony,3058,Competition4,Mens  Formals,VAN HEUSEN
ANDHRA PRADESH,Hyderabad,Tirumalagiri,Secunderabad Cantt. Board,Outskirts,500009,Karkhana,"Sri Ram Enclave, P & T Colony",3147,Competition5,Mens  Formals,VAN HEUSEN
ANDHRA PRADESH,Hyderabad,Tirumalagiri,Secunderabad Cantt. Board,Outskirts,500009,Karkhana,P & T Colony,3058,Competition1,Personal Accessories,VAN HEUSEN
ANDHRA PRADESH,Hyderabad,Tirumalagiri,Secunderabad Cantt. Board,Outskirts,500009,Karkhana,Vikampuri,3141,Competition1,Personal Accessories,ALLEN SOLLY
ANDHRA PRADESH,Hyderabad,Tirumalagiri,Secunderabad Cantt. Board,Outskirts,500009,Karkhana,Surya nagar,3045,Competition1,E-Com Brands,MEXX
ANDHRA PRADESH,Hyderabad,Tirumalagiri,Secunderabad Cantt. Board,Outskirts,500009,Karkhana,Kousalya Enclave,3025,Competition4,Mens  Formals,BLACKBERRYS
ANDHRA PRADESH,Hyderabad,Tirumalagiri,Secunderabad Cantt. Board,Outskirts,500009,Karkhana,Surya nagar,3045,Competition5,Mens  Formals,BLACKBERRYS
ANDHRA PRADESH,Hyderabad,Tirumalagiri,Secunderabad Cantt. Board,Outskirts,500009,Karkhana,Hyderabad Asbestos Staff Colony,3081,Competition4,E-Com Brands,ALLEN SOLLY
ANDHRA PRADESH,Hyderabad,Tirumalagiri,Secunderabad Cantt. Board,Outskirts,500009,Karkhana,Vasavi Nagar,3118,Competition3,Personal Accessories,VAN HEUSEN
ANDHRA PRADESH,Hyderabad,Tirumalagiri,Secunderabad Cantt. Board,Outskirts,500009,Karkhana,R & D Colony,3015,Competition3,Mens  Formals,TITAN
ANDHRA PRADESH,Hyderabad,Tirumalagiri,Secunderabad Cantt. Board,Outskirts,500009,Karkhana,Hyderabad Asbestos Staff Colony,3081,Competition4,BTL Fashion & Active Sports,ALLEN SOLLY
ANDHRA PRADESH,Hyderabad,Tirumalagiri,Secunderabad Cantt. Board,Outskirts,500009,Karkhana,Vikampuri,3141,Competition1,Personal Accessories,PIERRE CARDIN
ANDHRA PRADESH,Hyderabad,Tirumalagiri,Secunderabad Cantt. Board,Outskirts,500009,Karkhana,"Sri Ram Enclave, P & T Colony",3147,Competition1,Mens  Formals,TITAN
ANDHRA PRADESH,Hyderabad,Tirumalagiri,Secunderabad Cantt. Board,Outskirts,500026,West Marredpally,Picket,3026,Competition1,BTL Fashion & Active Sports,VAN HEUSEN
ANDHRA PRADESH,Hyderabad,Tirumalagiri,Secunderabad Cantt. Board,Outskirts,500009,Karkhana,Vikampuri,3141,Competition3,E-Com Brands,BLACKBERRYS
ANDHRA PRADESH,Hyderabad,Tirumalagiri,Secunderabad Cantt. Board,Outskirts,500009,Karkhana,Kousalya Enclave,3025,Competition2,E-Com Brands,BLACKBERRYS
ANDHRA PRADESH,Hyderabad,Tirumalagiri,Secunderabad Cantt. Board,Outskirts,500009,Karkhana,Kousalya Enclave,3025,Competition4,BTL Fashion & Active Sports,PIERRE CARDIN
ANDHRA PRADESH,Hyderabad,Tirumalagiri,Secunderabad Cantt. Board,Outskirts,500009,Karkhana,New Vasavi Nagar,3117,Competition2,BTL Fashion & Active Sports,BEING HUMAN
ANDHRA PRADESH,Hyderabad,Tirumalagiri,Secunderabad Cantt. Board,Outskirts,500009,Karkhana,Surya nagar,3045,Competition2,E-Com Brands,ALLEN SOLLY
ANDHRA PRADESH,Hyderabad,Tirumalagiri,Secunderabad Cantt. Board,Outskirts,500009,Karkhana,New Vasavi Nagar,3117,Competition4,Mens  Formals,ALLEN SOLLY
ANDHRA PRADESH,Hyderabad,Tirumalagiri,Secunderabad Cantt. Board,Outskirts,500009,Karkhana,Vasavi Nagar,3118,Competition3,Personal Accessories,MEXX
ANDHRA PRADESH,Hyderabad,Tirumalagiri,Secunderabad Cantt. Board,Outskirts,500009,Karkhana,Vasavi Nagar,3118,Competition5,Mens  Formals,TITAN
ANDHRA PRADESH,Hyderabad,Tirumalagiri,Secunderabad Cantt. Board,Outskirts,500009,Karkhana,Kakaguda,3142,Competition1,Personal Accessories,TITAN
ANDHRA PRADESH,Hyderabad,Tirumalagiri,Secunderabad Cantt. Board,Outskirts,500009,Karkhana,R & D Colony,3015,Competition2,BTL Fashion & Active Sports,PIERRE CARDIN
ANDHRA PRADESH,Hyderabad,Tirumalagiri,Secunderabad Cantt. Board,Outskirts,500009,Karkhana,Gruhalaxmi Colony,3074,Competition1,Mens  Formals,PIERRE CARDIN
ANDHRA PRADESH,Hyderabad,Tirumalagiri,Secunderabad Cantt. Board,Outskirts,500009,Karkhana,Gruhalaxmi Colony,3074,Competition2,BTL Fashion & Active Sports,VAN HEUSEN
ANDHRA PRADESH,Hyderabad,Tirumalagiri,Secunderabad Cantt. Board,Outskirts,500009,Karkhana,Vikampuri,3141,Competition5,Mens  Formals,ALLEN SOLLY
ANDHRA PRADESH,Hyderabad,Tirumalagiri,Secunderabad Cantt. Board,Outskirts,500009,Karkhana,Vikampuri,3141,Competition2,E-Com Brands,MEXX
ANDHRA PRADESH,Hyderabad,Tirumalagiri,Secunderabad Cantt. Board,Outskirts,500015,Trimulgherry,Hanuman Temple Complex,3035,Competition1,Mens  Formals,TITAN
ANDHRA PRADESH,Hyderabad,Tirumalagiri,Secunderabad Cantt. Board,Outskirts,500009,Karkhana,New Vasavi Nagar,3117,Competition5,Mens  Formals,BEING HUMAN
ANDHRA PRADESH,Hyderabad,Tirumalagiri,Secunderabad Cantt. Board,Outskirts,500009,Karkhana,"Balaji Colony, Dad Enclave",3073,Competition3,E-Com Brands,PIERRE CARDIN
ANDHRA PRADESH,Hyderabad,Tirumalagiri,Secunderabad Cantt. Board,Outskirts,500009,Karkhana,Dad Enclave,3116,Competition3,Mens  Formals,BEING HUMAN
ANDHRA PRADESH,Hyderabad,Tirumalagiri,Secunderabad Cantt. Board,Outskirts,500009,Karkhana,New Vasavi Nagar,3117,Competition2,Mens  Formals,VAN HEUSEN
ANDHRA PRADESH,Hyderabad,Tirumalagiri,Secunderabad Cantt. Board,Outskirts,500009,Karkhana,Joyti Colony,3115,Competition2,Mens  Formals,ALLEN SOLLY
ANDHRA PRADESH,Hyderabad,Tirumalagiri,Secunderabad Cantt. Board,Outskirts,500009,Karkhana,Kakaguda,3142,Competition3,BTL Fashion & Active Sports,VAN HEUSEN
ANDHRA PRADESH,Hyderabad,Tirumalagiri,Secunderabad Cantt. Board,Outskirts,500009,Karkhana,Brooke Bond Colony,3036,Competition4,BTL Fashion & Active Sports,TITAN
ANDHRA PRADESH,Hyderabad,Tirumalagiri,Secunderabad Cantt. Board,Outskirts,500009,Karkhana,"Shangir Apartment, Theograj Nagar",3071,Competition4,Mens  Formals,PIERRE CARDIN
ANDHRA PRADESH,Hyderabad,Tirumalagiri,Secunderabad Cantt. Board,Outskirts,500009,Karkhana,Gruhalaxmi Colony,3074,Competition1,E-Com Brands,TITAN
ANDHRA PRADESH,Hyderabad,Tirumalagiri,Secunderabad Cantt. Board,Outskirts,500009,Karkhana,Kakaguda,3142,Competition2,Mens  Formals,BEING HUMAN
ANDHRA PRADESH,Hyderabad,Tirumalagiri,Secunderabad Cantt. Board,Outskirts,500026,West Marredpally,Krishnapuri,3027,Competition3,Mens  Formals,PIERRE CARDIN
ANDHRA PRADESH,Hyderabad,Tirumalagiri,Secunderabad Cantt. Board,Outskirts,500009,Karkhana,"Gayatri Residency, Ishaq Colony",3072,Competition2,E-Com Brands,ALLEN SOLLY
ANDHRA PRADESH,Hyderabad,Tirumalagiri,Secunderabad Cantt. Board,Outskirts,500009,Karkhana,Ishaq Colony,3082,Competition2,Mens  Formals,PIERRE CARDIN
ANDHRA PRADESH,Hyderabad,Tirumalagiri,Secunderabad Cantt. Board,Outskirts,500015,Trimulgherry,Hanuman Temple Complex,3035,Competition2,Personal Accessories,BLACKBERRYS
ANDHRA PRADESH,Hyderabad,Tirumalagiri,Secunderabad Cantt. Board,Outskirts,500015,Trimulgherry,Hanuman Temple Complex,3035,Competition5,E-Com Brands,VAN HEUSEN
ANDHRA PRADESH,Hyderabad,Tirumalagiri,Secunderabad Cantt. Board,Outskirts,500009,Karkhana,Karkhana,3037,Competition4,Mens  Formals,PIERRE CARDIN
ANDHRA PRADESH,Hyderabad,Tirumalagiri,Secunderabad Cantt. Board,Outskirts,500009,Karkhana,Dad Enclave,3116,Competition1,E-Com Brands,PIERRE CARDIN
ANDHRA PRADESH,Hyderabad,Tirumalagiri,Secunderabad Cantt. Board,Outskirts,500009,Karkhana,Joyti Colony,3115,Competition4,BTL Fashion & Active Sports,PIERRE CARDIN
ANDHRA PRADESH,Hyderabad,Tirumalagiri,Secunderabad Cantt. Board,Outskirts,500009,Karkhana,Brooke Bond Colony,3036,Competition2,Mens  Formals,TITAN
ANDHRA PRADESH,Hyderabad,Tirumalagiri,Secunderabad Cantt. Board,Outskirts,500026,West Marredpally,RK Nagar,3018,Competition2,Mens  Formals,PIERRE CARDIN
ANDHRA PRADESH,Hyderabad,Tirumalagiri,Secunderabad Cantt. Board,Outskirts,500026,West Marredpally,Krishnapuri,3027,Competition3,Mens  Formals,ALLEN SOLLY
ANDHRA PRADESH,Hyderabad,Tirumalagiri,Secunderabad Cantt. Board,Outskirts,500009,Karkhana,Karkhana,3037,Competition2,Personal Accessories,VAN HEUSEN
ANDHRA PRADESH,Hyderabad,Tirumalagiri,Secunderabad Cantt. Board,Outskirts,500026,West Marredpally,"Rukmini Devi Colony, Mahatma Gandhi Nagar",3066,Competition2,Mens  Formals,ALLEN SOLLY
ANDHRA PRADESH,Hyderabad,Tirumalagiri,Secunderabad Cantt. Board,Outskirts,500026,West Marredpally,Simhapuri Colony,3028,Competition1,BTL Fashion & Active Sports,PIERRE CARDIN
Maharashtra,Mumbai Suburban,Area not under any Sub-district,Mumbai,Suburbs,400053,Andheri West,Anand Nagar,1019,Competition5,Mens  Formals,PIERRE CARDIN
Maharashtra,Mumbai Suburban,Area not under any Sub-district,Mumbai,Suburbs,400053,Andheri West,Anand Nagar,1019,Competition4,E-Com Brands,BEING HUMAN
Maharashtra,Mumbai Suburban,Area not under any Sub-district,Mumbai,Suburbs,400053,Andheri West,Industrial   Area,1183,Competition2,Personal Accessories,ALLEN SOLLY
Maharashtra,Mumbai Suburban,Area not under any Sub-district,Mumbai,Suburbs,400053,Andheri West,Model Town,1084,Competition5,Mens  Formals,BLACKBERRYS
Maharashtra,Mumbai Suburban,Area not under any Sub-district,Mumbai,Suburbs,400061,Andheri West,"Joseph Patel   Wadi, Versova",1150,Competition1,Personal Accessories,MEXX
Maharashtra,Mumbai Suburban,Area not under any Sub-district,Mumbai,Suburbs,400053,Andheri West,Seven Bunglow,875,Competition5,Personal Accessories,VAN HEUSEN
Maharashtra,Mumbai Suburban,Area not under any Sub-district,Mumbai,Suburbs,400053,Andheri West,SV Patel Nagar,1427,Competition1,BTL Fashion & Active Sports,BEING HUMAN
Maharashtra,Mumbai Suburban,Area not under any Sub-district,Mumbai,Suburbs,400053,Andheri West,Industrial   Area,1087,Competition4,Mens  Formals,BLACKBERRYS
Maharashtra,Mumbai Suburban,Area not under any Sub-district,Mumbai,Suburbs,400052,Khar West,Pali Village,1325,Competition3,E-Com Brands,BEING HUMAN
Maharashtra,Mumbai Suburban,Area not under any Sub-district,Mumbai,Suburbs,400050,Bandra West,Santosh Nagar,993,Competition4,BTL Fashion & Active Sports,PIERRE CARDIN
Maharashtra,Mumbai Suburban,Area not under any Sub-district,Mumbai,Suburbs,400050,Bandra West,Bandra rAILWAY STATION,1468,Competition3,BTL Fashion & Active Sports,VAN HEUSEN
Maharashtra,Mumbai Suburban,Area not under any Sub-district,Mumbai,Suburbs,400050,Bandra West,Reclamation,1077,Competition2,Personal Accessories,TITAN
Maharashtra,Mumbai Suburban,Area not under any Sub-district,Mumbai,Suburbs,400102,Jogeshwari West,Gautam Nagar,891,Competition2,Mens  Formals,PIERRE CARDIN
Maharashtra,Mumbai Suburban,Area not under any Sub-district,Mumbai,Suburbs,400058,Jogeshwari West,Prathmesh   Complex,1139,Competition3,E-Com Brands,BLACKBERRYS
Maharashtra,Mumbai Suburban,Area not under any Sub-district,Mumbai,Suburbs,400058,Jogeshwari West,Prathmesh   Complex,1139,Competition5,E-Com Brands,TITAN
Maharashtra,Mumbai Suburban,Area not under any Sub-district,Mumbai,Suburbs,400058,Andheri West,Azad Nagar,863,Competition2,E-Com Brands,TITAN
Maharashtra,Mumbai Suburban,Area not under any Sub-district,Mumbai,Suburbs,400050,Bandra West,Patkar Blocks,254,Competition5,Mens  Formals,PIERRE CARDIN
Maharashtra,Mumbai Suburban,Area not under any Sub-district,Mumbai,Suburbs,400050,Bandra West,Reclamation,1077,Competition2,Personal Accessories,BEING HUMAN
Maharashtra,Mumbai Suburban,Area not under any Sub-district,Mumbai,Suburbs,400050,Bandra West,Patkar Blocks,254,Competition5,Personal Accessories,VAN HEUSEN
Maharashtra,Mumbai Suburban,Area not under any Sub-district,Mumbai,Suburbs,400050,Bandra West,Bandra rAILWAY STATION,1468,Competition3,Mens  Formals,VAN HEUSEN
Maharashtra,Mumbai Suburban,Area not under any Sub-district,Mumbai,Suburbs,400050,Bandra West,Patkar Blocks,254,Competition2,Personal Accessories,PIERRE CARDIN
Maharashtra,Mumbai Suburban,Area not under any Sub-district,Mumbai,Suburbs,400102,Jogeshwari West,Shastri Nagar,1112,Competition1,Personal Accessories,TITAN
Maharashtra,Mumbai Suburban,Area not under any Sub-district,Mumbai,Suburbs,400053,Andheri West,Veer Desai   Industrial Estate,1281,Competition2,BTL Fashion & Active Sports,BLACKBERRYS
Maharashtra,Mumbai Suburban,Area not under any Sub-district,Mumbai,Suburbs,400053,Andheri West,Industrial   Area,1087,Competition1,Mens  Formals,MEXX
Maharashtra,Mumbai Suburban,Area not under any Sub-district,Mumbai,Suburbs,400053,Andheri West,"Mhada Colony,   Azad Nagar",287,Competition1,E-Com Brands,ALLEN SOLLY
Maharashtra,Mumbai Suburban,Area not under any Sub-district,Mumbai,Suburbs,400053,Andheri West,Veer Desai   Industrial Estate,1281,Competition1,Personal Accessories,BEING HUMAN
Maharashtra,Mumbai Suburban,Area not under any Sub-district,Mumbai,Suburbs,400053,Andheri West,Industrial   Area,1087,Competition4,Personal Accessories,BEING HUMAN
Maharashtra,Mumbai Suburban,Area not under any Sub-district,Mumbai,Suburbs,400050,Bandra West,Suburbia Mall,1467,Competition3,Mens  Formals,BEING HUMAN
Maharashtra,Mumbai Suburban,Area not under any Sub-district,Mumbai,Suburbs,400050,Bandra West,Bandra Talao,1446,Competition5,Personal Accessories,MEXX
Maharashtra,Mumbai Suburban,Area not under any Sub-district,Mumbai,Suburbs,400050,Bandra West,Bandra rAILWAY STATION,1468,Competition5,BTL Fashion & Active Sports,TITAN
Maharashtra,Mumbai Suburban,Area not under any Sub-district,Mumbai,Suburbs,400050,Bandra West,Bandra rAILWAY STATION,1468,Competition4,E-Com Brands,ALLEN SOLLY
Maharashtra,Mumbai Suburban,Area not under any Sub-district,Mumbai,Suburbs,400050,Bandra West,Bandra rAILWAY STATION,1468,Competition4,Personal Accessories,BEING HUMAN
Maharashtra,Mumbai Suburban,Area not under any Sub-district,Mumbai,Suburbs,400053,Andheri West,Milat Nagar,991,Competition1,Mens  Formals,ALLEN SOLLY
Maharashtra,Mumbai Suburban,Area not under any Sub-district,Mumbai,Suburbs,400053,Andheri West,Lokhandwala   Complex,1351,Competition3,Personal Accessories,BLACKBERRYS
Maharashtra,Mumbai Suburban,Area not under any Sub-district,Mumbai,Suburbs,400053,Andheri West,"Indira Nagar,   Four Bungalows",662,Competition2,E-Com Brands,BEING HUMAN
Maharashtra,Mumbai Suburban,Area not under any Sub-district,Mumbai,Suburbs,400053,Andheri West,"New DN Nagar,   D N Nagar",269,Competition1,E-Com Brands,TITAN
Maharashtra,Mumbai Suburban,Area not under any Sub-district,Mumbai,Suburbs,400049,Andheri West,Kapaswadi,621,Competition3,BTL Fashion & Active Sports,MEXX
Maharashtra,Mumbai Suburban,Area not under any Sub-district,Mumbai,Suburbs,400052,Khar West,Ambedkar   Colony,268,Competition2,Mens  Formals,ALLEN SOLLY
Maharashtra,Mumbai Suburban,Area not under any Sub-district,Mumbai,Suburbs,400050,Pali Hills,Union Park,894,Competition4,Mens  Formals,BLACKBERRYS
Maharashtra,Mumbai Suburban,Area not under any Sub-district,Mumbai,Suburbs,400050,Khar West,Rizvi Complex area,1443,Competition5,E-Com Brands,BLACKBERRYS
Maharashtra,Mumbai Suburban,Area not under any Sub-district,Mumbai,Suburbs,400050,Khar West,Rizvi Complex area,1443,Competition4,Mens  Formals,ALLEN SOLLY
Maharashtra,Mumbai Suburban,Area not under any Sub-district,Mumbai,Suburbs,400050,Bandra West,Ranwar,1285,Competition2,E-Com Brands,VAN HEUSEN
Maharashtra,Mumbai Suburban,Area not under any Sub-district,Mumbai,Suburbs,400053,Andheri West,Mhada Colony,1177,Competition4,Mens  Formals,BEING HUMAN
Maharashtra,Mumbai Suburban,Area not under any Sub-district,Mumbai,Suburbs,400053,Andheri West,Milat Nagar,991,Competition2,BTL Fashion & Active Sports,BLACKBERRYS
Maharashtra,Mumbai Suburban,Area not under any Sub-district,Mumbai,Suburbs,400053,Andheri West,"Indian Oil   Nagar, D N Nagar",72,Competition4,BTL Fashion & Active Sports,BLACKBERRYS
Maharashtra,Mumbai Suburban,Area not under any Sub-district,Mumbai,Suburbs,400050,Bandra West,Mithun Garden,1449,Competition3,Mens  Formals,MEXX
Maharashtra,Mumbai Suburban,Area not under any Sub-district,Mumbai,Suburbs,400053,Andheri West,Mhada Colony,1177,Competition2,BTL Fashion & Active Sports,ALLEN SOLLY
Maharashtra,Mumbai Suburban,Area not under any Sub-district,Mumbai,Suburbs,400053,Andheri West,Mhada Colony,1177,Competition5,E-Com Brands,VAN HEUSEN
Maharashtra,Mumbai Suburban,Area not under any Sub-district,Mumbai,Suburbs,400058,Andheri West,Azad Nagar,863,Competition2,Mens  Formals,MEXX
Maharashtra,Mumbai Suburban,Area not under any Sub-district,Mumbai,Suburbs,400053,Andheri West,"Shitladevi   Chawl, D N Nagar",99,Competition5,Personal Accessories,TITAN
Maharashtra,Mumbai Suburban,Area not under any Sub-district,Mumbai,Suburbs,400053,Andheri West,"Shanti Nagar,   D N Nagar",570,Competition2,E-Com Brands,BEING HUMAN
Maharashtra,Mumbai Suburban,Area not under any Sub-district,Mumbai,Suburbs,400050,Bandra West,Mithun Garden,1449,Competition3,Personal Accessories,PIERRE CARDIN
Maharashtra,Mumbai Suburban,Area not under any Sub-district,Mumbai,Suburbs,400053,Andheri West,Anand Nagar,1019,Competition3,E-Com Brands,BEING HUMAN
Maharashtra,Mumbai Suburban,Area not under any Sub-district,Mumbai,Suburbs,400053,Andheri West,Anand Nagar,1019,Competition2,Mens  Formals,MEXX
Maharashtra,Mumbai Suburban,Area not under any Sub-district,Mumbai,Suburbs,400102,Jogeshwari West,Kadam Nagar,61,Competition4,E-Com Brands,VAN HEUSEN
Maharashtra,Mumbai Suburban,Area not under any Sub-district,Mumbai,Suburbs,400050,Bandra West,Bandra Talao,1446,Competition4,E-Com Brands,MEXX
Maharashtra,Mumbai Suburban,Area not under any Sub-district,Mumbai,Suburbs,400050,Bandra West,Bhabh Hospital area,1450,Competition1,Mens  Formals,PIERRE CARDIN
Maharashtra,Mumbai Suburban,Area not under any Sub-district,Mumbai,Suburbs,400050,Bandra West,Bandra Talao,1446,Competition1,Personal Accessories,PIERRE CARDIN
Maharashtra,Mumbai Suburban,Area not under any Sub-district,Mumbai,Suburbs,400050,Bandra West,Santosh Nagar,993,Competition4,Mens  Formals,TITAN
Maharashtra,Mumbai Suburban,Area not under any Sub-district,Mumbai,Suburbs,400050,Bandra West,Suburbia Mall,1467,Competition2,Personal Accessories,MEXX
Maharashtra,Mumbai Suburban,Area not under any Sub-district,Mumbai,Suburbs,400050,Bandra West,Bandra Talao,1446,Competition5,BTL Fashion & Active Sports,BEING HUMAN
Maharashtra,Mumbai Suburban,Area not under any Sub-district,Mumbai,Suburbs,400052,Khar West,Jaibharat   Society,784,Competition2,Personal Accessories,MEXX
Maharashtra,Mumbai Suburban,Area not under any Sub-district,Mumbai,Suburbs,400104,Goregaon West,Bhagat   Singh Nagar,959,Competition5,BTL Fashion & Active Sports,BLACKBERRYS
Maharashtra,Mumbai Suburban,Area not under any Sub-district,Mumbai,Suburbs,400053,Andheri West,"Jeevan Nagar,   Azad Nagar",244,Competition2,Personal Accessories,MEXX
Maharashtra,Mumbai Suburban,Area not under any Sub-district,Mumbai,Suburbs,400050,Bandra West,Mithun Garden,1449,Competition2,Personal Accessories,VAN HEUSEN
Maharashtra,Mumbai Suburban,Area not under any Sub-district,Mumbai,Suburbs,400050,Pali Hills,Auxilium Convent,1466,Competition1,BTL Fashion & Active Sports,PIERRE CARDIN
Maharashtra,Mumbai Suburban,Area not under any Sub-district,Mumbai,Suburbs,400050,Bandra West,Mount Mary,1392,Competition3,E-Com Brands,BEING HUMAN
Maharashtra,Mumbai Suburban,Area not under any Sub-district,Mumbai,Suburbs,400050,Bandra West,Mount Mary,1392,Competition1,Mens  Formals,TITAN
Maharashtra,Mumbai Suburban,Area not under any Sub-district,Mumbai,Suburbs,400053,Andheri West,"Phase D,   Shastri Nagar",656,Competition2,E-Com Brands,VAN HEUSEN
Maharashtra,Mumbai Suburban,Area not under any Sub-district,Mumbai,Suburbs,400053,Andheri West,Industrial   Area,1183,Competition2,Personal Accessories,BLACKBERRYS
Maharashtra,Mumbai Suburban,Area not under any Sub-district,Mumbai,Suburbs,400053,Andheri West,Bhudargarh Colony,1064,Competition4,Personal Accessories,VAN HEUSEN
Maharashtra,Mumbai Suburban,Area not under any Sub-district,Mumbai,Suburbs,400053,Andheri West,"Manish Nagar,   Four Bungalows",636,Competition2,Personal Accessories,BLACKBERRYS
Maharashtra,Mumbai Suburban,Area not under any Sub-district,Mumbai,Suburbs,400053,Andheri West,"Madhuban Colony,   D N Nagar",257,Competition1,E-Com Brands,TITAN
Maharashtra,Mumbai Suburban,Area not under any Sub-district,Mumbai,Suburbs,400053,Andheri West,"ESIC Nagar,   D N Nagar",123,Competition2,Personal Accessories,BLACKBERRYS
Maharashtra,Mumbai Suburban,Area not under any Sub-district,Mumbai,Suburbs,400053,Andheri West,"Ganesh Nagar,   D N Nagar",3,Competition1,Mens  Formals,BEING HUMAN
Maharashtra,Mumbai Suburban,Area not under any Sub-district,Mumbai,Suburbs,400050,Khar West,Rizvi Complex area,1443,Competition2,Personal Accessories,BEING HUMAN
Maharashtra,Mumbai Suburban,Area not under any Sub-district,Mumbai,Suburbs,400050,Bandra West,D Monte Park,1452,Competition5,E-Com Brands,TITAN
Maharashtra,Mumbai Suburban,Area not under any Sub-district,Mumbai,Suburbs,400050,Bandra West,Mount Mary,1392,Competition3,Personal Accessories,TITAN
Maharashtra,Mumbai Suburban,Area not under any Sub-district,Mumbai,Suburbs,400053,Andheri West,Milat Nagar,991,Competition1,E-Com Brands,TITAN
Maharashtra,Mumbai Suburban,Area not under any Sub-district,Mumbai,Suburbs,400053,Andheri West,Milat Nagar,991,Competition2,E-Com Brands,MEXX
Maharashtra,Mumbai Suburban,Area not under any Sub-district,Mumbai,Suburbs,400053,Andheri West,"New LIC Colony,   D N Nagar",43,Competition4,Mens  Formals,ALLEN SOLLY
Maharashtra,Mumbai Suburban,Area not under any Sub-district,Mumbai,Suburbs,400053,Andheri West,D N Nagar,410,Competition1,E-Com Brands,VAN HEUSEN
Maharashtra,Mumbai Suburban,Area not under any Sub-district,Mumbai,Suburbs,400053,Andheri West,"Shanti Nagar,   D N Nagar",570,Competition1,BTL Fashion & Active Sports,MEXX
Maharashtra,Mumbai Suburban,Area not under any Sub-district,Mumbai,Suburbs,400050,Bandra West,Almeida Park,1448,Competition4,Mens  Formals,BEING HUMAN
Maharashtra,Mumbai Suburban,Area not under any Sub-district,Mumbai,Suburbs,400050,Pali Hills,Auxilium Convent,1466,Competition5,BTL Fashion & Active Sports,MEXX
Maharashtra,Mumbai Suburban,Area not under any Sub-district,Mumbai,Suburbs,400050,Bandra West,D Monte Park,1452,Competition5,E-Com Brands,MEXX
Maharashtra,Mumbai Suburban,Area not under any Sub-district,Mumbai,Suburbs,400053,Andheri West,Shastri Nagar,1057,Competition5,BTL Fashion & Active Sports,MEXX
Maharashtra,Mumbai Suburban,Area not under any Sub-district,Mumbai,Suburbs,400058,Andheri West,Munshi Nagar,1242,Competition1,Personal Accessories,ALLEN SOLLY
Maharashtra,Mumbai Suburban,Area not under any Sub-district,Mumbai,Suburbs,400050,Bandra West,Bhabh Hospital area,1450,Competition1,Personal Accessories,BLACKBERRYS
Maharashtra,Mumbai Suburban,Area not under any Sub-district,Mumbai,Suburbs,400050,Bandra West,Almeida Park,1448,Competition5,BTL Fashion & Active Sports,BLACKBERRYS
Maharashtra,Mumbai Suburban,Area not under any Sub-district,Mumbai,Suburbs,400050,Bandra West,Reclamation,1077,Competition1,BTL Fashion & Active Sports,PIERRE CARDIN
Maharashtra,Mumbai Suburban,Area not under any Sub-district,Mumbai,Suburbs,400061,Andheri West,"Jeet Nagar,   Versova",1056,Competition4,E-Com Brands,MEXX
Maharashtra,Mumbai Suburban,Area not under any Sub-district,Mumbai,Suburbs,400061,Andheri West,"Joseph Patel   Wadi, Versova",1150,Competition5,Personal Accessories,BEING HUMAN
Maharashtra,Mumbai Suburban,Area not under any Sub-district,Mumbai,Suburbs,400061,Andheri West,"Joseph Patel   Wadi, Versova",1150,Competition2,Personal Accessories,BEING HUMAN
Maharashtra,Mumbai Suburban,Area not under any Sub-district,Mumbai,Suburbs,400053,Andheri West,"Aram Nagar,   Versova",1346,Competition2,Personal Accessories,VAN HEUSEN
Maharashtra,Mumbai Suburban,Area not under any Sub-district,Mumbai,Suburbs,400053,Andheri West,Seven Bunglow,875,Competition5,Personal Accessories,BLACKBERRYS
Maharashtra,Mumbai Suburban,Area not under any Sub-district,Mumbai,Suburbs,400053,Andheri West,"Bharat Nagar,   Versova",1162,Competition4,E-Com Brands,BEING HUMAN
Maharashtra,Mumbai Suburban,Area not under any Sub-district,Mumbai,Suburbs,400050,Bandra West,Mount Mary,1392,Competition3,E-Com Brands,BLACKBERRYS
Maharashtra,Mumbai Suburban,Area not under any Sub-district,Mumbai,Suburbs,400053,Andheri West,SV Patel Nagar,1427,Competition1,E-Com Brands,MEXX
Maharashtra,Mumbai Suburban,Area not under any Sub-district,Mumbai,Suburbs,400050,Bandra West,D Monte Park,1452,Competition5,Mens  Formals,TITAN
Maharashtra,Mumbai Suburban,Area not under any Sub-district,Mumbai,Suburbs,400050,Bandra West,D Monte Park,1452,Competition3,BTL Fashion & Active Sports,MEXX
Maharashtra,Mumbai Suburban,Area not under any Sub-district,Mumbai,Suburbs,400053,Andheri West,Shastri Nagar,1057,Competition5,Mens  Formals,BLACKBERRYS
Maharashtra,Mumbai Suburban,Area not under any Sub-district,Mumbai,Suburbs,400053,Andheri West,Shastri Nagar,1057,Competition2,Personal Accessories,TITAN
Maharashtra,Mumbai Suburban,Area not under any Sub-district,Mumbai,Suburbs,400053,Andheri West,SV Patel Nagar,1427,Competition4,Mens  Formals,PIERRE CARDIN
Maharashtra,Mumbai Suburban,Area not under any Sub-district,Mumbai,Suburbs,400053,Andheri West,Bhudargarh Colony,1064,Competition4,E-Com Brands,PIERRE CARDIN
Maharashtra,Mumbai Suburban,Area not under any Sub-district,Mumbai,Suburbs,400053,Andheri West,"Ratan Nagar,   Four Bungalows",939,Competition2,E-Com Brands,ALLEN SOLLY
Maharashtra,Mumbai Suburban,Area not under any Sub-district,Mumbai,Suburbs,400053,Andheri West,"Bharat Nagar,   Versova",1162,Competition1,BTL Fashion & Active Sports,MEXX
Maharashtra,Mumbai Suburban,Area not under any Sub-district,Mumbai,Suburbs,400052,Pali Hills,Danda,309,Competition3,E-Com Brands,MEXX
Maharashtra,Mumbai Suburban,Area not under any Sub-district,Mumbai,Suburbs,400050,Pali Hills,Hanuman Nagar,749,Competition5,Mens  Formals,ALLEN SOLLY
Maharashtra,Mumbai Suburban,Area not under any Sub-district,Mumbai,Suburbs,400050,Pali Hills,Chuim,306,Competition4,Personal Accessories,ALLEN SOLLY
Maharashtra,Mumbai Suburban,Area not under any Sub-district,Mumbai,Suburbs,400050,Pali Hills,"Railway Colony,   Shirley",169,Competition2,E-Com Brands,TITAN
Maharashtra,Mumbai Suburban,Area not under any Sub-district,Mumbai,Suburbs,400053,Andheri West,Yamuna Nagar,617,Competition2,Personal Accessories,VAN HEUSEN
Maharashtra,Mumbai Suburban,Area not under any Sub-district,Mumbai,Suburbs,400053,Andheri West,Lokhandwala   Complex,1351,Competition4,Mens  Formals,TITAN
Maharashtra,Mumbai Suburban,Area not under any Sub-district,Mumbai,Suburbs,400053,Andheri West,SV Patel Nagar,1427,Competition4,E-Com Brands,MEXX
Maharashtra,Mumbai Suburban,Area not under any Sub-district,Mumbai,Suburbs,400053,Andheri West,Mudran Press   Colony,872,Competition4,Mens  Formals,PIERRE CARDIN
Maharashtra,Mumbai Suburban,Area not under any Sub-district,Mumbai,Suburbs,400053,Andheri West,"Indira Nagar,   Four Bungalows",662,Competition5,E-Com Brands,ALLEN SOLLY
Maharashtra,Mumbai Suburban,Area not under any Sub-district,Mumbai,Suburbs,400053,Andheri West,"Ratan Nagar,   Four Bungalows",939,Competition5,BTL Fashion & Active Sports,BLACKBERRYS
Maharashtra,Mumbai Suburban,Area not under any Sub-district,Mumbai,Suburbs,400053,Andheri West,Kapaswadi,621,Competition2,BTL Fashion & Active Sports,MEXX
Maharashtra,Mumbai Suburban,Area not under any Sub-district,Mumbai,Suburbs,400050,Pali Hills,Hanuman Nagar,749,Competition4,E-Com Brands,VAN HEUSEN
Maharashtra,Mumbai Suburban,Area not under any Sub-district,Mumbai,Suburbs,400050,Pali Hills,Chuim,306,Competition3,E-Com Brands,BLACKBERRYS
Maharashtra,Mumbai Suburban,Area not under any Sub-district,Mumbai,Suburbs,400050,Khar West,Rizvi Complex area,1443,Competition5,Mens  Formals,VAN HEUSEN
Maharashtra,Mumbai Suburban,Area not under any Sub-district,Mumbai,Suburbs,400050,Bandra West,D Monte Park,1452,Competition3,E-Com Brands,PIERRE CARDIN
Maharashtra,Mumbai Suburban,Area not under any Sub-district,Mumbai,Suburbs,400053,Andheri West,Highland Park,885,Competition2,E-Com Brands,BLACKBERRYS
Maharashtra,Mumbai Suburban,Area not under any Sub-district,Mumbai,Suburbs,400053,Andheri West,Lokhandwala   Complex,1351,Competition1,BTL Fashion & Active Sports,PIERRE CARDIN
Maharashtra,Mumbai Suburban,Area not under any Sub-district,Mumbai,Suburbs,400053,Andheri West,Shastri Nagar,1057,Competition5,BTL Fashion & Active Sports,BEING HUMAN
Maharashtra,Mumbai Suburban,Area not under any Sub-district,Mumbai,Suburbs,400053,Andheri West,Industrial   Area,1183,Competition4,Personal Accessories,MEXX
Maharashtra,Mumbai Suburban,Area not under any Sub-district,Mumbai,Suburbs,400053,Andheri West,Bhudargarh Colony,1064,Competition2,E-Com Brands,BLACKBERRYS
Maharashtra,Mumbai Suburban,Area not under any Sub-district,Mumbai,Suburbs,400053,Andheri West,"New DN Nagar,   D N Nagar",269,Competition1,BTL Fashion & Active Sports,PIERRE CARDIN
Maharashtra,Mumbai Suburban,Area not under any Sub-district,Mumbai,Suburbs,400050,Khar West,Rizvi Complex area,1443,Competition5,E-Com Brands,BLACKBERRYS
Maharashtra,Mumbai Suburban,Area not under any Sub-district,Mumbai,Suburbs,400053,Andheri West,Milat Nagar,991,Competition3,Mens  Formals,BEING HUMAN
Maharashtra,Mumbai Suburban,Area not under any Sub-district,Mumbai,Suburbs,400053,Andheri West,Mhada Colony,1177,Competition2,BTL Fashion & Active Sports,ALLEN SOLLY
Maharashtra,Mumbai Suburban,Area not under any Sub-district,Mumbai,Suburbs,400053,Andheri West,Shastri Nagar,1057,Competition4,E-Com Brands,ALLEN SOLLY
Maharashtra,Mumbai Suburban,Area not under any Sub-district,Mumbai,Suburbs,400053,Andheri West,Industrial   Area,1183,Competition1,BTL Fashion & Active Sports,TITAN
Maharashtra,Mumbai Suburban,Area not under any Sub-district,Mumbai,Suburbs,400053,Andheri West,"New DN Nagar,   D N Nagar",269,Competition3,Mens  Formals,ALLEN SOLLY
Maharashtra,Mumbai Suburban,Area not under any Sub-district,Mumbai,Suburbs,400053,Andheri West,"New DN Nagar,   D N Nagar",269,Competition2,Mens  Formals,MEXX
Maharashtra,Mumbai Suburban,Area not under any Sub-district,Mumbai,Suburbs,400050,Khar West,Rizvi Complex area,1443,Competition5,Mens  Formals,ALLEN SOLLY
Maharashtra,Mumbai Suburban,Area not under any Sub-district,Mumbai,Suburbs,400050,Khar West,Rizvi Complex area,1443,Competition3,BTL Fashion & Active Sports,TITAN
Maharashtra,Mumbai Suburban,Area not under any Sub-district,Mumbai,Suburbs,400050,Bandra West,Almeida Park,1448,Competition1,E-Com Brands,PIERRE CARDIN
Maharashtra,Mumbai Suburban,Area not under any Sub-district,Mumbai,Suburbs,400050,Bandra West,ONGC Colony,608,Competition5,Personal Accessories,ALLEN SOLLY
Maharashtra,Mumbai Suburban,Area not under any Sub-district,Mumbai,Suburbs,400104,Goregaon West,Bhagat   Singh Nagar,959,Competition3,BTL Fashion & Active Sports,BLACKBERRYS
Maharashtra,Mumbai Suburban,Area not under any Sub-district,Mumbai,Suburbs,400053,Andheri West,Anand Nagar,1019,Competition1,E-Com Brands,VAN HEUSEN
Maharashtra,Mumbai Suburban,Area not under any Sub-district,Mumbai,Suburbs,400102,Jogeshwari West,Adarsh Nagar,1082,Competition1,Mens  Formals,BLACKBERRYS
Maharashtra,Mumbai Suburban,Area not under any Sub-district,Mumbai,Suburbs,400053,Andheri West,D N Nagar,410,Competition1,Personal Accessories,VAN HEUSEN
Maharashtra,Mumbai Suburban,Area not under any Sub-district,Mumbai,Suburbs,400050,Bandra West,Bhabh Hospital area,1450,Competition5,Personal Accessories,ALLEN SOLLY
Maharashtra,Mumbai Suburban,Area not under any Sub-district,Mumbai,Suburbs,400050,Bandra West,Santosh Nagar,993,Competition5,BTL Fashion & Active Sports,BEING HUMAN
Maharashtra,Mumbai Suburban,Area not under any Sub-district,Mumbai,Suburbs,400050,Pali Hills,Shirley,431,Competition2,E-Com Brands,MEXX
Maharashtra,Mumbai Suburban,Area not under any Sub-district,Mumbai,Suburbs,400050,Khar West,Chimbai village,1451,Competition1,E-Com Brands,TITAN
Maharashtra,Mumbai Suburban,Area not under any Sub-district,Mumbai,Suburbs,400050,Bandra West,Ranwar,1285,Competition1,Personal Accessories,ALLEN SOLLY
Maharashtra,Mumbai Suburban,Area not under any Sub-district,Mumbai,Suburbs,400050,Bandra West,Mount Mary,1392,Competition5,Mens  Formals,PIERRE CARDIN
Maharashtra,Mumbai Suburban,Area not under any Sub-district,Mumbai,Suburbs,400053,Andheri West,Milat Nagar,991,Competition4,E-Com Brands,ALLEN SOLLY
Maharashtra,Mumbai Suburban,Area not under any Sub-district,Mumbai,Suburbs,400053,Andheri West,Yamuna Nagar,617,Competition3,BTL Fashion & Active Sports,VAN HEUSEN
Maharashtra,Mumbai Suburban,Area not under any Sub-district,Mumbai,Suburbs,400053,Andheri West,Highland Park,885,Competition3,Mens  Formals,TITAN
Maharashtra,Mumbai Suburban,Area not under any Sub-district,Mumbai,Suburbs,400050,Pali Hills,Union Park,894,Competition1,Personal Accessories,VAN HEUSEN
Maharashtra,Mumbai Suburban,Area not under any Sub-district,Mumbai,Suburbs,400050,Khar West,Rizvi Complex area,1443,Competition3,Personal Accessories,BLACKBERRYS
Maharashtra,Mumbai Suburban,Area not under any Sub-district,Mumbai,Suburbs,400050,Bandra West,D Monte Park,1452,Competition4,BTL Fashion & Active Sports,VAN HEUSEN
Maharashtra,Mumbai Suburban,Area not under any Sub-district,Mumbai,Suburbs,400050,Bandra West,D Monte Park,1452,Competition5,Mens  Formals,BEING HUMAN
Maharashtra,Mumbai Suburban,Area not under any Sub-district,Mumbai,Suburbs,400050,Bandra West,ONGC Colony,608,Competition3,Mens  Formals,VAN HEUSEN
Maharashtra,Mumbai Suburban,Area not under any Sub-district,Mumbai,Suburbs,400053,Andheri West,"Phase D,   Shastri Nagar",656,Competition2,Personal Accessories,BLACKBERRYS
Maharashtra,Mumbai Suburban,Area not under any Sub-district,Mumbai,Suburbs,400053,Andheri West,"Shitladevi   Chawl, D N Nagar",99,Competition3,E-Com Brands,BEING HUMAN
Maharashtra,Mumbai Suburban,Area not under any Sub-district,Mumbai,Suburbs,400053,Andheri West,"Shanti Nagar,   D N Nagar",570,Competition1,BTL Fashion & Active Sports,BEING HUMAN
Maharashtra,Mumbai Suburban,Area not under any Sub-district,Mumbai,Suburbs,400052,Khar West,Ambedkar Nagar,128,Competition5,Personal Accessories,MEXX
Maharashtra,Mumbai Suburban,Area not under any Sub-district,Mumbai,Suburbs,400050,Bandra West,Vaidya Nagar,112,Competition1,BTL Fashion & Active Sports,TITAN
Maharashtra,Mumbai Suburban,Area not under any Sub-district,Mumbai,Suburbs,400053,Andheri West,Mhada Colony,1177,Competition3,E-Com Brands,VAN HEUSEN
Maharashtra,Mumbai Suburban,Area not under any Sub-district,Mumbai,Suburbs,400102,Jogeshwari West,Adarsh Nagar,1082,Competition5,BTL Fashion & Active Sports,MEXX
Maharashtra,Mumbai Suburban,Area not under any Sub-district,Mumbai,Suburbs,400053,Andheri West,D N Nagar,410,Competition3,BTL Fashion & Active Sports,ALLEN SOLLY
Maharashtra,Mumbai Suburban,Area not under any Sub-district,Mumbai,Suburbs,400052,Khar West,Pali Village,1325,Competition5,BTL Fashion & Active Sports,MEXX
Maharashtra,Mumbai Suburban,Area not under any Sub-district,Mumbai,Suburbs,400050,Bandra West,Bhabh Hospital area,1450,Competition5,BTL Fashion & Active Sports,BLACKBERRYS
Maharashtra,Mumbai Suburban,Area not under any Sub-district,Mumbai,Suburbs,400050,Bandra West,Ranwar,1285,Competition2,Personal Accessories,MEXX
Maharashtra,Mumbai Suburban,Area not under any Sub-district,Mumbai,Suburbs,400050,Bandra West,Santosh Nagar,993,Competition4,Mens  Formals,PIERRE CARDIN
Maharashtra,Mumbai Suburban,Area not under any Sub-district,Mumbai,Suburbs,400050,Bandra West,Ranwar,1285,Competition1,BTL Fashion & Active Sports,BLACKBERRYS
Maharashtra,Mumbai Suburban,Area not under any Sub-district,Mumbai,Suburbs,400050,Bandra West,ONGC Colony,608,Competition2,E-Com Brands,PIERRE CARDIN
Maharashtra,Mumbai Suburban,Area not under any Sub-district,Mumbai,Suburbs,400050,Bandra West,Bandra Talao,1446,Competition2,Mens  Formals,VAN HEUSEN
Maharashtra,Mumbai Suburban,Area not under any Sub-district,Mumbai,Suburbs,400052,Khar West,Jaibharat   Society,784,Competition3,BTL Fashion & Active Sports,BEING HUMAN
Maharashtra,Mumbai Suburban,Area not under any Sub-district,Mumbai,Suburbs,400061,Andheri West,"Joseph Patel   Wadi, Versova",1150,Competition3,E-Com Brands,MEXX
Maharashtra,Mumbai Suburban,Area not under any Sub-district,Mumbai,Suburbs,400061,Andheri West,"Joseph Patel   Wadi, Versova",1150,Competition1,Mens  Formals,BEING HUMAN
Maharashtra,Mumbai Suburban,Area not under any Sub-district,Mumbai,Suburbs,400053,Andheri West,Seven Bunglow,875,Competition2,BTL Fashion & Active Sports,VAN HEUSEN
Maharashtra,Mumbai Suburban,Area not under any Sub-district,Mumbai,Suburbs,400053,Juhu,Mora Gaon,1164,Competition5,BTL Fashion & Active Sports,VAN HEUSEN
Maharashtra,Mumbai Suburban,Area not under any Sub-district,Mumbai,Suburbs,400050,Bandra West,Mount Mary,1392,Competition3,E-Com Brands,MEXX
Maharashtra,Mumbai Suburban,Area not under any Sub-district,Mumbai,Suburbs,400050,Bandra West,Mount Mary,1392,Competition1,E-Com Brands,ALLEN SOLLY
Maharashtra,Mumbai Suburban,Area not under any Sub-district,Mumbai,Suburbs,400053,Andheri West,Lokhandwala   Complex,1351,Competition1,Personal Accessories,BEING HUMAN
Maharashtra,Mumbai Suburban,Area not under any Sub-district,Mumbai,Suburbs,400053,Andheri West,Mudran Press   Colony,872,Competition3,BTL Fashion & Active Sports,BLACKBERRYS
Maharashtra,Mumbai Suburban,Area not under any Sub-district,Mumbai,Suburbs,400053,Juhu,Mora Gaon,1164,Competition3,BTL Fashion & Active Sports,VAN HEUSEN
Maharashtra,Mumbai Suburban,Area not under any Sub-district,Mumbai,Suburbs,400052,Pali Hills,Danda,309,Competition2,E-Com Brands,VAN HEUSEN
Maharashtra,Mumbai Suburban,Area not under any Sub-district,Mumbai,Suburbs,400050,Pali Hills,Hanuman Nagar,749,Competition1,BTL Fashion & Active Sports,ALLEN SOLLY
Maharashtra,Mumbai Suburban,Area not under any Sub-district,Mumbai,Suburbs,400050,Pali Hills,"Railway Colony,   Shirley",169,Competition5,BTL Fashion & Active Sports,MEXX
Maharashtra,Mumbai Suburban,Area not under any Sub-district,Mumbai,Suburbs,400050,Bandra West,Mount Mary,1392,Competition1,BTL Fashion & Active Sports,BLACKBERRYS
Maharashtra,Mumbai Suburban,Area not under any Sub-district,Mumbai,Suburbs,400053,Andheri West,Lokhandwala   Complex,1351,Competition4,Personal Accessories,TITAN
Maharashtra,Mumbai Suburban,Area not under any Sub-district,Mumbai,Suburbs,400053,Andheri West,Yamuna Nagar,617,Competition3,Mens  Formals,PIERRE CARDIN
Maharashtra,Mumbai Suburban,Area not under any Sub-district,Mumbai,Suburbs,400053,Andheri West,Shastri Nagar,1057,Competition1,E-Com Brands,ALLEN SOLLY
Maharashtra,Mumbai Suburban,Area not under any Sub-district,Mumbai,Suburbs,400053,Andheri West,SV Patel Nagar,1427,Competition3,BTL Fashion & Active Sports,ALLEN SOLLY
Maharashtra,Mumbai Suburban,Area not under any Sub-district,Mumbai,Suburbs,400061,Andheri West,"Jeet Nagar,   Versova",1056,Competition3,Personal Accessories,BEING HUMAN
Maharashtra,Mumbai Suburban,Area not under any Sub-district,Mumbai,Suburbs,400053,Andheri West,"Aram Nagar,   Versova",1346,Competition4,BTL Fashion & Active Sports,TITAN
Maharashtra,Mumbai Suburban,Area not under any Sub-district,Mumbai,Suburbs,400061,Andheri West,"Joseph Patel   Wadi, Versova",1150,Competition4,Mens  Formals,TITAN
Maharashtra,Mumbai Suburban,Area not under any Sub-district,Mumbai,Suburbs,400053,Andheri West,"Aram Nagar,   Versova",1346,Competition4,E-Com Brands,BEING HUMAN
Maharashtra,Mumbai Suburban,Area not under any Sub-district,Mumbai,Suburbs,400053,Andheri West,Seven Bunglow,875,Competition5,BTL Fashion & Active Sports,MEXX
Maharashtra,Mumbai Suburban,Area not under any Sub-district,Mumbai,Suburbs,400053,Andheri West,Model Town,1084,Competition5,Personal Accessories,TITAN
Maharashtra,Mumbai Suburban,Area not under any Sub-district,Mumbai,Suburbs,400050,Bandra West,Mount Mary,1392,Competition5,Personal Accessories,BEING HUMAN
Maharashtra,Mumbai Suburban,Area not under any Sub-district,Mumbai,Suburbs,400053,Andheri West,Mudran Press   Colony,872,Competition3,Personal Accessories,PIERRE CARDIN
Maharashtra,Mumbai Suburban,Area not under any Sub-district,Mumbai,Suburbs,400053,Andheri West,"Ratan Nagar,   Four Bungalows",939,Competition4,Mens  Formals,BEING HUMAN
Maharashtra,Mumbai Suburban,Area not under any Sub-district,Mumbai,Suburbs,400053,Andheri West,"Bharat Nagar,   Versova",1162,Competition2,BTL Fashion & Active Sports,ALLEN SOLLY
Maharashtra,Mumbai Suburban,Area not under any Sub-district,Mumbai,Suburbs,400050,Pali Hills,Hanuman Nagar,749,Competition1,BTL Fashion & Active Sports,VAN HEUSEN
Maharashtra,Mumbai Suburban,Area not under any Sub-district,Mumbai,Suburbs,400050,Pali Hills,Auxilium Convent,1466,Competition3,Mens  Formals,BEING HUMAN
Maharashtra,Mumbai Suburban,Area not under any Sub-district,Mumbai,Suburbs,400050,Pali Hills,Auxilium Convent,1466,Competition4,E-Com Brands,BEING HUMAN
Maharashtra,Mumbai Suburban,Area not under any Sub-district,Mumbai,Suburbs,400050,Bandra West,Joggers Park,1447,Competition2,BTL Fashion & Active Sports,ALLEN SOLLY
Maharashtra,Mumbai Suburban,Area not under any Sub-district,Mumbai,Suburbs,400053,Andheri West,Model Town,1084,Competition5,BTL Fashion & Active Sports,BLACKBERRYS
Maharashtra,Mumbai Suburban,Area not under any Sub-district,Mumbai,Suburbs,400053,Andheri West,Industrial   Area,1183,Competition1,E-Com Brands,BEING HUMAN
Maharashtra,Mumbai Suburban,Area not under any Sub-district,Mumbai,Suburbs,400053,Andheri West,Bhudargarh Colony,1064,Competition1,Personal Accessories,ALLEN SOLLY
Maharashtra,Mumbai Suburban,Area not under any Sub-district,Mumbai,Suburbs,400053,Andheri West,"Manish Nagar,   Four Bungalows",636,Competition5,Personal Accessories,VAN HEUSEN
Maharashtra,Mumbai Suburban,Area not under any Sub-district,Mumbai,Suburbs,400053,Andheri West,"Manish Nagar,   Four Bungalows",636,Competition3,Mens  Formals,TITAN
Maharashtra,Mumbai Suburban,Area not under any Sub-district,Mumbai,Suburbs,400050,Pali Hills,Union Park,894,Competition4,E-Com Brands,VAN HEUSEN
Maharashtra,Mumbai Suburban,Area not under any Sub-district,Mumbai,Suburbs,400050,Pali Hills,Auxilium Convent,1466,Competition5,BTL Fashion & Active Sports,VAN HEUSEN
Maharashtra,Mumbai Suburban,Area not under any Sub-district,Mumbai,Suburbs,400050,Bandra West,D Monte Park,1452,Competition5,BTL Fashion & Active Sports,MEXX
Maharashtra,Mumbai Suburban,Area not under any Sub-district,Mumbai,Suburbs,400050,Bandra West,D Monte Park,1452,Competition1,Personal Accessories,VAN HEUSEN
Maharashtra,Mumbai Suburban,Area not under any Sub-district,Mumbai,Suburbs,400053,Andheri West,Milat Nagar,991,Competition2,Personal Accessories,TITAN
Maharashtra,Mumbai Suburban,Area not under any Sub-district,Mumbai,Suburbs,400053,Andheri West,Yamuna Nagar,617,Competition1,Personal Accessories,BEING HUMAN
Maharashtra,Mumbai Suburban,Area not under any Sub-district,Mumbai,Suburbs,400053,Andheri West,Milat Nagar,991,Competition3,BTL Fashion & Active Sports,BLACKBERRYS
Maharashtra,Mumbai Suburban,Area not under any Sub-district,Mumbai,Suburbs,400053,Andheri West,Highland Park,885,Competition2,E-Com Brands,VAN HEUSEN
Maharashtra,Mumbai Suburban,Area not under any Sub-district,Mumbai,Suburbs,400053,Andheri West,Lokhandwala   Complex,1351,Competition2,BTL Fashion & Active Sports,PIERRE CARDIN
Maharashtra,Mumbai Suburban,Area not under any Sub-district,Mumbai,Suburbs,400053,Andheri West,"Manish Nagar,   Four Bungalows",636,Competition4,Personal Accessories,TITAN
Maharashtra,Mumbai Suburban,Area not under any Sub-district,Mumbai,Suburbs,400053,Andheri West,"Indira Nagar,   Four Bungalows",662,Competition1,E-Com Brands,MEXX
Maharashtra,Mumbai Suburban,Area not under any Sub-district,Mumbai,Suburbs,400053,Andheri West,"Shiv Nagar,   D N Nagar",119,Competition3,E-Com Brands,BEING HUMAN
Maharashtra,Mumbai Suburban,Area not under any Sub-district,Mumbai,Suburbs,400053,Andheri West,Mhada Colony,1177,Competition5,E-Com Brands,VAN HEUSEN
Maharashtra,Mumbai Suburban,Area not under any Sub-district,Mumbai,Suburbs,400053,Andheri West,"Phase D,   Shastri Nagar",656,Competition2,E-Com Brands,BEING HUMAN
Maharashtra,Mumbai Suburban,Area not under any Sub-district,Mumbai,Suburbs,400053,Andheri West,"Shitladevi   Chawl, D N Nagar",99,Competition3,Personal Accessories,BLACKBERRYS
Maharashtra,Mumbai Suburban,Area not under any Sub-district,Mumbai,Suburbs,400053,Andheri West,"Shiv Nagar,   D N Nagar",119,Competition4,Mens  Formals,BLACKBERRYS
Maharashtra,Mumbai Suburban,Area not under any Sub-district,Mumbai,Suburbs,400053,Andheri West,"ESIC Nagar,   D N Nagar",123,Competition4,E-Com Brands,MEXX
Maharashtra,Mumbai Suburban,Area not under any Sub-district,Mumbai,Suburbs,400050,Bandra West,Mithun Garden,1449,Competition4,BTL Fashion & Active Sports,TITAN
Maharashtra,Mumbai Suburban,Area not under any Sub-district,Mumbai,Suburbs,400053,Andheri West,Anand Nagar,1019,Competition4,BTL Fashion & Active Sports,PIERRE CARDIN
Maharashtra,Mumbai Suburban,Area not under any Sub-district,Mumbai,Suburbs,400102,Jogeshwari West,Adarsh Nagar,1082,Competition5,Mens  Formals,MEXX
Maharashtra,Mumbai Suburban,Area not under any Sub-district,Mumbai,Suburbs,400053,Andheri West,"Aram Nagar,   Versova",1346,Competition1,Mens  Formals,BEING HUMAN
Maharashtra,Mumbai Suburban,Area not under any Sub-district,Mumbai,Suburbs,400050,Pali Hills,Chuim,306,Competition2,Mens  Formals,MEXX
Maharashtra,Mumbai Suburban,Area not under any Sub-district,Mumbai,Suburbs,400050,Khar West,Carter Road,1445,Competition1,Personal Accessories,PIERRE CARDIN
Maharashtra,Mumbai Suburban,Area not under any Sub-district,Mumbai,Suburbs,400050,Khar West,Chimbai village,1451,Competition2,Personal Accessories,TITAN
Maharashtra,Mumbai Suburban,Area not under any Sub-district,Mumbai,Suburbs,400050,Khar West,Chimbai village,1451,Competition3,Personal Accessories,TITAN
Maharashtra,Mumbai Suburban,Area not under any Sub-district,Mumbai,Suburbs,400050,Bandra West,Mount Mary,1392,Competition4,E-Com Brands,MEXX
Maharashtra,Mumbai Suburban,Area not under any Sub-district,Mumbai,Suburbs,400053,Andheri West,Milat Nagar,991,Competition2,BTL Fashion & Active Sports,BEING HUMAN
Maharashtra,Mumbai Suburban,Area not under any Sub-district,Mumbai,Suburbs,400053,Andheri West,Milat Nagar,991,Competition1,BTL Fashion & Active Sports,PIERRE CARDIN
Maharashtra,Mumbai Suburban,Area not under any Sub-district,Mumbai,Suburbs,400053,Andheri West,Lokhandwala   Complex,1351,Competition1,E-Com Brands,ALLEN SOLLY
Maharashtra,Mumbai Suburban,Area not under any Sub-district,Mumbai,Suburbs,400053,Andheri West,Four Bungalows,449,Competition5,Mens  Formals,VAN HEUSEN
Maharashtra,Mumbai Suburban,Area not under any Sub-district,Mumbai,Suburbs,400050,Bandra West,Ranwar,1285,Competition1,E-Com Brands,TITAN
Maharashtra,Mumbai Suburban,Area not under any Sub-district,Mumbai,Suburbs,400053,Andheri West,"Aram Nagar,   Versova",1346,Competition4,Personal Accessories,VAN HEUSEN
Maharashtra,Mumbai Suburban,Area not under any Sub-district,Mumbai,Suburbs,400053,Andheri West,"Aram Nagar,   Versova",1346,Competition4,BTL Fashion & Active Sports,TITAN
Maharashtra,Mumbai Suburban,Area not under any Sub-district,Mumbai,Suburbs,400053,Andheri West,SV Patel Nagar,1427,Competition2,BTL Fashion & Active Sports,MEXX
Maharashtra,Mumbai Suburban,Area not under any Sub-district,Mumbai,Suburbs,400050,Bandra West,Mount Mary,1392,Competition4,BTL Fashion & Active Sports,PIERRE CARDIN
Maharashtra,Mumbai Suburban,Area not under any Sub-district,Mumbai,Suburbs,400050,Bandra West,Joggers Park,1447,Competition2,Personal Accessories,PIERRE CARDIN
Maharashtra,Mumbai Suburban,Area not under any Sub-district,Mumbai,Suburbs,400053,Andheri West,SV Patel Nagar,1427,Competition2,BTL Fashion & Active Sports,PIERRE CARDIN
Maharashtra,Mumbai Suburban,Area not under any Sub-district,Mumbai,Suburbs,400053,Andheri West,SV Patel Nagar,1427,Competition5,Personal Accessories,BLACKBERRYS
Maharashtra,Mumbai Suburban,Area not under any Sub-district,Mumbai,Suburbs,400053,Andheri West,"Bharat Nagar,   Versova",1162,Competition2,E-Com Brands,ALLEN SOLLY
Maharashtra,Mumbai Suburban,Area not under any Sub-district,Mumbai,Suburbs,400053,Andheri West,"Bharat Nagar,   Versova",1162,Competition2,Mens  Formals,BLACKBERRYS
Maharashtra,Mumbai Suburban,Area not under any Sub-district,Mumbai,Suburbs,400050,Pali Hills,Shirley,431,Competition4,Mens  Formals,BEING HUMAN
Maharashtra,Mumbai Suburban,Area not under any Sub-district,Mumbai,Suburbs,400050,Bandra West,Joggers Park,1447,Competition5,E-Com Brands,MEXX
Maharashtra,Mumbai Suburban,Area not under any Sub-district,Mumbai,Suburbs,400053,Andheri West,"Aram Nagar,   Versova",1346,Competition3,Mens  Formals,PIERRE CARDIN
Maharashtra,Mumbai Suburban,Area not under any Sub-district,Mumbai,Suburbs,400053,Andheri West,Model Town,1084,Competition4,BTL Fashion & Active Sports,MEXX
Maharashtra,Mumbai Suburban,Area not under any Sub-district,Mumbai,Suburbs,400053,Andheri West,"Bharat Nagar,   Versova",1162,Competition4,Personal Accessories,BEING HUMAN
Maharashtra,Mumbai Suburban,Area not under any Sub-district,Mumbai,Suburbs,400053,Andheri West,Model Town,1084,Competition1,BTL Fashion & Active Sports,BEING HUMAN
Maharashtra,Mumbai Suburban,Area not under any Sub-district,Mumbai,Suburbs,400053,Andheri West,"Ratan Nagar,   Four Bungalows",939,Competition1,Personal Accessories,TITAN
Maharashtra,Mumbai Suburban,Area not under any Sub-district,Mumbai,Suburbs,400049,Juhu,Mora Gaon,1164,Competition4,BTL Fashion & Active Sports,ALLEN SOLLY
Maharashtra,Mumbai Suburban,Area not under any Sub-district,Mumbai,Suburbs,400050,Pali Hills,Union Park,894,Competition5,Mens  Formals,MEXX
Maharashtra,Mumbai Suburban,Area not under any Sub-district,Mumbai,Suburbs,400050,Bandra West,Mount Mary,1392,Competition2,Personal Accessories,PIERRE CARDIN
Maharashtra,Mumbai Suburban,Area not under any Sub-district,Mumbai,Suburbs,400053,Andheri West,"Ratan Nagar,   Four Bungalows",939,Competition2,E-Com Brands,ALLEN SOLLY
Maharashtra,Mumbai Suburban,Area not under any Sub-district,Mumbai,Suburbs,400053,Andheri West,"Bharat Nagar,   Versova",1162,Competition4,Mens  Formals,MEXX
Maharashtra,Mumbai Suburban,Area not under any Sub-district,Mumbai,Suburbs,400052,Pali Hills,Danda,309,Competition3,Personal Accessories,BLACKBERRYS
Maharashtra,Mumbai Suburban,Area not under any Sub-district,Mumbai,Suburbs,400050,Pali Hills,Union Park,894,Competition5,Mens  Formals,ALLEN SOLLY
Maharashtra,Mumbai Suburban,Area not under any Sub-district,Mumbai,Suburbs,400053,Andheri West,SV Patel Nagar,1427,Competition5,Personal Accessories,TITAN
Maharashtra,Mumbai Suburban,Area not under any Sub-district,Mumbai,Suburbs,400053,Andheri West,SV Patel Nagar,1427,Competition2,E-Com Brands,VAN HEUSEN
Maharashtra,Mumbai Suburban,Area not under any Sub-district,Mumbai,Suburbs,400053,Andheri West,Mudran Press   Colony,872,Competition3,E-Com Brands,VAN HEUSEN
Maharashtra,Mumbai Suburban,Area not under any Sub-district,Mumbai,Suburbs,400052,Old Khar West,Koliwada,743,Competition2,Personal Accessories,BLACKBERRYS
Maharashtra,Mumbai Suburban,Area not under any Sub-district,Mumbai,Suburbs,400050,Pali Hills,Union Park,894,Competition3,Mens  Formals,MEXX
Maharashtra,Mumbai Suburban,Area not under any Sub-district,Mumbai,Suburbs,400050,Bandra West,Ranwar,1285,Competition1,BTL Fashion & Active Sports,BLACKBERRYS
Maharashtra,Mumbai Suburban,Area not under any Sub-district,Mumbai,Suburbs,400053,Andheri West,SV Patel Nagar,1427,Competition3,Personal Accessories,ALLEN SOLLY
Maharashtra,Mumbai Suburban,Area not under any Sub-district,Mumbai,Suburbs,400053,Andheri West,"Aram Nagar,   Versova",1346,Competition2,E-Com Brands,BLACKBERRYS
Maharashtra,Mumbai Suburban,Area not under any Sub-district,Mumbai,Suburbs,400053,Andheri West,Lokhandwala   Complex,1351,Competition4,Personal Accessories,VAN HEUSEN
Maharashtra,Mumbai Suburban,Area not under any Sub-district,Mumbai,Suburbs,400053,Andheri West,Lokhandwala   Complex,1351,Competition4,E-Com Brands,MEXX
Maharashtra,Mumbai Suburban,Area not under any Sub-district,Mumbai,Suburbs,400053,Andheri West,"Ratan Nagar,   Four Bungalows",939,Competition5,Personal Accessories,TITAN
Maharashtra,Mumbai Suburban,Area not under any Sub-district,Mumbai,Suburbs,400053,Andheri West,"Bharat Nagar,   Versova",1162,Competition3,Mens  Formals,VAN HEUSEN
Maharashtra,Mumbai Suburban,Area not under any Sub-district,Mumbai,Suburbs,400049,Juhu,Mora Gaon,1164,Competition4,Mens  Formals,MEXX
Maharashtra,Mumbai Suburban,Area not under any Sub-district,Mumbai,Suburbs,400053,Andheri West,Lokhandwala   Complex,1351,Competition2,Personal Accessories,BLACKBERRYS
Maharashtra,Mumbai Suburban,Area not under any Sub-district,Mumbai,Suburbs,400053,Andheri West,Lokhandwala   Complex,1351,Competition4,Personal Accessories,MEXX
Maharashtra,Mumbai Suburban,Area not under any Sub-district,Mumbai,Suburbs,400053,Andheri West,Lokhandwala   Complex,1351,Competition2,BTL Fashion & Active Sports,PIERRE CARDIN
Maharashtra,Mumbai Suburban,Area not under any Sub-district,Mumbai,Suburbs,400053,Andheri West,"Ratan Nagar,   Four Bungalows",939,Competition4,Mens  Formals,MEXX
Maharashtra,Mumbai Suburban,Area not under any Sub-district,Mumbai,Suburbs,400052,Old Khar West,Danda Village,679,Competition5,BTL Fashion & Active Sports,BEING HUMAN
Maharashtra,Mumbai Suburban,Area not under any Sub-district,Mumbai,Suburbs,400050,Pali Hills,Hanuman Nagar,749,Competition2,BTL Fashion & Active Sports,BLACKBERRYS
Maharashtra,Mumbai Suburban,Area not under any Sub-district,Mumbai,Suburbs,400050,Pali Hills,Shirley,431,Competition2,Personal Accessories,TITAN
Maharashtra,Mumbai Suburban,Area not under any Sub-district,Mumbai,Suburbs,400050,Bandra West,Mount Mary,1392,Competition2,BTL Fashion & Active Sports,BLACKBERRYS
Maharashtra,Mumbai Suburban,Area not under any Sub-district,Mumbai,Suburbs,400053,Andheri West,Lokhandwala   Complex,1351,Competition2,Personal Accessories,TITAN
Maharashtra,Mumbai Suburban,Area not under any Sub-district,Mumbai,Suburbs,400050,Khar West,Rizvi Complex area,1443,Competition2,E-Com Brands,ALLEN SOLLY
Maharashtra,Mumbai Suburban,Area not under any Sub-district,Mumbai,Suburbs,400053,Andheri West,Four Bungalows,449,Competition1,Mens  Formals,PIERRE CARDIN
Maharashtra,Mumbai Suburban,Area not under any Sub-district,Mumbai,Suburbs,400050,Khar West,Rizvi Complex area,1443,Competition3,BTL Fashion & Active Sports,MEXX
Maharashtra,Mumbai Suburban,Area not under any Sub-district,Mumbai,Suburbs,400053,Andheri West,Shastri Nagar,1057,Competition2,BTL Fashion & Active Sports,PIERRE CARDIN
Maharashtra,Mumbai Suburban,Area not under any Sub-district,Mumbai,Suburbs,400053,Andheri West,"ESIC Nagar,   D N Nagar",123,Competition3,Personal Accessories,TITAN
Maharashtra,Mumbai Suburban,Area not under any Sub-district,Mumbai,Suburbs,400053,Andheri West,Four Bungalows,449,Competition3,BTL Fashion & Active Sports,MEXX
Maharashtra,Mumbai Suburban,Area not under any Sub-district,Mumbai,Suburbs,400050,Pali Hills,Auxilium Convent,1466,Competition2,Personal Accessories,MEXX
Maharashtra,Mumbai Suburban,Area not under any Sub-district,Mumbai,Suburbs,400050,Pali Hills,Auxilium Convent,1466,Competition3,Personal Accessories,BEING HUMAN
Maharashtra,Mumbai Suburban,Area not under any Sub-district,Mumbai,Suburbs,400050,Bandra West,Mount Mary,1392,Competition1,Mens  Formals,BEING HUMAN
Maharashtra,Mumbai Suburban,Area not under any Sub-district,Mumbai,Suburbs,400050,Bandra West,ONGC Colony,608,Competition3,E-Com Brands,TITAN
Maharashtra,Mumbai Suburban,Area not under any Sub-district,Mumbai,Suburbs,400102,Jogeshwari West,Adarsh Nagar,1082,Competition1,Personal Accessories,ALLEN SOLLY
Maharashtra,Mumbai Suburban,Area not under any Sub-district,Mumbai,Suburbs,400053,Andheri West,Mhada Colony,1177,Competition2,BTL Fashion & Active Sports,ALLEN SOLLY
Maharashtra,Mumbai Suburban,Area not under any Sub-district,Mumbai,Suburbs,400053,Andheri West,"Shanti Nagar,   D N Nagar",570,Competition3,BTL Fashion & Active Sports,PIERRE CARDIN
Maharashtra,Mumbai Suburban,Area not under any Sub-district,Mumbai,Suburbs,400050,Khar West,Rizvi Complex area,1443,Competition1,BTL Fashion & Active Sports,ALLEN SOLLY
Maharashtra,Mumbai Suburban,Area not under any Sub-district,Mumbai,Suburbs,400050,Bandra West,D Monte Park,1452,Competition5,Personal Accessories,VAN HEUSEN
Maharashtra,Mumbai Suburban,Area not under any Sub-district,Mumbai,Suburbs,400050,Bandra West,Vaidya Nagar,112,Competition3,Mens  Formals,BLACKBERRYS
Maharashtra,Mumbai Suburban,Area not under any Sub-district,Mumbai,Suburbs,400050,Bandra West,Ranwar,1285,Competition5,BTL Fashion & Active Sports,MEXX
Maharashtra,Mumbai Suburban,Area not under any Sub-district,Mumbai,Suburbs,400053,Andheri West,Anand Nagar,1019,Competition4,Personal Accessories,ALLEN SOLLY
Maharashtra,Mumbai Suburban,Area not under any Sub-district,Mumbai,Suburbs,400053,Andheri West,Shastri Nagar,1057,Competition1,E-Com Brands,TITAN
Maharashtra,Mumbai Suburban,Area not under any Sub-district,Mumbai,Suburbs,400050,Bandra West,Ranwar,1285,Competition2,Mens  Formals,MEXX
Maharashtra,Mumbai Suburban,Area not under any Sub-district,Mumbai,Suburbs,400050,Bandra West,Mount Mary,1392,Competition4,BTL Fashion & Active Sports,VAN HEUSEN
Maharashtra,Mumbai Suburban,Area not under any Sub-district,Mumbai,Suburbs,400053,Andheri West,Highland Park,885,Competition4,Mens  Formals,ALLEN SOLLY
Maharashtra,Mumbai Suburban,Area not under any Sub-district,Mumbai,Suburbs,400053,Andheri West,Highland Park,885,Competition2,BTL Fashion & Active Sports,MEXX
Maharashtra,Mumbai Suburban,Area not under any Sub-district,Mumbai,Suburbs,400053,Andheri West,Shastri Nagar,1057,Competition5,BTL Fashion & Active Sports,BEING HUMAN
Maharashtra,Mumbai Suburban,Area not under any Sub-district,Mumbai,Suburbs,400053,Andheri West,"Madhuban Colony,   D N Nagar",257,Competition1,Personal Accessories,ALLEN SOLLY
Maharashtra,Mumbai Suburban,Area not under any Sub-district,Mumbai,Suburbs,400053,Andheri West,"New LIC Colony,   D N Nagar",43,Competition3,BTL Fashion & Active Sports,VAN HEUSEN
Maharashtra,Mumbai Suburban,Area not under any Sub-district,Mumbai,Suburbs,400052,Khar West,Pali Village,1325,Competition5,E-Com Brands,MEXX
Maharashtra,Mumbai Suburban,Area not under any Sub-district,Mumbai,Suburbs,400050,Bandra West,Ranwar,1285,Competition5,Mens  Formals,VAN HEUSEN
Maharashtra,Mumbai Suburban,Area not under any Sub-district,Mumbai,Suburbs,400050,Bandra West,Almeida Park,1448,Competition2,Personal Accessories,BEING HUMAN
Maharashtra,Mumbai Suburban,Area not under any Sub-district,Mumbai,Suburbs,400053,Andheri West,Anand Nagar,1019,Competition2,Personal Accessories,BEING HUMAN
Maharashtra,Mumbai Suburban,Area not under any Sub-district,Mumbai,Suburbs,400053,Andheri West,"Phase D,   Shastri Nagar",656,Competition1,E-Com Brands,PIERRE CARDIN
Maharashtra,Mumbai Suburban,Area not under any Sub-district,Mumbai,Suburbs,400058,Andheri West,"Sahakar Nagar,   Azad Nagar",181,Competition3,Personal Accessories,VAN HEUSEN
Maharashtra,Mumbai Suburban,Area not under any Sub-district,Mumbai,Suburbs,400050,Bandra West,Vaidya Nagar,112,Competition4,Mens  Formals,TITAN
Maharashtra,Mumbai Suburban,Area not under any Sub-district,Mumbai,Suburbs,400050,Bandra West,Santosh Nagar,993,Competition1,Personal Accessories,BEING HUMAN
Maharashtra,Mumbai Suburban,Area not under any Sub-district,Mumbai,Suburbs,400102,Jogeshwari West,Shastri Nagar,1112,Competition5,E-Com Brands,MEXX
Maharashtra,Mumbai Suburban,Area not under any Sub-district,Mumbai,Suburbs,400050,Pali Hills,Shirley,431,Competition4,E-Com Brands,MEXX
Maharashtra,Mumbai Suburban,Area not under any Sub-district,Mumbai,Suburbs,400050,Bandra West,Ranwar,1285,Competition4,BTL Fashion & Active Sports,PIERRE CARDIN
Maharashtra,Mumbai Suburban,Area not under any Sub-district,Mumbai,Suburbs,400053,Andheri West,Mhada Colony,1177,Competition3,BTL Fashion & Active Sports,ALLEN SOLLY
Maharashtra,Mumbai Suburban,Area not under any Sub-district,Mumbai,Suburbs,400053,Andheri West,Industrial   Area,1183,Competition2,Personal Accessories,VAN HEUSEN
Maharashtra,Mumbai Suburban,Area not under any Sub-district,Mumbai,Suburbs,400053,Andheri West,"Madhuban Colony,   D N Nagar",257,Competition2,Mens  Formals,BLACKBERRYS
Maharashtra,Mumbai Suburban,Area not under any Sub-district,Mumbai,Suburbs,400050,Pali Hills,Auxilium Convent,1466,Competition4,BTL Fashion & Active Sports,PIERRE CARDIN
Maharashtra,Mumbai Suburban,Area not under any Sub-district,Mumbai,Suburbs,400050,Bandra West,D Monte Park,1452,Competition4,BTL Fashion & Active Sports,ALLEN SOLLY
Maharashtra,Mumbai Suburban,Area not under any Sub-district,Mumbai,Suburbs,400053,Andheri West,Mhada Colony,1177,Competition5,Mens  Formals,ALLEN SOLLY
Maharashtra,Mumbai Suburban,Area not under any Sub-district,Mumbai,Suburbs,400053,Andheri West,"Jeevan Nagar,   Azad Nagar",244,Competition2,E-Com Brands,ALLEN SOLLY
Maharashtra,Mumbai Suburban,Area not under any Sub-district,Mumbai,Suburbs,400058,Andheri West,"Sahakar Nagar,   Azad Nagar",181,Competition4,Mens  Formals,ALLEN SOLLY
Maharashtra,Mumbai Suburban,Area not under any Sub-district,Mumbai,Suburbs,400053,Andheri West,"Shanti Nagar,   D N Nagar",570,Competition1,Personal Accessories,VAN HEUSEN
Maharashtra,Mumbai Suburban,Area not under any Sub-district,Mumbai,Suburbs,400053,Andheri West,"Shitladevi   Chawl, D N Nagar",99,Competition3,BTL Fashion & Active Sports,TITAN
Maharashtra,Mumbai Suburban,Area not under any Sub-district,Mumbai,Suburbs,400050,Bandra West,Almeida Park,1448,Competition4,BTL Fashion & Active Sports,VAN HEUSEN
Maharashtra,Mumbai Suburban,Area not under any Sub-district,Mumbai,Suburbs,400050,Bandra West,Mithun Garden,1449,Competition2,Mens  Formals,TITAN
Maharashtra,Mumbai Suburban,Area not under any Sub-district,Mumbai,Suburbs,400050,Bandra West,Almeida Park,1448,Competition2,BTL Fashion & Active Sports,ALLEN SOLLY
Maharashtra,Mumbai Suburban,Area not under any Sub-district,Mumbai,Suburbs,400053,Andheri West,Veer Desai   Industrial Estate,1281,Competition4,BTL Fashion & Active Sports,TITAN
Maharashtra,Mumbai Suburban,Area not under any Sub-district,Mumbai,Suburbs,400053,Andheri West,"Mhada Colony,   Azad Nagar",287,Competition5,Personal Accessories,VAN HEUSEN
Maharashtra,Mumbai Suburban,Area not under any Sub-district,Mumbai,Suburbs,400050,Bandra West,Mithun Garden,1449,Competition5,BTL Fashion & Active Sports,VAN HEUSEN
Maharashtra,Mumbai Suburban,Area not under any Sub-district,Mumbai,Suburbs,400050,Bandra West,Bandra Talao,1446,Competition4,BTL Fashion & Active Sports,BEING HUMAN
Maharashtra,Mumbai Suburban,Area not under any Sub-district,Mumbai,Suburbs,400050,Bandra West,Bhabh Hospital area,1450,Competition1,E-Com Brands,BEING HUMAN
Maharashtra,Mumbai Suburban,Area not under any Sub-district,Mumbai,Suburbs,400050,Bandra West,Reclamation,1077,Competition4,BTL Fashion & Active Sports,MEXX
Maharashtra,Mumbai Suburban,Area not under any Sub-district,Mumbai,Suburbs,400053,Andheri West,Veer Desai   Industrial Estate,1281,Competition2,BTL Fashion & Active Sports,TITAN
Maharashtra,Mumbai Suburban,Area not under any Sub-district,Mumbai,Suburbs,400053,Andheri West,"Mhada Colony,   Azad Nagar",287,Competition2,Personal Accessories,PIERRE CARDIN
Maharashtra,Mumbai Suburban,Area not under any Sub-district,Mumbai,Suburbs,400050,Bandra West,Patkar Blocks,254,Competition3,Mens  Formals,BLACKBERRYS
Maharashtra,Mumbai Suburban,Area not under any Sub-district,Mumbai,Suburbs,400050,Bandra West,Santosh Nagar,993,Competition4,Mens  Formals,PIERRE CARDIN
Maharashtra,Mumbai Suburban,Area not under any Sub-district,Mumbai,Suburbs,400050,Bandra West,Patkar Blocks,254,Competition1,E-Com Brands,BEING HUMAN
Maharashtra,Mumbai Suburban,Area not under any Sub-district,Mumbai,Suburbs,400050,Bandra West,Bandra rAILWAY STATION,1468,Competition5,Personal Accessories,BEING HUMAN
Maharashtra,Mumbai Suburban,Area not under any Sub-district,Mumbai,Suburbs,400053,Andheri West,Veer Desai   Industrial Estate,1281,Competition4,BTL Fashion & Active Sports,ALLEN SOLLY
Maharashtra,Mumbai Suburban,Area not under any Sub-district,Mumbai,Suburbs,400058,Andheri West,Azad Nagar,863,Competition3,Personal Accessories,TITAN
Maharashtra,Mumbai Suburban,Area not under any Sub-district,Mumbai,Suburbs,400052,Khar West,Pali Village,1325,Competition1,E-Com Brands,MEXX
Maharashtra,Mumbai Suburban,Area not under any Sub-district,Mumbai,Suburbs,400058,Jogeshwari West,Prathmesh   Complex,1139,Competition5,Mens  Formals,PIERRE CARDIN
Maharashtra,Mumbai Suburban,Area not under any Sub-district,Mumbai,Suburbs,400050,Bandra West,Santosh Nagar,993,Competition5,Mens  Formals,TITAN
Maharashtra,Mumbai Suburban,Area not under any Sub-district,Mumbai,Suburbs,400050,Bandra West,Bandra rAILWAY STATION,1468,Competition1,BTL Fashion & Active Sports,BLACKBERRYS